{
"type": "FeatureCollection",
"name": "HydroRIVERS_v10_as",
"crs": { "type": "name", "properties": { "name": "urn:ogc:def:crs:OGC:1.3:CRS84" } },
"features": [
{"type":"Feature","properties":{"HYRIV_ID":40038183,"NEXT_DOWN":40038460,"MAIN_RIV":40097337,"LENGTH_KM":1.4,"DIST_DN_KM":684.4,"DIST_UP_KM":5.9,"CATCH_SKM":13.53,"UPLAND_SKM":13.5,"ENDORHEIC":1,"DIS_AV_CMS":0.003,"ORD_STRA":1,"ORD_CLAS":6,"ORD_FLOW":9,"HYBAS_L12":4121180990},"geometry":{"type":"LineString","coordinates":[[65.524999999999835,51.370833333332534],[65.518749999999869,51.36458333333254],[65.510416666666544,51.36458333333254]]}},
{"type":"Feature","properties":{"HYRIV_ID":40038239,"NEXT_DOWN":40038460,"MAIN_RIV":40097337,"LENGTH_KM":1.56,"DIST_DN_KM":684.5,"DIST_UP_KM":7.5,"CATCH_SKM":11.79,"UPLAND_SKM":11.8,"ENDORHEIC":1,"DIS_AV_CMS":0.003,"ORD_STRA":1,"ORD_CLAS":5,"ORD_FLOW":9,"HYBAS_L12":4121180990},"geometry":{"type":"LineString","coordinates":[[65.529166666666583,51.360416666665834],[65.514583333333206,51.360416666665834],[65.510416666666544,51.36458333333254]]}},
{"type":"Feature","properties":{"HYRIV_ID":40038460,"NEXT_DOWN":40038893,"MAIN_RIV":40097337,"LENGTH_KM":5.05,"DIST_DN_KM":679.6,"DIST_UP_KM":12.5,"CATCH_SKM":15.01,"UPLAND_SKM":40.3,"ENDORHEIC":1,"DIS_AV_CMS":0.01,"ORD_STRA":2,"ORD_CLAS":5,"ORD_FLOW":8,"HYBAS_L12":4121180990},"geometry":{"type":"LineString","coordinates":[[65.510416666666544,51.36458333333254],[65.497916666666555,51.36458333333254],[65.49375,51.360416666665834],[65.489583333333258,51.360416666665834],[65.485416666666595,51.356249999999186],[65.477083333333184,51.356249999999186],[65.472916666666521,51.352083333332523],[65.468749999999886,51.352083333332523],[65.464583333333223,51.34791666666586],[65.460416666666561,51.34791666666586],[65.456249999999898,51.343749999999169]]}},
{"type":"Feature","properties":{"HYRIV_ID":40038573,"NEXT_DOWN":40038893,"MAIN_RIV":40097337,"LENGTH_KM":8.66,"DIST_DN_KM":679.6,"DIST_UP_KM":13.6,"CATCH_SKM":36.47,"UPLAND_SKM":36.5,"ENDORHEIC":1,"DIS_AV_CMS":0.009,"ORD_STRA":1,"ORD_CLAS":4,"ORD_FLOW":9,"HYBAS_L12":4121180990},"geometry":{"type":"LineString","coordinates":[[65.562499999999858,51.339583333332506],[65.522916666666504,51.339583333332506],[65.518749999999869,51.335416666665843],[65.510416666666544,51.335416666665843],[65.506249999999881,51.339583333332506],[65.502083333333218,51.339583333332506],[65.497916666666555,51.343749999999169],[65.489583333333258,51.343749999999169],[65.485416666666595,51.339583333332506],[65.460416666666561,51.339583333332506],[65.456249999999898,51.343749999999169]]}},
{"type":"Feature","properties":{"HYRIV_ID":40038893,"NEXT_DOWN":40039170,"MAIN_RIV":40097337,"LENGTH_KM":6.11,"DIST_DN_KM":673.6,"DIST_UP_KM":19.7,"CATCH_SKM":15.15,"UPLAND_SKM":92.0,"ENDORHEIC":1,"DIS_AV_CMS":0.022,"ORD_STRA":2,"ORD_CLAS":4,"ORD_FLOW":8,"HYBAS_L12":4121180990},"geometry":{"type":"LineString","coordinates":[[65.456249999999898,51.343749999999169],[65.452083333333235,51.339583333332506],[65.447916666666572,51.339583333332506],[65.439583333333275,51.331249999999194],[65.427083333333201,51.331249999999194],[65.422916666666538,51.327083333332531],[65.418749999999875,51.327083333332531],[65.410416666666578,51.318749999999177],[65.40625,51.318749999999177],[65.397916666666504,51.310416666665851]]}},
{"type":"Feature","properties":{"HYRIV_ID":40038927,"NEXT_DOWN":40039170,"MAIN_RIV":40097337,"LENGTH_KM":1.27,"DIST_DN_KM":673.6,"DIST_UP_KM":8.2,"CATCH_SKM":11.67,"UPLAND_SKM":11.7,"ENDORHEIC":1,"DIS_AV_CMS":0.003,"ORD_STRA":1,"ORD_CLAS":5,"ORD_FLOW":9,"HYBAS_L12":4121180990},"geometry":{"type":"LineString","coordinates":[[65.4125,51.306249999999203],[65.402083333333252,51.306249999999203],[65.397916666666504,51.310416666665851]]}},
{"type":"Feature","properties":{"HYRIV_ID":40039170,"NEXT_DOWN":40039243,"MAIN_RIV":40097337,"LENGTH_KM":3.6,"DIST_DN_KM":670.0,"DIST_UP_KM":23.2,"CATCH_SKM":9.13,"UPLAND_SKM":112.8,"ENDORHEIC":1,"DIS_AV_CMS":0.026,"ORD_STRA":2,"ORD_CLAS":4,"ORD_FLOW":8,"HYBAS_L12":4121180990},"geometry":{"type":"LineString","coordinates":[[65.397916666666504,51.310416666665851],[65.397476448864595,51.310416666665851]]}},
{"type":"Feature","properties":{"HYRIV_ID":40039171,"NEXT_DOWN":40039411,"MAIN_RIV":40097337,"LENGTH_KM":3.85,"DIST_DN_KM":691.2,"DIST_UP_KM":9.2,"CATCH_SKM":23.07,"UPLAND_SKM":23.1,"ENDORHEIC":1,"DIS_AV_CMS":0.007,"ORD_STRA":1,"ORD_CLAS":6,"ORD_FLOW":9,"HYBAS_L12":4121181110},"geometry":{"type":"LineString","coordinates":[[65.691666666666521,51.320833333332494],[65.685416666666526,51.314583333332514],[65.685416666666526,51.310416666665851],[65.689583333333189,51.306249999999203],[65.681249999999864,51.297916666665877],[65.681249999999864,51.289583333332523]]}},
{"type":"Feature","properties":{"HYRIV_ID":40039172,"NEXT_DOWN":40039411,"MAIN_RIV":40097337,"LENGTH_KM":1.16,"DIST_DN_KM":691.1,"DIST_UP_KM":11.5,"CATCH_SKM":2.28,"UPLAND_SKM":46.0,"ENDORHEIC":1,"DIS_AV_CMS":0.015,"ORD_STRA":2,"ORD_CLAS":5,"ORD_FLOW":8,"HYBAS_L12":4121181110},"geometry":{"type":"LineString","coordinates":[[65.6979166666666,51.289583333332523],[65.681249999999864,51.289583333332523]]}},
{"type":"Feature","properties":{"HYRIV_ID":40039173,"NEXT_DOWN":40039172,"MAIN_RIV":40097337,"LENGTH_KM":3.58,"DIST_DN_KM":692.4,"DIST_UP_KM":7.6,"CATCH_SKM":18.11,"UPLAND_SKM":18.1,"ENDORHEIC":1,"DIS_AV_CMS":0.006,"ORD_STRA":1,"ORD_CLAS":6,"ORD_FLOW":9,"HYBAS_L12":4121181110},"geometry":{"type":"LineString","coordinates":[[65.729166666666544,51.312499999999183],[65.722916666666549,51.306249999999203],[65.718749999999886,51.306249999999203],[65.706249999999898,51.293749999999186],[65.702083333333263,51.293749999999186],[65.6979166666666,51.289583333332523]]}},
{"type":"Feature","properties":{"HYRIV_ID":40039244,"NEXT_DOWN":40039172,"MAIN_RIV":40097337,"LENGTH_KM":4.81,"DIST_DN_KM":692.4,"DIST_UP_KM":10.1,"CATCH_SKM":25.64,"UPLAND_SKM":25.6,"ENDORHEIC":1,"DIS_AV_CMS":0.008,"ORD_STRA":1,"ORD_CLAS":5,"ORD_FLOW":9,"HYBAS_L12":4121181110},"geometry":{"type":"LineString","coordinates":[[65.754166666666578,51.283333333332486],[65.747916666666583,51.289583333332523],[65.731249999999847,51.289583333332523],[65.727083333333212,51.28541666666586],[65.702083333333263,51.28541666666586],[65.6979166666666,51.289583333332523]]}},
{"type":"Feature","properties":{"HYRIV_ID":40039291,"NEXT_DOWN":40039337,"MAIN_RIV":40097337,"LENGTH_KM":11.29,"DIST_DN_KM":674.2,"DIST_UP_KM":16.5,"CATCH_SKM":39.86,"UPLAND_SKM":39.9,"ENDORHEIC":1,"DIS_AV_CMS":0.01,"ORD_STRA":1,"ORD_CLAS":5,"ORD_FLOW":8,"HYBAS_L12":4121180990},"geometry":{"type":"LineString","coordinates":[[65.529166666666583,51.30208333333254],[65.522916666666504,51.30208333333254],[65.518749999999869,51.306249999999203],[65.514583333333206,51.306249999999203],[65.506249999999881,51.297916666665877],[65.502083333333218,51.297916666665877],[65.497916666666555,51.293749999999186],[65.485416666666595,51.293749999999186],[65.481249999999847,51.297916666665877],[65.464583333333223,51.297916666665877],[65.460416666666561,51.293749999999186],[65.456249999999898,51.297916666665877],[65.44375,51.297916666665877],[65.439583333333275,51.293749999999186],[65.418749999999875,51.293749999999186],[65.416757533093772,51.291757533093062]]}},
{"type":"Feature","properties":{"HYRIV_ID":40039292,"NEXT_DOWN":40039410,"MAIN_RIV":40097337,"LENGTH_KM":3.93,"DIST_DN_KM":686.7,"DIST_UP_KM":8.6,"CATCH_SKM":17.71,"UPLAND_SKM":17.7,"ENDORHEIC":1,"DIS_AV_CMS":0.005,"ORD_STRA":1,"ORD_CLAS":7,"ORD_FLOW":9,"HYBAS_L12":4121181110},"geometry":{"type":"LineString","coordinates":[[65.614583333333258,51.312499999999183],[65.614583333333258,51.297916666665877],[65.610416666666509,51.293749999999186],[65.610416666666509,51.28541666666586],[65.614583333333258,51.281249999999197],[65.61875,51.281249999999197]]}},
{"type":"Feature","properties":{"HYRIV_ID":40039293,"NEXT_DOWN":40039410,"MAIN_RIV":40097337,"LENGTH_KM":2.91,"DIST_DN_KM":686.9,"DIST_UP_KM":8.8,"CATCH_SKM":15.56,"UPLAND_SKM":15.6,"ENDORHEIC":1,"DIS_AV_CMS":0.005,"ORD_STRA":1,"ORD_CLAS":6,"ORD_FLOW":9,"HYBAS_L12":4121181110},"geometry":{"type":"LineString","coordinates":[[65.645833333333201,51.297916666665877],[65.639583333333206,51.297916666665877],[65.631249999999881,51.289583333332523],[65.627083333333218,51.289583333332523],[65.61875,51.281249999999197]]}},
{"type":"Feature","properties":{"HYRIV_ID":40039409,"NEXT_DOWN":40039699,"MAIN_RIV":40097337,"LENGTH_KM":2.4,"DIST_DN_KM":686.0,"DIST_UP_KM":6.4,"CATCH_SKM":16.38,"UPLAND_SKM":16.4,"ENDORHEIC":1,"DIS_AV_CMS":0.005,"ORD_STRA":1,"ORD_CLAS":7,"ORD_FLOW":9,"HYBAS_L12":4121181110},"geometry":{"type":"LineString","coordinates":[[65.591666666666555,51.281249999999197],[65.602083333333184,51.281249999999197],[65.606249999999847,51.277083333332506],[65.614583333333258,51.277083333332506],[65.61875,51.272916666665843]]}},
{"type":"Feature","properties":{"HYRIV_ID":40039410,"NEXT_DOWN":40039699,"MAIN_RIV":40097337,"LENGTH_KM":0.93,"DIST_DN_KM":685.9,"DIST_UP_KM":9.8,"CATCH_SKM":0.81,"UPLAND_SKM":34.1,"ENDORHEIC":1,"DIS_AV_CMS":0.01,"ORD_STRA":2,"ORD_CLAS":6,"ORD_FLOW":8,"HYBAS_L12":4121181110},"geometry":{"type":"LineString","coordinates":[[65.61875,51.281249999999197],[65.61875,51.272916666665843]]}},
{"type":"Feature","properties":{"HYRIV_ID":40039411,"NEXT_DOWN":40039699,"MAIN_RIV":40097337,"LENGTH_KM":5.37,"DIST_DN_KM":685.8,"DIST_UP_KM":16.8,"CATCH_SKM":14.1,"UPLAND_SKM":83.2,"ENDORHEIC":1,"DIS_AV_CMS":0.024,"ORD_STRA":2,"ORD_CLAS":5,"ORD_FLOW":8,"HYBAS_L12":4121181110},"geometry":{"type":"LineString","coordinates":[[65.681249999999864,51.289583333332523],[65.677083333333229,51.28541666666586],[65.66458333333324,51.28541666666586],[65.660416666666578,51.281249999999197],[65.656249999999829,51.281249999999197],[65.652083333333195,51.277083333332506],[65.639583333333206,51.277083333332506],[65.635416666666544,51.272916666665843],[65.61875,51.272916666665843]]}},
{"type":"Feature","properties":{"HYRIV_ID":40039699,"NEXT_DOWN":40040155,"MAIN_RIV":40097337,"LENGTH_KM":3.23,"DIST_DN_KM":682.8,"DIST_UP_KM":19.8,"CATCH_SKM":5.1,"UPLAND_SKM":138.8,"ENDORHEIC":1,"DIS_AV_CMS":0.039,"ORD_STRA":3,"ORD_CLAS":5,"ORD_FLOW":8,"HYBAS_L12":4120121480},"geometry":{"type":"LineString","coordinates":[[65.61875,51.272916666665843],[65.614583333333258,51.26874999999918],[65.614583333333258,51.264583333332531],[65.610416666666509,51.260416666665868],[65.606249999999847,51.260416666665868],[65.602083333333184,51.256249999999206],[65.597916666666549,51.256249999999206],[65.593749999999886,51.252083333332514]]}},
{"type":"Feature","properties":{"HYRIV_ID":40039743,"NEXT_DOWN":40040155,"MAIN_RIV":40097337,"LENGTH_KM":13.76,"DIST_DN_KM":682.8,"DIST_UP_KM":18.3,"CATCH_SKM":54.41,"UPLAND_SKM":54.4,"ENDORHEIC":1,"DIS_AV_CMS":0.017,"ORD_STRA":1,"ORD_CLAS":6,"ORD_FLOW":8,"HYBAS_L12":4120121480},"geometry":{"type":"LineString","coordinates":[[65.741666666666589,51.254166666665888],[65.735416666666509,51.260416666665868],[65.718749999999886,51.260416666665868],[65.710416666666561,51.252083333332514],[65.702083333333263,51.252083333332514],[65.6979166666666,51.247916666665851],[65.69375,51.252083333332514],[65.689583333333189,51.252083333332514],[65.685416666666526,51.256249999999206],[65.672916666666566,51.256249999999206],[65.66458333333324,51.247916666665851],[65.656249999999829,51.247916666665851],[65.652083333333195,51.252083333332514],[65.647916666666532,51.252083333332514],[65.643749999999869,51.247916666665851],[65.639583333333206,51.252083333332514],[65.61875,51.252083333332514],[65.614583333333258,51.247916666665851],[65.597916666666549,51.247916666665851],[65.593749999999886,51.252083333332514]]}},
{"type":"Feature","properties":{"HYRIV_ID":40040034,"NEXT_DOWN":40040275,"MAIN_RIV":40097337,"LENGTH_KM":4.07,"DIST_DN_KM":688.7,"DIST_UP_KM":9.6,"CATCH_SKM":16.67,"UPLAND_SKM":16.7,"ENDORHEIC":1,"DIS_AV_CMS":0.006,"ORD_STRA":1,"ORD_CLAS":7,"ORD_FLOW":9,"HYBAS_L12":4120121540},"geometry":{"type":"LineString","coordinates":[[65.716666666666555,51.227083333332523],[65.710416666666561,51.227083333332523],[65.702083333333263,51.235416666665877],[65.689583333333189,51.235416666665877],[65.685416666666526,51.231249999999172],[65.677083333333229,51.231249999999172],[65.672916666666566,51.227083333332523]]}},
{"type":"Feature","properties":{"HYRIV_ID":40040154,"NEXT_DOWN":40040379,"MAIN_RIV":40097337,"LENGTH_KM":5.14,"DIST_DN_KM":676.5,"DIST_UP_KM":9.3,"CATCH_SKM":17.46,"UPLAND_SKM":17.5,"ENDORHEIC":1,"DIS_AV_CMS":0.005,"ORD_STRA":1,"ORD_CLAS":6,"ORD_FLOW":9,"HYBAS_L12":4120121480},"geometry":{"type":"LineString","coordinates":[[65.524999999999835,51.254166666665888],[65.518749999999869,51.247916666665851],[65.522916666666504,51.243749999999189],[65.518749999999869,51.23958333333254],[65.518749999999869,51.235416666665877],[65.514583333333206,51.231249999999172],[65.518749999999869,51.227083333332523],[65.522916666666504,51.227083333332523],[65.527083333333167,51.22291666666586],[65.53125,51.22291666666586],[65.535416666666578,51.218749999999154]]}},
{"type":"Feature","properties":{"HYRIV_ID":40040155,"NEXT_DOWN":40040379,"MAIN_RIV":40097337,"LENGTH_KM":6.32,"DIST_DN_KM":676.5,"DIST_UP_KM":26.0,"CATCH_SKM":31.45,"UPLAND_SKM":224.6,"ENDORHEIC":1,"DIS_AV_CMS":0.06,"ORD_STRA":3,"ORD_CLAS":5,"ORD_FLOW":8,"HYBAS_L12":4120121480},"geometry":{"type":"LineString","coordinates":[[65.593749999999886,51.252083333332514],[65.585416666666561,51.243749999999189],[65.585416666666561,51.23958333333254],[65.581249999999898,51.235416666665877],[65.577083333333235,51.235416666665877],[65.5729166666666,51.231249999999172],[65.560416666666526,51.231249999999172],[65.556249999999864,51.227083333332523],[65.552083333333201,51.227083333332523],[65.547916666666538,51.22291666666586],[65.53958333333324,51.22291666666586],[65.535416666666578,51.218749999999154]]}},
{"type":"Feature","properties":{"HYRIV_ID":40040275,"NEXT_DOWN":40040502,"MAIN_RIV":40097337,"LENGTH_KM":3.06,"DIST_DN_KM":685.7,"DIST_UP_KM":13.1,"CATCH_SKM":7.26,"UPLAND_SKM":47.7,"ENDORHEIC":1,"DIS_AV_CMS":0.018,"ORD_STRA":2,"ORD_CLAS":6,"ORD_FLOW":8,"HYBAS_L12":4120121540},"geometry":{"type":"LineString","coordinates":[[65.672916666666566,51.227083333332523],[65.66875,51.227083333332523],[65.66458333333324,51.22291666666586],[65.660416666666578,51.22291666666586],[65.656249999999829,51.218749999999154],[65.652083333333195,51.218749999999154],[65.643749999999869,51.210416666665843]]}},
{"type":"Feature","properties":{"HYRIV_ID":40040379,"NEXT_DOWN":40040435,"MAIN_RIV":40097337,"LENGTH_KM":2.77,"DIST_DN_KM":673.8,"DIST_UP_KM":28.7,"CATCH_SKM":8.47,"UPLAND_SKM":250.6,"ENDORHEIC":1,"DIS_AV_CMS":0.066,"ORD_STRA":3,"ORD_CLAS":5,"ORD_FLOW":8,"HYBAS_L12":4120121480},"geometry":{"type":"LineString","coordinates":[[65.535416666666578,51.218749999999154],[65.53125,51.214583333332506],[65.527083333333167,51.214583333332506],[65.518749999999869,51.20624999999918],[65.514583333333206,51.20624999999918],[65.510416666666544,51.202083333332531]]}},
{"type":"Feature","properties":{"HYRIV_ID":40040380,"NEXT_DOWN":40040502,"MAIN_RIV":40097337,"LENGTH_KM":2.03,"DIST_DN_KM":685.6,"DIST_UP_KM":8.8,"CATCH_SKM":17.63,"UPLAND_SKM":17.6,"ENDORHEIC":1,"DIS_AV_CMS":0.007,"ORD_STRA":1,"ORD_CLAS":7,"ORD_FLOW":9,"HYBAS_L12":4120121540},"geometry":{"type":"LineString","coordinates":[[65.6625,51.202083333332531],[65.647916666666532,51.202083333332531],[65.643749999999869,51.20624999999918],[65.643749999999869,51.210416666665843]]}},
{"type":"Feature","properties":{"HYRIV_ID":40040381,"NEXT_DOWN":40040275,"MAIN_RIV":40097337,"LENGTH_KM":4.21,"DIST_DN_KM":688.7,"DIST_UP_KM":10.1,"CATCH_SKM":23.81,"UPLAND_SKM":23.8,"ENDORHEIC":1,"DIS_AV_CMS":0.009,"ORD_STRA":1,"ORD_CLAS":6,"ORD_FLOW":9,"HYBAS_L12":4120121540},"geometry":{"type":"LineString","coordinates":[[65.708333333333229,51.202083333332531],[65.702083333333263,51.202083333332531],[65.69375,51.210416666665843],[65.689583333333189,51.210416666665843],[65.685416666666526,51.214583333332506],[65.685416666666526,51.218749999999154],[65.681249999999864,51.218749999999154],[65.672916666666566,51.227083333332523]]}},
{"type":"Feature","properties":{"HYRIV_ID":40040434,"NEXT_DOWN":40040604,"MAIN_RIV":40097337,"LENGTH_KM":2.71,"DIST_DN_KM":671.2,"DIST_UP_KM":7.9,"CATCH_SKM":14.11,"UPLAND_SKM":14.1,"ENDORHEIC":1,"DIS_AV_CMS":0.004,"ORD_STRA":1,"ORD_CLAS":6,"ORD_FLOW":9,"HYBAS_L12":4120122760},"geometry":{"type":"LineString","coordinates":[[65.477083333333184,51.220833333332529],[65.477083333333184,51.214583333332506],[65.485416666666595,51.20624999999918],[65.485416666666595,51.197916666665868]]}},
{"type":"Feature","properties":{"HYRIV_ID":40040435,"NEXT_DOWN":40040604,"MAIN_RIV":40097337,"LENGTH_KM":2.51,"DIST_DN_KM":671.1,"DIST_UP_KM":31.4,"CATCH_SKM":13.18,"UPLAND_SKM":389.5,"ENDORHEIC":1,"DIS_AV_CMS":0.108,"ORD_STRA":3,"ORD_CLAS":5,"ORD_FLOW":7,"HYBAS_L12":4120122760},"geometry":{"type":"LineString","coordinates":[[65.510416666666544,51.202083333332531],[65.506249999999881,51.202083333332531],[65.502083333333218,51.20624999999918],[65.49375,51.197916666665868],[65.485416666666595,51.197916666665868]]}},
{"type":"Feature","properties":{"HYRIV_ID":40040502,"NEXT_DOWN":40040557,"MAIN_RIV":40097337,"LENGTH_KM":7.34,"DIST_DN_KM":678.5,"DIST_UP_KM":20.3,"CATCH_SKM":21.79,"UPLAND_SKM":87.2,"ENDORHEIC":1,"DIS_AV_CMS":0.029,"ORD_STRA":2,"ORD_CLAS":6,"ORD_FLOW":8,"HYBAS_L12":4120121540},"geometry":{"type":"LineString","coordinates":[[65.643749999999869,51.210416666665843],[65.639583333333206,51.210416666665843],[65.635416666666544,51.20624999999918],[65.631249999999881,51.20624999999918],[65.627083333333218,51.202083333332531],[65.606249999999847,51.202083333332531],[65.602083333333184,51.20624999999918],[65.589583333333223,51.20624999999918],[65.585416666666561,51.202083333332531],[65.56875,51.202083333332531],[65.560416666666526,51.193749999999206]]}},
{"type":"Feature","properties":{"HYRIV_ID":40040557,"NEXT_DOWN":40040435,"MAIN_RIV":40097337,"LENGTH_KM":4.72,"DIST_DN_KM":673.6,"DIST_UP_KM":25.2,"CATCH_SKM":12.38,"UPLAND_SKM":125.8,"ENDORHEIC":1,"DIS_AV_CMS":0.041,"ORD_STRA":2,"ORD_CLAS":6,"ORD_FLOW":8,"HYBAS_L12":4120121540},"geometry":{"type":"LineString","coordinates":[[65.560416666666526,51.193749999999206],[65.556249999999864,51.193749999999206],[65.552083333333201,51.189583333332514],[65.522916666666504,51.189583333332514],[65.518749999999869,51.193749999999206],[65.518749999999869,51.197916666665868],[65.514583333333206,51.202083333332531],[65.510416666666544,51.202083333332531]]}},
{"type":"Feature","properties":{"HYRIV_ID":40040604,"NEXT_DOWN":40041074,"MAIN_RIV":40097337,"LENGTH_KM":3.96,"DIST_DN_KM":667.4,"DIST_UP_KM":35.1,"CATCH_SKM":18.16,"UPLAND_SKM":421.8,"ENDORHEIC":1,"DIS_AV_CMS":0.117,"ORD_STRA":3,"ORD_CLAS":5,"ORD_FLOW":7,"HYBAS_L12":4120122760},"geometry":{"type":"LineString","coordinates":[[65.485416666666595,51.197916666665868],[65.481249999999847,51.193749999999206],[65.468749999999886,51.193749999999206],[65.464583333333223,51.189583333332514],[65.445091034968812,51.189583333332514]]}},
{"type":"Feature","properties":{"HYRIV_ID":40041075,"NEXT_DOWN":40040557,"MAIN_RIV":40097337,"LENGTH_KM":8.81,"DIST_DN_KM":678.3,"DIST_UP_KM":13.4,"CATCH_SKM":26.25,"UPLAND_SKM":26.2,"ENDORHEIC":1,"DIS_AV_CMS":0.01,"ORD_STRA":1,"ORD_CLAS":7,"ORD_FLOW":8,"HYBAS_L12":4120121540},"geometry":{"type":"LineString","coordinates":[[65.649999999999864,51.152083333332534],[65.643749999999869,51.152083333332534],[65.639583333333206,51.156249999999197],[65.635416666666544,51.156249999999197],[65.631249999999881,51.16041666666586],[65.622916666666583,51.16041666666586],[65.61875,51.164583333332509],[65.606249999999847,51.164583333332509],[65.602083333333184,51.168749999999214],[65.597916666666549,51.168749999999214],[65.593749999999886,51.172916666665877],[65.589583333333223,51.172916666665877],[65.5729166666666,51.189583333332514],[65.56875,51.189583333332514],[65.564583333333189,51.193749999999206],[65.560416666666526,51.193749999999206]]}},
{"type":"Feature","properties":{"HYRIV_ID":40041838,"NEXT_DOWN":40042327,"MAIN_RIV":40097337,"LENGTH_KM":9.63,"DIST_DN_KM":672.0,"DIST_UP_KM":15.3,"CATCH_SKM":36.9,"UPLAND_SKM":36.9,"ENDORHEIC":1,"DIS_AV_CMS":0.014,"ORD_STRA":1,"ORD_CLAS":5,"ORD_FLOW":8,"HYBAS_L12":4120122810},"geometry":{"type":"LineString","coordinates":[[65.574999999999818,51.152083333332534],[65.564583333333189,51.152083333332534],[65.560416666666526,51.156249999999197],[65.53958333333324,51.156249999999197],[65.532301950710533,51.148968617376518]]}},
{"type":"Feature","properties":{"HYRIV_ID":40041912,"NEXT_DOWN":40042496,"MAIN_RIV":40097337,"LENGTH_KM":2.8,"DIST_DN_KM":698.0,"DIST_UP_KM":8.1,"CATCH_SKM":16.97,"UPLAND_SKM":17.0,"ENDORHEIC":1,"DIS_AV_CMS":0.008,"ORD_STRA":1,"ORD_CLAS":6,"ORD_FLOW":9,"HYBAS_L12":4121182630},"geometry":{"type":"LineString","coordinates":[[65.78958333333324,51.12083333333252],[65.78958333333324,51.114583333332526],[65.785416666666492,51.110416666665877],[65.785416666666492,51.106249999999214],[65.781249999999858,51.102083333332551],[65.785416666666492,51.09791666666586]]}},
{"type":"Feature","properties":{"HYRIV_ID":40041913,"NEXT_DOWN":40042496,"MAIN_RIV":40097337,"LENGTH_KM":4.72,"DIST_DN_KM":697.7,"DIST_UP_KM":10.3,"CATCH_SKM":22.09,"UPLAND_SKM":22.1,"ENDORHEIC":1,"DIS_AV_CMS":0.011,"ORD_STRA":1,"ORD_CLAS":5,"ORD_FLOW":8,"HYBAS_L12":4121182630},"geometry":{"type":"LineString","coordinates":[[65.829166666666509,51.124999999999169],[65.8229166666666,51.118749999999189],[65.818749999999852,51.118749999999189],[65.810416666666526,51.110416666665877],[65.806249999999892,51.110416666665877],[65.797916666666566,51.102083333332551],[65.79375,51.102083333332551],[65.78958333333324,51.09791666666586],[65.785416666666492,51.09791666666586]]}},
{"type":"Feature","properties":{"HYRIV_ID":40041914,"NEXT_DOWN":40042386,"MAIN_RIV":40097337,"LENGTH_KM":4.26,"DIST_DN_KM":702.1,"DIST_UP_KM":9.2,"CATCH_SKM":27.75,"UPLAND_SKM":27.7,"ENDORHEIC":1,"DIS_AV_CMS":0.014,"ORD_STRA":1,"ORD_CLAS":5,"ORD_FLOW":8,"HYBAS_L12":4120123410},"geometry":{"type":"LineString","coordinates":[[65.88333333333324,51.124999999999169],[65.877083333333246,51.118749999999189],[65.877083333333246,51.114583333332526],[65.872916666666583,51.110416666665877],[65.86875,51.110416666665877],[65.864583333333172,51.106249999999214],[65.856249999999875,51.106249999999214],[65.856249999999875,51.102083333332551],[65.852083333333212,51.09791666666586]]}},
{"type":"Feature","properties":{"HYRIV_ID":40041915,"NEXT_DOWN":40041966,"MAIN_RIV":40097337,"LENGTH_KM":2.95,"DIST_DN_KM":703.6,"DIST_UP_KM":11.6,"CATCH_SKM":20.35,"UPLAND_SKM":20.3,"ENDORHEIC":1,"DIS_AV_CMS":0.011,"ORD_STRA":1,"ORD_CLAS":5,"ORD_FLOW":8,"HYBAS_L12":4120123410},"geometry":{"type":"LineString","coordinates":[[65.899999999999864,51.102083333332551],[65.889583333333206,51.102083333332551],[65.885416666666572,51.106249999999214],[65.88125,51.102083333332551],[65.877083333333246,51.102083333332551],[65.872916666666583,51.09791666666586],[65.86875,51.09791666666586]]}},
{"type":"Feature","properties":{"HYRIV_ID":40041966,"NEXT_DOWN":40042386,"MAIN_RIV":40097337,"LENGTH_KM":1.68,"DIST_DN_KM":702.1,"DIST_UP_KM":13.5,"CATCH_SKM":2.02,"UPLAND_SKM":41.9,"ENDORHEIC":1,"DIS_AV_CMS":0.022,"ORD_STRA":2,"ORD_CLAS":4,"ORD_FLOW":8,"HYBAS_L12":4120123410},"geometry":{"type":"LineString","coordinates":[[65.86875,51.09791666666586],[65.864583333333172,51.093749999999197],[65.856249999999875,51.093749999999197],[65.852083333333212,51.09791666666586]]}},
{"type":"Feature","properties":{"HYRIV_ID":40042028,"NEXT_DOWN":40041966,"MAIN_RIV":40097337,"LENGTH_KM":5.24,"DIST_DN_KM":703.8,"DIST_UP_KM":11.8,"CATCH_SKM":19.55,"UPLAND_SKM":19.6,"ENDORHEIC":1,"DIS_AV_CMS":0.011,"ORD_STRA":1,"ORD_CLAS":4,"ORD_FLOW":8,"HYBAS_L12":4120123410},"geometry":{"type":"LineString","coordinates":[[65.929166666666561,51.089583333332534],[65.902083333333195,51.089583333332534],[65.897916666666532,51.093749999999197],[65.88125,51.093749999999197],[65.877083333333246,51.089583333332534],[65.86875,51.09791666666586]]}},
{"type":"Feature","properties":{"HYRIV_ID":40042143,"NEXT_DOWN":40042568,"MAIN_RIV":40097337,"LENGTH_KM":8.12,"DIST_DN_KM":684.2,"DIST_UP_KM":13.4,"CATCH_SKM":29.37,"UPLAND_SKM":29.4,"ENDORHEIC":1,"DIS_AV_CMS":0.013,"ORD_STRA":1,"ORD_CLAS":5,"ORD_FLOW":8,"HYBAS_L12":4121182510},"geometry":{"type":"LineString","coordinates":[[65.687499999999858,51.131249999999206],[65.681249999999864,51.131249999999206],[65.677083333333229,51.1270833333325],[65.66458333333324,51.1270833333325],[65.660416666666578,51.122916666665851],[65.660416666666578,51.118749999999189],[65.656249999999829,51.114583333332526],[65.652083333333195,51.114583333332526],[65.647916666666532,51.110416666665877],[65.643749999999869,51.110416666665877],[65.639583333333206,51.106249999999214],[65.639583333333206,51.102083333332551],[65.631249999999881,51.093749999999197],[65.631249999999881,51.089583333332534],[65.635416666666544,51.085416666665843],[65.635416666666544,51.08124999999918]]}},
{"type":"Feature","properties":{"HYRIV_ID":40042144,"NEXT_DOWN":40042568,"MAIN_RIV":40097337,"LENGTH_KM":0.44,"DIST_DN_KM":684.1,"DIST_UP_KM":7.0,"CATCH_SKM":13.75,"UPLAND_SKM":13.8,"ENDORHEIC":1,"DIS_AV_CMS":0.007,"ORD_STRA":1,"ORD_CLAS":6,"ORD_FLOW":9,"HYBAS_L12":4121182510},"geometry":{"type":"LineString","coordinates":[[65.641666666666538,51.08124999999918],[65.635416666666544,51.08124999999918]]}},
{"type":"Feature","properties":{"HYRIV_ID":40042386,"NEXT_DOWN":40042498,"MAIN_RIV":40097337,"LENGTH_KM":4.67,"DIST_DN_KM":697.5,"DIST_UP_KM":18.1,"CATCH_SKM":11.06,"UPLAND_SKM":80.7,"ENDORHEIC":1,"DIS_AV_CMS":0.04,"ORD_STRA":2,"ORD_CLAS":4,"ORD_FLOW":8,"HYBAS_L12":4120123410},"geometry":{"type":"LineString","coordinates":[[65.852083333333212,51.09791666666586],[65.8229166666666,51.068749999999206],[65.818749999999852,51.068749999999206],[65.814583333333189,51.064583333332543]]}},
{"type":"Feature","properties":{"HYRIV_ID":40042387,"NEXT_DOWN":40042639,"MAIN_RIV":40097337,"LENGTH_KM":4.12,"DIST_DN_KM":704.5,"DIST_UP_KM":9.5,"CATCH_SKM":21.72,"UPLAND_SKM":21.7,"ENDORHEIC":1,"DIS_AV_CMS":0.013,"ORD_STRA":1,"ORD_CLAS":5,"ORD_FLOW":8,"HYBAS_L12":4120123410},"geometry":{"type":"LineString","coordinates":[[65.933333333333223,51.064583333332543],[65.927083333333229,51.064583333332543],[65.922916666666566,51.068749999999206],[65.91875,51.064583333332543],[65.914583333333155,51.068749999999206],[65.885416666666572,51.068749999999206]]}},
{"type":"Feature","properties":{"HYRIV_ID":40042437,"NEXT_DOWN":40042639,"MAIN_RIV":40097337,"LENGTH_KM":1.28,"DIST_DN_KM":704.6,"DIST_UP_KM":8.5,"CATCH_SKM":11.2,"UPLAND_SKM":11.2,"ENDORHEIC":1,"DIS_AV_CMS":0.007,"ORD_STRA":1,"ORD_CLAS":6,"ORD_FLOW":9,"HYBAS_L12":4120123410},"geometry":{"type":"LineString","coordinates":[[65.891666666666538,51.05833333333252],[65.885416666666572,51.064583333332543],[65.885416666666572,51.068749999999206]]}},
{"type":"Feature","properties":{"HYRIV_ID":40042496,"NEXT_DOWN":40042757,"MAIN_RIV":40097337,"LENGTH_KM":5.89,"DIST_DN_KM":692.0,"DIST_UP_KM":16.1,"CATCH_SKM":10.92,"UPLAND_SKM":50.0,"ENDORHEIC":1,"DIS_AV_CMS":0.023,"ORD_STRA":2,"ORD_CLAS":5,"ORD_FLOW":8,"HYBAS_L12":4121182630},"geometry":{"type":"LineString","coordinates":[[65.785416666666492,51.09791666666586],[65.781249999999858,51.093749999999197],[65.777083333333195,51.093749999999197],[65.772916666666532,51.089583333332534],[65.768749999999869,51.089583333332534],[65.752083333333246,51.072916666665854],[65.752083333333246,51.068749999999206],[65.74375,51.060416666665837],[65.74375,51.056249999999189]]}},
{"type":"Feature","properties":{"HYRIV_ID":40042497,"NEXT_DOWN":40042757,"MAIN_RIV":40097337,"LENGTH_KM":1.75,"DIST_DN_KM":691.9,"DIST_UP_KM":23.7,"CATCH_SKM":5.26,"UPLAND_SKM":272.9,"ENDORHEIC":1,"DIS_AV_CMS":0.153,"ORD_STRA":3,"ORD_CLAS":4,"ORD_FLOW":7,"HYBAS_L12":4121182630},"geometry":{"type":"LineString","coordinates":[[65.768749999999869,51.056249999999189],[65.74375,51.056249999999189]]}},
{"type":"Feature","properties":{"HYRIV_ID":40042498,"NEXT_DOWN":40042497,"MAIN_RIV":40097337,"LENGTH_KM":3.71,"DIST_DN_KM":693.8,"DIST_UP_KM":21.8,"CATCH_SKM":13.35,"UPLAND_SKM":154.5,"ENDORHEIC":1,"DIS_AV_CMS":0.077,"ORD_STRA":3,"ORD_CLAS":4,"ORD_FLOW":8,"HYBAS_L12":4120123410},"geometry":{"type":"LineString","coordinates":[[65.814583333333189,51.064583333332543],[65.78958333333324,51.064583333332543],[65.785416666666492,51.060416666665837],[65.772916666666532,51.060416666665837],[65.768749999999869,51.056249999999189]]}},
{"type":"Feature","properties":{"HYRIV_ID":40042566,"NEXT_DOWN":40042495,"MAIN_RIV":40097337,"LENGTH_KM":5.94,"DIST_DN_KM":674.5,"DIST_UP_KM":41.0,"CATCH_SKM":19.16,"UPLAND_SKM":624.5,"ENDORHEIC":1,"DIS_AV_CMS":0.305,"ORD_STRA":3,"ORD_CLAS":4,"ORD_FLOW":7,"HYBAS_L12":4121182450},"geometry":{"type":"LineString","coordinates":[[65.614583333333258,51.052083333332526],[65.611146505219537,51.055520161446168]]}},
{"type":"Feature","properties":{"HYRIV_ID":40042567,"NEXT_DOWN":40042566,"MAIN_RIV":40097337,"LENGTH_KM":0.29,"DIST_DN_KM":680.2,"DIST_UP_KM":35.4,"CATCH_SKM":0.41,"UPLAND_SKM":557.0,"ENDORHEIC":1,"DIS_AV_CMS":0.29,"ORD_STRA":3,"ORD_CLAS":4,"ORD_FLOW":7,"HYBAS_L12":4121182510},"geometry":{"type":"LineString","coordinates":[[65.61875,51.052083333332526],[65.614583333333258,51.052083333332526]]}},
{"type":"Feature","properties":{"HYRIV_ID":40042568,"NEXT_DOWN":40042567,"MAIN_RIV":40097337,"LENGTH_KM":3.58,"DIST_DN_KM":680.6,"DIST_UP_KM":17.0,"CATCH_SKM":6.74,"UPLAND_SKM":49.9,"ENDORHEIC":1,"DIS_AV_CMS":0.023,"ORD_STRA":2,"ORD_CLAS":5,"ORD_FLOW":8,"HYBAS_L12":4121182510},"geometry":{"type":"LineString","coordinates":[[65.635416666666544,51.08124999999918],[65.631249999999881,51.077083333332517],[65.631249999999881,51.072916666665854],[65.622916666666583,51.064583333332543],[65.622916666666583,51.060416666665837],[65.61875,51.056249999999189],[65.61875,51.052083333332526]]}},
{"type":"Feature","properties":{"HYRIV_ID":40042638,"NEXT_DOWN":40042498,"MAIN_RIV":40097337,"LENGTH_KM":3.65,"DIST_DN_KM":697.5,"DIST_UP_KM":16.5,"CATCH_SKM":6.75,"UPLAND_SKM":60.5,"ENDORHEIC":1,"DIS_AV_CMS":0.034,"ORD_STRA":2,"ORD_CLAS":5,"ORD_FLOW":8,"HYBAS_L12":4120123410},"geometry":{"type":"LineString","coordinates":[[65.852083333333212,51.047916666665863],[65.847916666666549,51.052083333332526],[65.835416666666561,51.052083333332526],[65.83125,51.056249999999189],[65.8229166666666,51.056249999999189],[65.814583333333189,51.064583333332543]]}},
{"type":"Feature","properties":{"HYRIV_ID":40042639,"NEXT_DOWN":40042638,"MAIN_RIV":40097337,"LENGTH_KM":3.61,"DIST_DN_KM":701.1,"DIST_UP_KM":12.9,"CATCH_SKM":10.25,"UPLAND_SKM":43.2,"ENDORHEIC":1,"DIS_AV_CMS":0.025,"ORD_STRA":2,"ORD_CLAS":5,"ORD_FLOW":8,"HYBAS_L12":4120123410},"geometry":{"type":"LineString","coordinates":[[65.885416666666572,51.068749999999206],[65.877083333333246,51.068749999999206],[65.864583333333172,51.056249999999189],[65.860416666666538,51.056249999999189],[65.852083333333212,51.047916666665863]]}},
{"type":"Feature","properties":{"HYRIV_ID":40042640,"NEXT_DOWN":40042638,"MAIN_RIV":40097337,"LENGTH_KM":0.44,"DIST_DN_KM":700.9,"DIST_UP_KM":8.2,"CATCH_SKM":10.53,"UPLAND_SKM":10.5,"ENDORHEIC":1,"DIS_AV_CMS":0.006,"ORD_STRA":1,"ORD_CLAS":6,"ORD_FLOW":9,"HYBAS_L12":4120123410},"geometry":{"type":"LineString","coordinates":[[65.858333333333206,51.047916666665863],[65.852083333333212,51.047916666665863]]}},
{"type":"Feature","properties":{"HYRIV_ID":40042756,"NEXT_DOWN":40042825,"MAIN_RIV":40097337,"LENGTH_KM":11.09,"DIST_DN_KM":687.0,"DIST_UP_KM":17.0,"CATCH_SKM":43.26,"UPLAND_SKM":43.3,"ENDORHEIC":1,"DIS_AV_CMS":0.02,"ORD_STRA":1,"ORD_CLAS":5,"ORD_FLOW":8,"HYBAS_L12":4121182630},"geometry":{"type":"LineString","coordinates":[[65.745833333333252,51.124999999999169],[65.731249999999847,51.110416666665877],[65.727083333333212,51.110416666665877],[65.710416666666561,51.093749999999197],[65.710416666666561,51.089583333332534],[65.69375,51.072916666665854],[65.69375,51.068749999999206],[65.689583333333189,51.064583333332543],[65.689583333333189,51.060416666665837],[65.685416666666526,51.056249999999189],[65.685416666666526,51.047916666665863],[65.689583333333189,51.043749999999214],[65.685416666666526,51.039583333332551]]}},
{"type":"Feature","properties":{"HYRIV_ID":40042757,"NEXT_DOWN":40042825,"MAIN_RIV":40097337,"LENGTH_KM":5.1,"DIST_DN_KM":686.8,"DIST_UP_KM":28.7,"CATCH_SKM":19.7,"UPLAND_SKM":342.5,"ENDORHEIC":1,"DIS_AV_CMS":0.174,"ORD_STRA":3,"ORD_CLAS":4,"ORD_FLOW":7,"HYBAS_L12":4121182630},"geometry":{"type":"LineString","coordinates":[[65.74375,51.056249999999189],[65.739583333333258,51.052083333332526],[65.718749999999886,51.052083333332526],[65.714583333333223,51.047916666665863],[65.706249999999898,51.047916666665863],[65.702083333333263,51.043749999999214],[65.69375,51.043749999999214],[65.689583333333189,51.039583333332551],[65.685416666666526,51.039583333332551]]}},
{"type":"Feature","properties":{"HYRIV_ID":40042758,"NEXT_DOWN":40042497,"MAIN_RIV":40097337,"LENGTH_KM":2.02,"DIST_DN_KM":693.7,"DIST_UP_KM":20.4,"CATCH_SKM":3.51,"UPLAND_SKM":113.1,"ENDORHEIC":1,"DIS_AV_CMS":0.077,"ORD_STRA":2,"ORD_CLAS":5,"ORD_FLOW":8,"HYBAS_L12":4120123510},"geometry":{"type":"LineString","coordinates":[[65.777083333333195,51.039583333332551],[65.777083333333195,51.043749999999214],[65.768749999999869,51.052083333332526],[65.768749999999869,51.056249999999189]]}},
{"type":"Feature","properties":{"HYRIV_ID":40042824,"NEXT_DOWN":40042567,"MAIN_RIV":40097337,"LENGTH_KM":5.61,"DIST_DN_KM":680.7,"DIST_UP_KM":34.9,"CATCH_SKM":21.86,"UPLAND_SKM":506.7,"ENDORHEIC":1,"DIS_AV_CMS":0.267,"ORD_STRA":3,"ORD_CLAS":4,"ORD_FLOW":7,"HYBAS_L12":4121182510},"geometry":{"type":"LineString","coordinates":[[65.677083333333229,51.035416666665846],[65.672916666666566,51.039583333332551],[65.660416666666578,51.039583333332551],[65.656249999999829,51.043749999999214],[65.652083333333195,51.043749999999214],[65.647916666666532,51.039583333332551],[65.639583333333206,51.039583333332551],[65.635416666666544,51.043749999999214],[65.631249999999881,51.043749999999214],[65.627083333333218,51.047916666665863],[65.622916666666583,51.047916666665863],[65.61875,51.052083333332526]]}},
{"type":"Feature","properties":{"HYRIV_ID":40042825,"NEXT_DOWN":40042824,"MAIN_RIV":40097337,"LENGTH_KM":0.84,"DIST_DN_KM":686.2,"DIST_UP_KM":29.4,"CATCH_SKM":0.54,"UPLAND_SKM":386.3,"ENDORHEIC":1,"DIS_AV_CMS":0.193,"ORD_STRA":3,"ORD_CLAS":4,"ORD_FLOW":7,"HYBAS_L12":4121182630},"geometry":{"type":"LineString","coordinates":[[65.685416666666526,51.039583333332551],[65.681249999999864,51.039583333332551],[65.677083333333229,51.035416666665846]]}},
{"type":"Feature","properties":{"HYRIV_ID":40042912,"NEXT_DOWN":40042758,"MAIN_RIV":40097337,"LENGTH_KM":1.28,"DIST_DN_KM":695.7,"DIST_UP_KM":8.2,"CATCH_SKM":11.21,"UPLAND_SKM":11.2,"ENDORHEIC":1,"DIS_AV_CMS":0.007,"ORD_STRA":1,"ORD_CLAS":6,"ORD_FLOW":9,"HYBAS_L12":4120123510},"geometry":{"type":"LineString","coordinates":[[65.770833333333201,51.029166666665866],[65.777083333333195,51.035416666665846],[65.777083333333195,51.039583333332551]]}},
{"type":"Feature","properties":{"HYRIV_ID":40043024,"NEXT_DOWN":40042824,"MAIN_RIV":40097337,"LENGTH_KM":1.85,"DIST_DN_KM":686.0,"DIST_UP_KM":17.6,"CATCH_SKM":2.7,"UPLAND_SKM":98.5,"ENDORHEIC":1,"DIS_AV_CMS":0.079,"ORD_STRA":2,"ORD_CLAS":5,"ORD_FLOW":8,"HYBAS_L12":4121182630},"geometry":{"type":"LineString","coordinates":[[65.689583333333189,51.022916666665829],[65.681249999999864,51.031249999999197],[65.681249999999864,51.035416666665846],[65.677083333333229,51.035416666665846]]}},
{"type":"Feature","properties":{"HYRIV_ID":40043082,"NEXT_DOWN":40043024,"MAIN_RIV":40097337,"LENGTH_KM":3.9,"DIST_DN_KM":687.9,"DIST_UP_KM":12.9,"CATCH_SKM":22.02,"UPLAND_SKM":22.0,"ENDORHEIC":1,"DIS_AV_CMS":0.014,"ORD_STRA":1,"ORD_CLAS":6,"ORD_FLOW":8,"HYBAS_L12":4121182630},"geometry":{"type":"LineString","coordinates":[[65.741666666666589,51.01874999999918],[65.735416666666509,51.01874999999918],[65.731249999999847,51.022916666665829],[65.689583333333189,51.022916666665829]]}},
{"type":"Feature","properties":{"HYRIV_ID":40043083,"NEXT_DOWN":40042758,"MAIN_RIV":40097337,"LENGTH_KM":4.41,"DIST_DN_KM":695.9,"DIST_UP_KM":18.3,"CATCH_SKM":12.82,"UPLAND_SKM":98.4,"ENDORHEIC":1,"DIS_AV_CMS":0.068,"ORD_STRA":2,"ORD_CLAS":5,"ORD_FLOW":8,"HYBAS_L12":4120123510},"geometry":{"type":"LineString","coordinates":[[65.814583333333189,51.01874999999918],[65.810416666666526,51.01874999999918],[65.806249999999892,51.022916666665829],[65.802083333333229,51.022916666665829],[65.79375,51.031249999999197],[65.78958333333324,51.027083333332534],[65.777083333333195,51.039583333332551]]}},
{"type":"Feature","properties":{"HYRIV_ID":40043209,"NEXT_DOWN":40043024,"MAIN_RIV":40097337,"LENGTH_KM":1.47,"DIST_DN_KM":688.0,"DIST_UP_KM":15.7,"CATCH_SKM":2.84,"UPLAND_SKM":73.8,"ENDORHEIC":1,"DIS_AV_CMS":0.064,"ORD_STRA":2,"ORD_CLAS":5,"ORD_FLOW":8,"HYBAS_L12":4121182630},"geometry":{"type":"LineString","coordinates":[[65.685416666666526,51.010416666665854],[65.689583333333189,51.014583333332517],[65.689583333333189,51.022916666665829]]}},
{"type":"Feature","properties":{"HYRIV_ID":40043341,"NEXT_DOWN":40043083,"MAIN_RIV":40097337,"LENGTH_KM":8.9,"DIST_DN_KM":700.1,"DIST_UP_KM":14.1,"CATCH_SKM":48.09,"UPLAND_SKM":48.1,"ENDORHEIC":1,"DIS_AV_CMS":0.032,"ORD_STRA":1,"ORD_CLAS":5,"ORD_FLOW":8,"HYBAS_L12":4120123510},"geometry":{"type":"LineString","coordinates":[[65.912499999999852,51.002083333332543],[65.902083333333195,51.002083333332543],[65.897916666666532,51.006249999999206],[65.893749999999869,51.006249999999206],[65.889583333333206,51.002083333332543],[65.88125,51.010416666665854],[65.877083333333246,51.010416666665854],[65.872916666666583,51.014583333332517],[65.86875,51.014583333332517],[65.864583333333172,51.01874999999918],[65.847916666666549,51.01874999999918],[65.843749999999886,51.014583333332517],[65.835416666666561,51.014583333332517],[65.83125,51.01874999999918],[65.814583333333189,51.01874999999918]]}},
{"type":"Feature","properties":{"HYRIV_ID":40043467,"NEXT_DOWN":40043209,"MAIN_RIV":40097337,"LENGTH_KM":5.17,"DIST_DN_KM":689.4,"DIST_UP_KM":11.4,"CATCH_SKM":23.65,"UPLAND_SKM":23.7,"ENDORHEIC":1,"DIS_AV_CMS":0.02,"ORD_STRA":1,"ORD_CLAS":6,"ORD_FLOW":8,"HYBAS_L12":4121182630},"geometry":{"type":"LineString","coordinates":[[65.741666666666589,50.993749999999189],[65.710416666666561,50.993749999999189],[65.706249999999898,50.99791666666588],[65.6979166666666,50.99791666666588],[65.69375,51.002083333332543],[65.689583333333189,51.002083333332543],[65.685416666666526,51.006249999999206],[65.685416666666526,51.010416666665854]]}},
{"type":"Feature","properties":{"HYRIV_ID":40043746,"NEXT_DOWN":40043083,"MAIN_RIV":40097337,"LENGTH_KM":7.58,"DIST_DN_KM":700.1,"DIST_UP_KM":12.9,"CATCH_SKM":37.44,"UPLAND_SKM":37.4,"ENDORHEIC":1,"DIS_AV_CMS":0.03,"ORD_STRA":1,"ORD_CLAS":6,"ORD_FLOW":8,"HYBAS_L12":4120123510},"geometry":{"type":"LineString","coordinates":[[65.849999999999881,50.985416666665863],[65.843749999999886,50.985416666665863],[65.835416666666561,50.977083333332551],[65.818749999999852,50.977083333332551],[65.814583333333189,50.9812499999992],[65.814583333333189,50.985416666665863],[65.810416666666526,50.989583333332526],[65.810416666666526,51.010416666665854],[65.814583333333189,51.014583333332517],[65.814583333333189,51.01874999999918]]}},
{"type":"Feature","properties":{"HYRIV_ID":40043813,"NEXT_DOWN":40043209,"MAIN_RIV":40097337,"LENGTH_KM":4.51,"DIST_DN_KM":689.6,"DIST_UP_KM":14.1,"CATCH_SKM":7.43,"UPLAND_SKM":47.3,"ENDORHEIC":1,"DIS_AV_CMS":0.044,"ORD_STRA":2,"ORD_CLAS":5,"ORD_FLOW":8,"HYBAS_L12":4121182630},"geometry":{"type":"LineString","coordinates":[[65.66875,50.972916666665846],[65.66875,50.977083333332551],[65.672916666666566,50.9812499999992],[65.672916666666566,50.985416666665863],[65.677083333333229,50.989583333332526],[65.677083333333229,50.993749999999189],[65.681249999999864,50.99791666666588],[65.681249999999864,51.006249999999206],[65.685416666666526,51.010416666665854]]}},
{"type":"Feature","properties":{"HYRIV_ID":40043868,"NEXT_DOWN":40042566,"MAIN_RIV":40097337,"LENGTH_KM":10.21,"DIST_DN_KM":680.3,"DIST_UP_KM":15.3,"CATCH_SKM":48.38,"UPLAND_SKM":48.4,"ENDORHEIC":1,"DIS_AV_CMS":0.034,"ORD_STRA":1,"ORD_CLAS":5,"ORD_FLOW":8,"HYBAS_L12":4121182510},"geometry":{"type":"MultiLineString","coordinates":[[[65.604166666666515,50.966666666665866],[65.61875,50.9812499999992],[65.61875,50.985416666665863],[65.622916666666583,50.989583333332526],[65.622916666666583,51.002083333332543],[65.614583333333258,51.010416666665854],[65.614583333333258,51.011606857586159]],[[65.614800195664515,51.014800195663774],[65.61875,51.01874999999918],[65.61875,51.039583333332551],[65.614583333333258,51.043749999999214],[65.614583333333258,51.052083333332526]]]}},
{"type":"Feature","properties":{"HYRIV_ID":40043926,"NEXT_DOWN":40043813,"MAIN_RIV":40097337,"LENGTH_KM":1.28,"DIST_DN_KM":694.0,"DIST_UP_KM":6.3,"CATCH_SKM":16.91,"UPLAND_SKM":16.9,"ENDORHEIC":1,"DIS_AV_CMS":0.015,"ORD_STRA":1,"ORD_CLAS":6,"ORD_FLOW":8,"HYBAS_L12":4121182630},"geometry":{"type":"LineString","coordinates":[[65.6625,50.962499999999203],[65.66875,50.968749999999183],[65.66875,50.972916666665846]]}},
{"type":"Feature","properties":{"HYRIV_ID":40044053,"NEXT_DOWN":40043813,"MAIN_RIV":40097337,"LENGTH_KM":5.1,"DIST_DN_KM":694.1,"DIST_UP_KM":9.5,"CATCH_SKM":22.99,"UPLAND_SKM":23.0,"ENDORHEIC":1,"DIS_AV_CMS":0.021,"ORD_STRA":1,"ORD_CLAS":5,"ORD_FLOW":8,"HYBAS_L12":4121182630},"geometry":{"type":"LineString","coordinates":[[65.710416666666561,50.954166666665849],[65.710416666666561,50.964583333332534],[65.706249999999898,50.968749999999183],[65.6979166666666,50.968749999999183],[65.69375,50.964583333332534],[65.689583333333189,50.968749999999183],[65.672916666666566,50.968749999999183],[65.66875,50.972916666665846]]}},
{"type":"Feature","properties":{"HYRIV_ID":40044918,"NEXT_DOWN":40045247,"MAIN_RIV":40097337,"LENGTH_KM":3.18,"DIST_DN_KM":673.8,"DIST_UP_KM":7.4,"CATCH_SKM":23.68,"UPLAND_SKM":23.7,"ENDORHEIC":1,"DIS_AV_CMS":0.021,"ORD_STRA":1,"ORD_CLAS":5,"ORD_FLOW":8,"HYBAS_L12":4120126550},"geometry":{"type":"LineString","coordinates":[[65.812499999999858,50.9187499999992],[65.806249999999892,50.9187499999992],[65.78958333333324,50.902083333332534],[65.79375,50.897916666665871]]}},
{"type":"Feature","properties":{"HYRIV_ID":40044919,"NEXT_DOWN":40045247,"MAIN_RIV":40097337,"LENGTH_KM":10.7,"DIST_DN_KM":673.6,"DIST_UP_KM":15.8,"CATCH_SKM":61.16,"UPLAND_SKM":61.2,"ENDORHEIC":1,"DIS_AV_CMS":0.067,"ORD_STRA":1,"ORD_CLAS":4,"ORD_FLOW":8,"HYBAS_L12":4120126550},"geometry":{"type":"LineString","coordinates":[[65.834512506738164,50.906249999999183],[65.818749999999852,50.906249999999183],[65.814583333333189,50.902083333332534],[65.806249999999892,50.902083333332534],[65.802083333333229,50.897916666665871],[65.79375,50.897916666665871]]}},
{"type":"Feature","properties":{"HYRIV_ID":40045246,"NEXT_DOWN":40045603,"MAIN_RIV":40097337,"LENGTH_KM":1.45,"DIST_DN_KM":668.1,"DIST_UP_KM":7.1,"CATCH_SKM":12.99,"UPLAND_SKM":13.0,"ENDORHEIC":1,"DIS_AV_CMS":0.012,"ORD_STRA":1,"ORD_CLAS":5,"ORD_FLOW":8,"HYBAS_L12":4120126550},"geometry":{"type":"LineString","coordinates":[[65.720833333333218,50.885416666665854],[65.727083333333212,50.885416666665854],[65.731249999999847,50.881249999999191],[65.731249999999847,50.877083333332529]]}},
{"type":"Feature","properties":{"HYRIV_ID":40045247,"NEXT_DOWN":40045603,"MAIN_RIV":40097337,"LENGTH_KM":5.66,"DIST_DN_KM":668.1,"DIST_UP_KM":21.4,"CATCH_SKM":23.15,"UPLAND_SKM":108.0,"ENDORHEIC":1,"DIS_AV_CMS":0.124,"ORD_STRA":2,"ORD_CLAS":4,"ORD_FLOW":7,"HYBAS_L12":4120126550},"geometry":{"type":"LineString","coordinates":[[65.79375,50.897916666665871],[65.78958333333324,50.893749999999208],[65.760416666666544,50.893749999999208],[65.752083333333246,50.885416666665854],[65.747916666666583,50.885416666665854],[65.74375,50.881249999999191],[65.739583333333258,50.881249999999191],[65.735416666666509,50.877083333332529],[65.731249999999847,50.877083333332529]]}},
{"type":"Feature","properties":{"HYRIV_ID":40045555,"NEXT_DOWN":40045604,"MAIN_RIV":40097337,"LENGTH_KM":2.38,"DIST_DN_KM":673.2,"DIST_UP_KM":7.8,"CATCH_SKM":13.81,"UPLAND_SKM":13.8,"ENDORHEIC":1,"DIS_AV_CMS":0.013,"ORD_STRA":1,"ORD_CLAS":7,"ORD_FLOW":8,"HYBAS_L12":4120126680},"geometry":{"type":"MultiLineString","coordinates":[[[65.808333333333223,50.874999999999211],[65.807501768304306,50.874168434970287]],[[65.79742157677606,50.864088243442026],[65.79375,50.860416666665863],[65.79375,50.859403211566949]]]}},
{"type":"Feature","properties":{"HYRIV_ID":40045603,"NEXT_DOWN":40045839,"MAIN_RIV":40097337,"LENGTH_KM":5.63,"DIST_DN_KM":662.7,"DIST_UP_KM":26.8,"CATCH_SKM":18.69,"UPLAND_SKM":139.7,"ENDORHEIC":1,"DIS_AV_CMS":0.172,"ORD_STRA":2,"ORD_CLAS":4,"ORD_FLOW":7,"HYBAS_L12":4120126550},"geometry":{"type":"LineString","coordinates":[[65.731249999999847,50.877083333332529],[65.727083333333212,50.877083333332529],[65.722916666666549,50.87291666666588],[65.718749999999886,50.87291666666588],[65.714583333333223,50.868749999999174],[65.702083333333263,50.868749999999174],[65.689583333333189,50.8562499999992],[65.677083333333229,50.8562499999992],[65.672916666666566,50.852083333332537]]}},
{"type":"Feature","properties":{"HYRIV_ID":40045604,"NEXT_DOWN":40045676,"MAIN_RIV":40097337,"LENGTH_KM":1.13,"DIST_DN_KM":672.2,"DIST_UP_KM":14.2,"CATCH_SKM":1.35,"UPLAND_SKM":48.5,"ENDORHEIC":1,"DIS_AV_CMS":0.055,"ORD_STRA":2,"ORD_CLAS":6,"ORD_FLOW":8,"HYBAS_L12":4120126680},"geometry":{"type":"LineString","coordinates":[[65.790810560582457,50.8562499999992],[65.785416666666492,50.8562499999992],[65.782514165012145,50.853347498344831]]}},
{"type":"Feature","properties":{"HYRIV_ID":40045676,"NEXT_DOWN":40045737,"MAIN_RIV":40097337,"LENGTH_KM":6.25,"DIST_DN_KM":666.1,"DIST_UP_KM":22.1,"CATCH_SKM":22.64,"UPLAND_SKM":98.4,"ENDORHEIC":1,"DIS_AV_CMS":0.133,"ORD_STRA":2,"ORD_CLAS":5,"ORD_FLOW":7,"HYBAS_L12":4120126680},"geometry":{"type":"MultiLineString","coordinates":[[[65.774713004592883,50.852083333332537],[65.766888000549898,50.852083333332537]],[[65.763432595315905,50.852083333332537],[65.760416666666544,50.852083333332537],[65.758568110174849,50.850234776840828]],[[65.752467992297937,50.847916666665846],[65.751080022903565,50.847916666665846]],[[65.747765662689474,50.848067670642955],[65.74375,50.852083333332537],[65.733410142545083,50.852083333332537]],[[65.729914537016953,50.853418796315431],[65.727083333333212,50.8562499999992],[65.722916666666549,50.8562499999992],[65.72010572689274,50.853439060225384]],[[65.716753496497347,50.852083333332537],[65.714583333333223,50.852083333332537],[65.713109682743735,50.850609682743041]]]}},
{"type":"Feature","properties":{"HYRIV_ID":40045737,"NEXT_DOWN":40045839,"MAIN_RIV":40097337,"LENGTH_KM":3.4,"DIST_DN_KM":662.7,"DIST_UP_KM":25.4,"CATCH_SKM":10.85,"UPLAND_SKM":125.5,"ENDORHEIC":1,"DIS_AV_CMS":0.175,"ORD_STRA":2,"ORD_CLAS":5,"ORD_FLOW":7,"HYBAS_L12":4120126680},"geometry":{"type":"MultiLineString","coordinates":[[[65.70834313562618,50.847916666665846],[65.702083333333263,50.847916666665846],[65.699368476977867,50.845201810310471]],[[65.695978982600764,50.845687684065034],[65.69375,50.847916666665846],[65.677083333333229,50.847916666665846],[65.672916666666566,50.852083333332537]]]}},
{"type":"Feature","properties":{"HYRIV_ID":40045838,"NEXT_DOWN":40046037,"MAIN_RIV":40097337,"LENGTH_KM":5.5,"DIST_DN_KM":659.6,"DIST_UP_KM":11.1,"CATCH_SKM":20.45,"UPLAND_SKM":20.4,"ENDORHEIC":1,"DIS_AV_CMS":0.02,"ORD_STRA":1,"ORD_CLAS":5,"ORD_FLOW":8,"HYBAS_L12":4120127530},"geometry":{"type":"LineString","coordinates":[[65.643749999999869,50.883333333332523],[65.643749999999869,50.87291666666588],[65.639583333333206,50.868749999999174],[65.639583333333206,50.852083333332537],[65.643749999999869,50.847916666665846],[65.643749999999869,50.83908920842061]]}},
{"type":"Feature","properties":{"HYRIV_ID":40045839,"NEXT_DOWN":40046037,"MAIN_RIV":40097337,"LENGTH_KM":3.07,"DIST_DN_KM":659.7,"DIST_UP_KM":29.8,"CATCH_SKM":15.45,"UPLAND_SKM":280.6,"ENDORHEIC":1,"DIS_AV_CMS":0.386,"ORD_STRA":3,"ORD_CLAS":4,"ORD_FLOW":7,"HYBAS_L12":4120127530},"geometry":{"type":"MultiLineString","coordinates":[[[65.672916666666566,50.852083333332537],[65.66875,50.852083333332537],[65.6636761218587,50.847009455191333]],[[65.659494168902341,50.843749999999226],[65.656249999999829,50.843749999999226],[65.653624894705857,50.84112489470521]]]}},
{"type":"Feature","properties":{"HYRIV_ID":40045841,"NEXT_DOWN":40046105,"MAIN_RIV":40097337,"LENGTH_KM":0.44,"DIST_DN_KM":707.1,"DIST_UP_KM":6.7,"CATCH_SKM":11.11,"UPLAND_SKM":11.1,"ENDORHEIC":1,"DIS_AV_CMS":0.008,"ORD_STRA":1,"ORD_CLAS":5,"ORD_FLOW":9,"HYBAS_L12":4121184220},"geometry":{"type":"LineString","coordinates":[[66.158333333333189,50.835416666665871],[66.164583333333184,50.835416666665871]]}},
{"type":"Feature","properties":{"HYRIV_ID":40045842,"NEXT_DOWN":40046105,"MAIN_RIV":40097337,"LENGTH_KM":1.83,"DIST_DN_KM":707.2,"DIST_UP_KM":6.7,"CATCH_SKM":12.6,"UPLAND_SKM":12.6,"ENDORHEIC":1,"DIS_AV_CMS":0.009,"ORD_STRA":1,"ORD_CLAS":4,"ORD_FLOW":9,"HYBAS_L12":4121184220},"geometry":{"type":"LineString","coordinates":[[66.174999999999898,50.84999999999922],[66.164583333333184,50.83958333333252],[66.164583333333184,50.835416666665871]]}},
{"type":"Feature","properties":{"HYRIV_ID":40045959,"NEXT_DOWN":40046325,"MAIN_RIV":40097337,"LENGTH_KM":2.96,"DIST_DN_KM":725.1,"DIST_UP_KM":7.8,"CATCH_SKM":19.52,"UPLAND_SKM":19.5,"ENDORHEIC":1,"DIS_AV_CMS":0.017,"ORD_STRA":1,"ORD_CLAS":4,"ORD_FLOW":8,"HYBAS_L12":4120127440},"geometry":{"type":"LineString","coordinates":[[66.458333333333201,50.83958333333252],[66.452083333333206,50.83958333333252],[66.447916666666544,50.835416666665871],[66.439583333333218,50.835416666665871],[66.43541666666647,50.831249999999208],[66.43125,50.831249999999208],[66.427083333333172,50.827083333332503]]}},
{"type":"Feature","properties":{"HYRIV_ID":40046036,"NEXT_DOWN":40046275,"MAIN_RIV":40097337,"LENGTH_KM":8.32,"DIST_DN_KM":657.5,"DIST_UP_KM":12.7,"CATCH_SKM":31.55,"UPLAND_SKM":31.6,"ENDORHEIC":1,"DIS_AV_CMS":0.031,"ORD_STRA":1,"ORD_CLAS":5,"ORD_FLOW":8,"HYBAS_L12":4120127530},"geometry":{"type":"LineString","coordinates":[[65.593749999999886,50.887499999999186],[65.593749999999886,50.877083333332529],[65.597916666666549,50.87291666666588],[65.597916666666549,50.864583333332511],[65.610416666666509,50.852083333332537],[65.610416666666509,50.847916666665846],[65.614583333333258,50.843749999999226],[65.61875,50.843749999999226],[65.622916666666583,50.83958333333252],[65.61875,50.835416666665871],[65.622916666666583,50.831249999999208],[65.61899221919299,50.827325552525579]]}},
{"type":"Feature","properties":{"HYRIV_ID":40046105,"NEXT_DOWN":40046812,"MAIN_RIV":40097337,"LENGTH_KM":2.02,"DIST_DN_KM":705.3,"DIST_UP_KM":8.6,"CATCH_SKM":1.9,"UPLAND_SKM":25.6,"ENDORHEIC":1,"DIS_AV_CMS":0.018,"ORD_STRA":2,"ORD_CLAS":4,"ORD_FLOW":8,"HYBAS_L12":4121184220},"geometry":{"type":"LineString","coordinates":[[66.164583333333184,50.835416666665871],[66.168749999999847,50.831249999999208],[66.168749999999847,50.822916666665854],[66.172916666666509,50.818749999999191]]}},
{"type":"Feature","properties":{"HYRIV_ID":40046106,"NEXT_DOWN":40046812,"MAIN_RIV":40097337,"LENGTH_KM":1.37,"DIST_DN_KM":705.3,"DIST_UP_KM":7.9,"CATCH_SKM":11.66,"UPLAND_SKM":11.7,"ENDORHEIC":1,"DIS_AV_CMS":0.008,"ORD_STRA":1,"ORD_CLAS":5,"ORD_FLOW":9,"HYBAS_L12":4121184220},"geometry":{"type":"LineString","coordinates":[[66.183333333333223,50.829166666665877],[66.172916666666509,50.818749999999191]]}},
{"type":"Feature","properties":{"HYRIV_ID":40046107,"NEXT_DOWN":40046325,"MAIN_RIV":40097337,"LENGTH_KM":1.58,"DIST_DN_KM":724.9,"DIST_UP_KM":6.7,"CATCH_SKM":12.75,"UPLAND_SKM":12.8,"ENDORHEIC":1,"DIS_AV_CMS":0.011,"ORD_STRA":1,"ORD_CLAS":5,"ORD_FLOW":8,"HYBAS_L12":4120127440},"geometry":{"type":"LineString","coordinates":[[66.437499999999886,50.81666666666586],[66.43125,50.822916666665854],[66.43125,50.827083333332503],[66.427083333333172,50.827083333332503]]}},
{"type":"Feature","properties":{"HYRIV_ID":40046162,"NEXT_DOWN":40047024,"MAIN_RIV":40097337,"LENGTH_KM":5.74,"DIST_DN_KM":696.3,"DIST_UP_KM":11.4,"CATCH_SKM":22.91,"UPLAND_SKM":22.9,"ENDORHEIC":1,"DIS_AV_CMS":0.018,"ORD_STRA":1,"ORD_CLAS":4,"ORD_FLOW":8,"HYBAS_L12":4121184290},"geometry":{"type":"LineString","coordinates":[[66.108333333333206,50.84999999999922],[66.089583333333252,50.831249999999208],[66.08444528107546,50.831249999999208]]}},
{"type":"Feature","properties":{"HYRIV_ID":40046324,"NEXT_DOWN":40046558,"MAIN_RIV":40097337,"LENGTH_KM":2.8,"DIST_DN_KM":709.3,"DIST_UP_KM":7.9,"CATCH_SKM":13.15,"UPLAND_SKM":13.1,"ENDORHEIC":1,"DIS_AV_CMS":0.009,"ORD_STRA":1,"ORD_CLAS":5,"ORD_FLOW":9,"HYBAS_L12":4120127440},"geometry":{"type":"LineString","coordinates":[[66.247916666666526,50.824999999999172],[66.247916666666526,50.818749999999191],[66.246131961509803,50.816965294842468]]}},
{"type":"Feature","properties":{"HYRIV_ID":40046325,"NEXT_DOWN":40046558,"MAIN_RIV":40097337,"LENGTH_KM":15.94,"DIST_DN_KM":709.2,"DIST_UP_KM":23.7,"CATCH_SKM":86.5,"UPLAND_SKM":118.8,"ENDORHEIC":1,"DIS_AV_CMS":0.09,"ORD_STRA":2,"ORD_CLAS":4,"ORD_FLOW":8,"HYBAS_L12":4120127440},"geometry":{"type":"LineString","coordinates":[[66.427083333333172,50.827083333332503],[66.410416666666521,50.827083333332503],[66.406249999999886,50.822916666665854],[66.402083333333223,50.827083333332503],[66.397916666666561,50.827083333332503],[66.393749999999898,50.831249999999208],[66.377083333333189,50.831249999999208],[66.372916666666526,50.835416666665871],[66.364583333333201,50.835416666665871],[66.360416666666538,50.831249999999208],[66.322916666666544,50.831249999999208],[66.318749999999881,50.827083333332503],[66.31041666666647,50.827083333332503],[66.306249999999892,50.822916666665854],[66.297916666666509,50.822916666665854],[66.293749999999847,50.818749999999191],[66.285416666666521,50.818749999999191],[66.281249999999858,50.814583333332529],[66.272916666666561,50.814583333332529],[66.268749999999898,50.81041666666588],[66.256249999999824,50.81041666666588],[66.251891965271881,50.806058631937894]]}},
{"type":"Feature","properties":{"HYRIV_ID":40046679,"NEXT_DOWN":40047027,"MAIN_RIV":40097337,"LENGTH_KM":0.69,"DIST_DN_KM":726.1,"DIST_UP_KM":8.7,"CATCH_SKM":11.4,"UPLAND_SKM":11.4,"ENDORHEIC":1,"DIS_AV_CMS":0.01,"ORD_STRA":1,"ORD_CLAS":3,"ORD_FLOW":8,"HYBAS_L12":4120127600},"geometry":{"type":"LineString","coordinates":[[66.393749999999898,50.783333333332557],[66.393749999999898,50.77708333333252]]}},
{"type":"Feature","properties":{"HYRIV_ID":40046680,"NEXT_DOWN":40047027,"MAIN_RIV":40097337,"LENGTH_KM":0.73,"DIST_DN_KM":726.0,"DIST_UP_KM":6.2,"CATCH_SKM":16.97,"UPLAND_SKM":17.0,"ENDORHEIC":1,"DIS_AV_CMS":0.015,"ORD_STRA":1,"ORD_CLAS":4,"ORD_FLOW":8,"HYBAS_L12":4120127600},"geometry":{"type":"LineString","coordinates":[[66.404166666666555,50.77708333333252],[66.393749999999898,50.77708333333252]]}},
{"type":"Feature","properties":{"HYRIV_ID":40046812,"NEXT_DOWN":40046811,"MAIN_RIV":40097337,"LENGTH_KM":7.2,"DIST_DN_KM":698.0,"DIST_UP_KM":15.9,"CATCH_SKM":20.62,"UPLAND_SKM":57.9,"ENDORHEIC":1,"DIS_AV_CMS":0.041,"ORD_STRA":2,"ORD_CLAS":4,"ORD_FLOW":8,"HYBAS_L12":4121184220},"geometry":{"type":"MultiLineString","coordinates":[[[66.172916666666509,50.818749999999191],[66.161713706105687,50.807547039438383]],[[66.15255389102542,50.806249999999217],[66.152083333333195,50.806249999999217],[66.147032395527404,50.801199062193412]],[[66.138889360520636,50.7937499999992],[66.135416666666572,50.7937499999992],[66.135416666666572,50.790573259081491]]]}},
{"type":"Feature","properties":{"HYRIV_ID":40047027,"NEXT_DOWN":40047167,"MAIN_RIV":40097337,"LENGTH_KM":3.33,"DIST_DN_KM":722.9,"DIST_UP_KM":11.9,"CATCH_SKM":14.66,"UPLAND_SKM":43.0,"ENDORHEIC":1,"DIS_AV_CMS":0.037,"ORD_STRA":2,"ORD_CLAS":3,"ORD_FLOW":8,"HYBAS_L12":4120127600},"geometry":{"type":"LineString","coordinates":[[66.393749999999898,50.77708333333252],[66.385416666666487,50.77708333333252],[66.364583333333201,50.756249999999191]]}},
{"type":"Feature","properties":{"HYRIV_ID":40047167,"NEXT_DOWN":40046747,"MAIN_RIV":40097337,"LENGTH_KM":15.01,"DIST_DN_KM":707.8,"DIST_UP_KM":26.9,"CATCH_SKM":49.96,"UPLAND_SKM":135.9,"ENDORHEIC":1,"DIS_AV_CMS":0.109,"ORD_STRA":3,"ORD_CLAS":3,"ORD_FLOW":7,"HYBAS_L12":4120127600},"geometry":{"type":"LineString","coordinates":[[66.364583333333201,50.756249999999191],[66.356249999999875,50.756249999999191],[66.35208333333324,50.752083333332529],[66.34375,50.752083333332529],[66.339583333333252,50.747916666665866],[66.335416666666504,50.747916666665866],[66.331249999999841,50.752083333332529],[66.331249999999841,50.756249999999191],[66.327083333333206,50.76041666666584],[66.327083333333206,50.768749999999208],[66.322916666666544,50.772916666665857],[66.318749999999881,50.772916666665857],[66.314583333333218,50.77708333333252],[66.306249999999892,50.77708333333252],[66.297916666666509,50.785416666665874],[66.293749999999847,50.785416666665874],[66.289583333333184,50.781249999999183],[66.285416666666521,50.781249999999183],[66.281249999999858,50.77708333333252],[66.281249999999858,50.768749999999208],[66.277083333333223,50.764583333332546],[66.273795812313864,50.764583333332546]]}},
{"type":"Feature","properties":{"HYRIV_ID":40047168,"NEXT_DOWN":40047167,"MAIN_RIV":40097337,"LENGTH_KM":1.39,"DIST_DN_KM":722.7,"DIST_UP_KM":9.0,"CATCH_SKM":1.49,"UPLAND_SKM":42.9,"ENDORHEIC":1,"DIS_AV_CMS":0.037,"ORD_STRA":2,"ORD_CLAS":4,"ORD_FLOW":8,"HYBAS_L12":4120127600},"geometry":{"type":"LineString","coordinates":[[66.377083333333189,50.747916666665866],[66.368749999999864,50.756249999999191],[66.364583333333201,50.756249999999191]]}},
{"type":"Feature","properties":{"HYRIV_ID":40047169,"NEXT_DOWN":40047168,"MAIN_RIV":40097337,"LENGTH_KM":1.03,"DIST_DN_KM":724.1,"DIST_UP_KM":6.8,"CATCH_SKM":13.04,"UPLAND_SKM":13.0,"ENDORHEIC":1,"DIS_AV_CMS":0.011,"ORD_STRA":1,"ORD_CLAS":5,"ORD_FLOW":8,"HYBAS_L12":4120127600},"geometry":{"type":"LineString","coordinates":[[66.391666666666566,50.747916666665866],[66.377083333333189,50.747916666665866]]}},
{"type":"Feature","properties":{"HYRIV_ID":40047418,"NEXT_DOWN":40047168,"MAIN_RIV":40097337,"LENGTH_KM":2.84,"DIST_DN_KM":724.3,"DIST_UP_KM":7.4,"CATCH_SKM":28.41,"UPLAND_SKM":28.4,"ENDORHEIC":1,"DIS_AV_CMS":0.024,"ORD_STRA":1,"ORD_CLAS":4,"ORD_FLOW":8,"HYBAS_L12":4120127600},"geometry":{"type":"LineString","coordinates":[[66.383333333333155,50.7312499999992],[66.372916666666526,50.7312499999992],[66.368749999999864,50.735416666665849],[66.368749999999864,50.739583333332554],[66.377083333333189,50.747916666665866]]}}
]
}
