{"type": "FeatureCollection", "features": [{"type": "Feature", "properties": {"HYRIV_ID": 40038183, "NEXT_DOWN": 40038460, "MAIN_RIV": 40097337, "LENGTH_KM": 1.4, "DIST_DN_KM": 684.4, "DIST_UP_KM": 5.9, "CATCH_SKM": 13.53, "UPLAND_SKM": 13.5, "ENDORHEIC": 1, "DIS_AV_CMS": 0.003, "ORD_STRA": 1, "ORD_CLAS": 6, "ORD_FLOW": 9, "HYBAS_L12": 4121180990}, "geometry": {"type": "LineString", "coordinates": [[65.525, 51.370833], [65.51875, 51.364583], [65.510417, 51.364583]]}}, {"type": "Feature", "properties": {"HYRIV_ID": 40038239, "NEXT_DOWN": 40038460, "MAIN_RIV": 40097337, "LENGTH_KM": 1.56, "DIST_DN_KM": 684.5, "DIST_UP_KM": 7.5, "CATCH_SKM": 11.79, "UPLAND_SKM": 11.8, "ENDORHEIC": 1, "DIS_AV_CMS": 0.003, "ORD_STRA": 1, "ORD_CLAS": 5, "ORD_FLOW": 9, "HYBAS_L12": 4121180990}, "geometry": {"type": "LineString", "coordinates": [[65.529167, 51.360417], [65.514583, 51.360417], [65.510417, 51.364583]]}}, {"type": "Feature", "properties": {"HYRIV_ID": 40038460, "NEXT_DOWN": 40038893, "MAIN_RIV": 40097337, "LENGTH_KM": 5.05, "DIST_DN_KM": 679.6, "DIST_UP_KM": 12.5, "CATCH_SKM": 15.01, "UPLAND_SKM": 40.3, "ENDORHEIC": 1, "DIS_AV_CMS": 0.01, "ORD_STRA": 2, "ORD_CLAS": 5, "ORD_FLOW": 8, "HYBAS_L12": 4121180990}, "geometry": {"type": "LineString", "coordinates": [[65.510417, 51.364583], [65.497917, 51.364583], [65.49375, 51.360417], [65.489583, 51.360417], [65.485417, 51.35625], [65.477083, 51.35625], [65.472917, 51.352083], [65.46875, 51.352083], [65.464583, 51.347917], [65.460417, 51.347917], [65.45625, 51.34375]]}}, {"type": "Feature", "properties": {"HYRIV_ID": 40038573, "NEXT_DOWN": 40038893, "MAIN_RIV": 40097337, "LENGTH_KM": 8.66, "DIST_DN_KM": 679.6, "DIST_UP_KM": 13.6, "CATCH_SKM": 36.47, "UPLAND_SKM": 36.5, "ENDORHEIC": 1, "DIS_AV_CMS": 0.009, "ORD_STRA": 1, "ORD_CLAS": 4, "ORD_FLOW": 9, "HYBAS_L12": 4121180990}, "geometry": {"type": "LineString", "coordinates": [[65.5625, 51.339583], [65.522917, 51.339583], [65.51875, 51.335417], [65.510417, 51.335417], [65.50625, 51.339583], [65.502083, 51.339583], [65.497917, 51.34375], [65.489583, 51.34375], [65.485417, 51.339583], [65.460417, 51.339583], [65.45625, 51.34375]]}}, {"type": "Feature", "properties": {"HYRIV_ID": 40038893, "NEXT_DOWN": 40039170, "MAIN_RIV": 40097337, "LENGTH_KM": 6.11, "DIST_DN_KM": 673.6, "DIST_UP_KM": 19.7, "CATCH_SKM": 15.15, "UPLAND_SKM": 92.0, "ENDORHEIC": 1, "DIS_AV_CMS": 0.022, "ORD_STRA": 2, "ORD_CLAS": 4, "ORD_FLOW": 8, "HYBAS_L12": 4121180990}, "geometry": {"type": "LineString", "coordinates": [[65.45625, 51.34375], [65.452083, 51.339583], [65.447917, 51.339583], [65.439583, 51.33125], [65.427083, 51.33125], [65.422917, 51.327083], [65.41875, 51.327083], [65.410417, 51.31875], [65.40625, 51.31875], [65.397917, 51.310417]]}}, {"type": "Feature", "properties": {"HYRIV_ID": 40038927, "NEXT_DOWN": 40039170, "MAIN_RIV": 40097337, "LENGTH_KM": 1.27, "DIST_DN_KM": 673.6, "DIST_UP_KM": 8.2, "CATCH_SKM": 11.67, "UPLAND_SKM": 11.7, "ENDORHEIC": 1, "DIS_AV_CMS": 0.003, "ORD_STRA": 1, "ORD_CLAS": 5, "ORD_FLOW": 9, "HYBAS_L12": 4121180990}, "geometry": {"type": "LineString", "coordinates": [[65.4125, 51.30625], [65.402083, 51.30625], [65.397917, 51.310417]]}}, {"type": "Feature", "properties": {"HYRIV_ID": 40039170, "NEXT_DOWN": 40039243, "MAIN_RIV": 40097337, "LENGTH_KM": 3.6, "DIST_DN_KM": 670.0, "DIST_UP_KM": 23.2, "CATCH_SKM": 9.13, "UPLAND_SKM": 112.8, "ENDORHEIC": 1, "DIS_AV_CMS": 0.026, "ORD_STRA": 2, "ORD_CLAS": 4, "ORD_FLOW": 8, "HYBAS_L12": 4121180990}, "geometry": {"type": "LineString", "coordinates": [[65.397917, 51.310417], [65.397476, 51.310417]]}}, {"type": "Feature", "properties": {"HYRIV_ID": 40039171, "NEXT_DOWN": 40039411, "MAIN_RIV": 40097337, "LENGTH_KM": 3.85, "DIST_DN_KM": 691.2, "DIST_UP_KM": 9.2, "CATCH_SKM": 23.07, "UPLAND_SKM": 23.1, "ENDORHEIC": 1, "DIS_AV_CMS": 0.007, "ORD_STRA": 1, "ORD_CLAS": 6, "ORD_FLOW": 9, "HYBAS_L12": 4121181110}, "geometry": {"type": "LineString", "coordinates": [[65.691667, 51.320833], [65.685417, 51.314583], [65.685417, 51.310417], [65.689583, 51.30625], [65.68125, 51.297917], [65.68125, 51.289583]]}}, {"type": "Feature", "properties": {"HYRIV_ID": 40039172, "NEXT_DOWN": 40039411, "MAIN_RIV": 40097337, "LENGTH_KM": 1.16, "DIST_DN_KM": 691.1, "DIST_UP_KM": 11.5, "CATCH_SKM": 2.28, "UPLAND_SKM": 46.0, "ENDORHEIC": 1, "DIS_AV_CMS": 0.015, "ORD_STRA": 2, "ORD_CLAS": 5, "ORD_FLOW": 8, "HYBAS_L12": 4121181110}, "geometry": {"type": "LineString", "coordinates": [[65.697917, 51.289583], [65.68125, 51.289583]]}}, {"type": "Feature", "properties": {"HYRIV_ID": 40039173, "NEXT_DOWN": 40039172, "MAIN_RIV": 40097337, "LENGTH_KM": 3.58, "DIST_DN_KM": 692.4, "DIST_UP_KM": 7.6, "CATCH_SKM": 18.11, "UPLAND_SKM": 18.1, "ENDORHEIC": 1, "DIS_AV_CMS": 0.006, "ORD_STRA": 1, "ORD_CLAS": 6, "ORD_FLOW": 9, "HYBAS_L12": 4121181110}, "geometry": {"type": "LineString", "coordinates": [[65.729167, 51.3125], [65.722917, 51.30625], [65.71875, 51.30625], [65.70625, 51.29375], [65.702083, 51.29375], [65.697917, 51.289583]]}}, {"type": "Feature", "properties": {"HYRIV_ID": 40039244, "NEXT_DOWN": 40039172, "MAIN_RIV": 40097337, "LENGTH_KM": 4.81, "DIST_DN_KM": 692.4, "DIST_UP_KM": 10.1, "CATCH_SKM": 25.64, "UPLAND_SKM": 25.6, "ENDORHEIC": 1, "DIS_AV_CMS": 0.008, "ORD_STRA": 1, "ORD_CLAS": 5, "ORD_FLOW": 9, "HYBAS_L12": 4121181110}, "geometry": {"type": "LineString", "coordinates": [[65.754167, 51.283333], [65.747917, 51.289583], [65.73125, 51.289583], [65.727083, 51.285417], [65.702083, 51.285417], [65.697917, 51.289583]]}}, {"type": "Feature", "properties": {"HYRIV_ID": 40039291, "NEXT_DOWN": 40039337, "MAIN_RIV": 40097337, "LENGTH_KM": 11.29, "DIST_DN_KM": 674.2, "DIST_UP_KM": 16.5, "CATCH_SKM": 39.86, "UPLAND_SKM": 39.9, "ENDORHEIC": 1, "DIS_AV_CMS": 0.01, "ORD_STRA": 1, "ORD_CLAS": 5, "ORD_FLOW": 8, "HYBAS_L12": 4121180990}, "geometry": {"type": "LineString", "coordinates": [[65.529167, 51.302083], [65.522917, 51.302083], [65.51875, 51.30625], [65.514583, 51.30625], [65.50625, 51.297917], [65.502083, 51.297917], [65.497917, 51.29375], [65.485417, 51.29375], [65.48125, 51.297917], [65.464583, 51.297917], [65.460417, 51.29375], [65.45625, 51.297917], [65.44375, 51.297917], [65.439583, 51.29375], [65.41875, 51.29375], [65.416758, 51.291758]]}}, {"type": "Feature", "properties": {"HYRIV_ID": 40039292, "NEXT_DOWN": 40039410, "MAIN_RIV": 40097337, "LENGTH_KM": 3.93, "DIST_DN_KM": 686.7, "DIST_UP_KM": 8.6, "CATCH_SKM": 17.71, "UPLAND_SKM": 17.7, "ENDORHEIC": 1, "DIS_AV_CMS": 0.005, "ORD_STRA": 1, "ORD_CLAS": 7, "ORD_FLOW": 9, "HYBAS_L12": 4121181110}, "geometry": {"type": "LineString", "coordinates": [[65.614583, 51.3125], [65.614583, 51.297917], [65.610417, 51.29375], [65.610417, 51.285417], [65.614583, 51.28125], [65.61875, 51.28125]]}}, {"type": "Feature", "properties": {"HYRIV_ID": 40039293, "NEXT_DOWN": 40039410, "MAIN_RIV": 40097337, "LENGTH_KM": 2.91, "DIST_DN_KM": 686.9, "DIST_UP_KM": 8.8, "CATCH_SKM": 15.56, "UPLAND_SKM": 15.6, "ENDORHEIC": 1, "DIS_AV_CMS": 0.005, "ORD_STRA": 1, "ORD_CLAS": 6, "ORD_FLOW": 9, "HYBAS_L12": 4121181110}, "geometry": {"type": "LineString", "coordinates": [[65.645833, 51.297917], [65.639583, 51.297917], [65.63125, 51.289583], [65.627083, 51.289583], [65.61875, 51.28125]]}}, {"type": "Feature", "properties": {"HYRIV_ID": 40039409, "NEXT_DOWN": 40039699, "MAIN_RIV": 40097337, "LENGTH_KM": 2.4, "DIST_DN_KM": 686.0, "DIST_UP_KM": 6.4, "CATCH_SKM": 16.38, "UPLAND_SKM": 16.4, "ENDORHEIC": 1, "DIS_AV_CMS": 0.005, "ORD_STRA": 1, "ORD_CLAS": 7, "ORD_FLOW": 9, "HYBAS_L12": 4121181110}, "geometry": {"type": "LineString", "coordinates": [[65.591667, 51.28125], [65.602083, 51.28125], [65.60625, 51.277083], [65.614583, 51.277083], [65.61875, 51.272917]]}}, {"type": "Feature", "properties": {"HYRIV_ID": 40039410, "NEXT_DOWN": 40039699, "MAIN_RIV": 40097337, "LENGTH_KM": 0.93, "DIST_DN_KM": 685.9, "DIST_UP_KM": 9.8, "CATCH_SKM": 0.81, "UPLAND_SKM": 34.1, "ENDORHEIC": 1, "DIS_AV_CMS": 0.01, "ORD_STRA": 2, "ORD_CLAS": 6, "ORD_FLOW": 8, "HYBAS_L12": 4121181110}, "geometry": {"type": "LineString", "coordinates": [[65.61875, 51.28125], [65.61875, 51.272917]]}}, {"type": "Feature", "properties": {"HYRIV_ID": 40039411, "NEXT_DOWN": 40039699, "MAIN_RIV": 40097337, "LENGTH_KM": 5.37, "DIST_DN_KM": 685.8, "DIST_UP_KM": 16.8, "CATCH_SKM": 14.1, "UPLAND_SKM": 83.2, "ENDORHEIC": 1, "DIS_AV_CMS": 0.024, "ORD_STRA": 2, "ORD_CLAS": 5, "ORD_FLOW": 8, "HYBAS_L12": 4121181110}, "geometry": {"type": "LineString", "coordinates": [[65.68125, 51.289583], [65.677083, 51.285417], [65.664583, 51.285417], [65.660417, 51.28125], [65.65625, 51.28125], [65.652083, 51.277083], [65.639583, 51.277083], [65.635417, 51.272917], [65.61875, 51.272917]]}}, {"type": "Feature", "properties": {"HYRIV_ID": 40039699, "NEXT_DOWN": 40040155, "MAIN_RIV": 40097337, "LENGTH_KM": 3.23, "DIST_DN_KM": 682.8, "DIST_UP_KM": 19.8, "CATCH_SKM": 5.1, "UPLAND_SKM": 138.8, "ENDORHEIC": 1, "DIS_AV_CMS": 0.039, "ORD_STRA": 3, "ORD_CLAS": 5, "ORD_FLOW": 8, "HYBAS_L12": 4120121480}, "geometry": {"type": "LineString", "coordinates": [[65.61875, 51.272917], [65.614583, 51.26875], [65.614583, 51.264583], [65.610417, 51.260417], [65.60625, 51.260417], [65.602083, 51.25625], [65.597917, 51.25625], [65.59375, 51.252083]]}}, {"type": "Feature", "properties": {"HYRIV_ID": 40039743, "NEXT_DOWN": 40040155, "MAIN_RIV": 40097337, "LENGTH_KM": 13.76, "DIST_DN_KM": 682.8, "DIST_UP_KM": 18.3, "CATCH_SKM": 54.41, "UPLAND_SKM": 54.4, "ENDORHEIC": 1, "DIS_AV_CMS": 0.017, "ORD_STRA": 1, "ORD_CLAS": 6, "ORD_FLOW": 8, "HYBAS_L12": 4120121480}, "geometry": {"type": "LineString", "coordinates": [[65.741667, 51.254167], [65.735417, 51.260417], [65.71875, 51.260417], [65.710417, 51.252083], [65.702083, 51.252083], [65.697917, 51.247917], [65.69375, 51.252083], [65.689583, 51.252083], [65.685417, 51.25625], [65.672917, 51.25625], [65.664583, 51.247917], [65.65625, 51.247917], [65.652083, 51.252083], [65.647917, 51.252083], [65.64375, 51.247917], [65.639583, 51.252083], [65.61875, 51.252083], [65.614583, 51.247917], [65.597917, 51.247917], [65.59375, 51.252083]]}}, {"type": "Feature", "properties": {"HYRIV_ID": 40040034, "NEXT_DOWN": 40040275, "MAIN_RIV": 40097337, "LENGTH_KM": 4.07, "DIST_DN_KM": 688.7, "DIST_UP_KM": 9.6, "CATCH_SKM": 16.67, "UPLAND_SKM": 16.7, "ENDORHEIC": 1, "DIS_AV_CMS": 0.006, "ORD_STRA": 1, "ORD_CLAS": 7, "ORD_FLOW": 9, "HYBAS_L12": 4120121540}, "geometry": {"type": "LineString", "coordinates": [[65.716667, 51.227083], [65.710417, 51.227083], [65.702083, 51.235417], [65.689583, 51.235417], [65.685417, 51.23125], [65.677083, 51.23125], [65.672917, 51.227083]]}}, {"type": "Feature", "properties": {"HYRIV_ID": 40040154, "NEXT_DOWN": 40040379, "MAIN_RIV": 40097337, "LENGTH_KM": 5.14, "DIST_DN_KM": 676.5, "DIST_UP_KM": 9.3, "CATCH_SKM": 17.46, "UPLAND_SKM": 17.5, "ENDORHEIC": 1, "DIS_AV_CMS": 0.005, "ORD_STRA": 1, "ORD_CLAS": 6, "ORD_FLOW": 9, "HYBAS_L12": 4120121480}, "geometry": {"type": "LineString", "coordinates": [[65.525, 51.254167], [65.51875, 51.247917], [65.522917, 51.24375], [65.51875, 51.239583], [65.51875, 51.235417], [65.514583, 51.23125], [65.51875, 51.227083], [65.522917, 51.227083], [65.527083, 51.222917], [65.53125, 51.222917], [65.535417, 51.21875]]}}, {"type": "Feature", "properties": {"HYRIV_ID": 40040155, "NEXT_DOWN": 40040379, "MAIN_RIV": 40097337, "LENGTH_KM": 6.32, "DIST_DN_KM": 676.5, "DIST_UP_KM": 26.0, "CATCH_SKM": 31.45, "UPLAND_SKM": 224.6, "ENDORHEIC": 1, "DIS_AV_CMS": 0.06, "ORD_STRA": 3, "ORD_CLAS": 5, "ORD_FLOW": 8, "HYBAS_L12": 4120121480}, "geometry": {"type": "LineString", "coordinates": [[65.59375, 51.252083], [65.585417, 51.24375], [65.585417, 51.239583], [65.58125, 51.235417], [65.577083, 51.235417], [65.572917, 51.23125], [65.560417, 51.23125], [65.55625, 51.227083], [65.552083, 51.227083], [65.547917, 51.222917], [65.539583, 51.222917], [65.535417, 51.21875]]}}, {"type": "Feature", "properties": {"HYRIV_ID": 40040275, "NEXT_DOWN": 40040502, "MAIN_RIV": 40097337, "LENGTH_KM": 3.06, "DIST_DN_KM": 685.7, "DIST_UP_KM": 13.1, "CATCH_SKM": 7.26, "UPLAND_SKM": 47.7, "ENDORHEIC": 1, "DIS_AV_CMS": 0.018, "ORD_STRA": 2, "ORD_CLAS": 6, "ORD_FLOW": 8, "HYBAS_L12": 4120121540}, "geometry": {"type": "LineString", "coordinates": [[65.672917, 51.227083], [65.66875, 51.227083], [65.664583, 51.222917], [65.660417, 51.222917], [65.65625, 51.21875], [65.652083, 51.21875], [65.64375, 51.210417]]}}, {"type": "Feature", "properties": {"HYRIV_ID": 40040379, "NEXT_DOWN": 40040435, "MAIN_RIV": 40097337, "LENGTH_KM": 2.77, "DIST_DN_KM": 673.8, "DIST_UP_KM": 28.7, "CATCH_SKM": 8.47, "UPLAND_SKM": 250.6, "ENDORHEIC": 1, "DIS_AV_CMS": 0.066, "ORD_STRA": 3, "ORD_CLAS": 5, "ORD_FLOW": 8, "HYBAS_L12": 4120121480}, "geometry": {"type": "LineString", "coordinates": [[65.535417, 51.21875], [65.53125, 51.214583], [65.527083, 51.214583], [65.51875, 51.20625], [65.514583, 51.20625], [65.510417, 51.202083]]}}, {"type": "Feature", "properties": {"HYRIV_ID": 40040380, "NEXT_DOWN": 40040502, "MAIN_RIV": 40097337, "LENGTH_KM": 2.03, "DIST_DN_KM": 685.6, "DIST_UP_KM": 8.8, "CATCH_SKM": 17.63, "UPLAND_SKM": 17.6, "ENDORHEIC": 1, "DIS_AV_CMS": 0.007, "ORD_STRA": 1, "ORD_CLAS": 7, "ORD_FLOW": 9, "HYBAS_L12": 4120121540}, "geometry": {"type": "LineString", "coordinates": [[65.6625, 51.202083], [65.647917, 51.202083], [65.64375, 51.20625], [65.64375, 51.210417]]}}, {"type": "Feature", "properties": {"HYRIV_ID": 40040381, "NEXT_DOWN": 40040275, "MAIN_RIV": 40097337, "LENGTH_KM": 4.21, "DIST_DN_KM": 688.7, "DIST_UP_KM": 10.1, "CATCH_SKM": 23.81, "UPLAND_SKM": 23.8, "ENDORHEIC": 1, "DIS_AV_CMS": 0.009, "ORD_STRA": 1, "ORD_CLAS": 6, "ORD_FLOW": 9, "HYBAS_L12": 4120121540}, "geometry": {"type": "LineString", "coordinates": [[65.708333, 51.202083], [65.702083, 51.202083], [65.69375, 51.210417], [65.689583, 51.210417], [65.685417, 51.214583], [65.685417, 51.21875], [65.68125, 51.21875], [65.672917, 51.227083]]}}, {"type": "Feature", "properties": {"HYRIV_ID": 40040434, "NEXT_DOWN": 40040604, "MAIN_RIV": 40097337, "LENGTH_KM": 2.71, "DIST_DN_KM": 671.2, "DIST_UP_KM": 7.9, "CATCH_SKM": 14.11, "UPLAND_SKM": 14.1, "ENDORHEIC": 1, "DIS_AV_CMS": 0.004, "ORD_STRA": 1, "ORD_CLAS": 6, "ORD_FLOW": 9, "HYBAS_L12": 4120122760}, "geometry": {"type": "LineString", "coordinates": [[65.477083, 51.220833], [65.477083, 51.214583], [65.485417, 51.20625], [65.485417, 51.197917]]}}, {"type": "Feature", "properties": {"HYRIV_ID": 40040435, "NEXT_DOWN": 40040604, "MAIN_RIV": 40097337, "LENGTH_KM": 2.51, "DIST_DN_KM": 671.1, "DIST_UP_KM": 31.4, "CATCH_SKM": 13.18, "UPLAND_SKM": 389.5, "ENDORHEIC": 1, "DIS_AV_CMS": 0.108, "ORD_STRA": 3, "ORD_CLAS": 5, "ORD_FLOW": 7, "HYBAS_L12": 4120122760}, "geometry": {"type": "LineString", "coordinates": [[65.510417, 51.202083], [65.50625, 51.202083], [65.502083, 51.20625], [65.49375, 51.197917], [65.485417, 51.197917]]}}, {"type": "Feature", "properties": {"HYRIV_ID": 40040502, "NEXT_DOWN": 40040557, "MAIN_RIV": 40097337, "LENGTH_KM": 7.34, "DIST_DN_KM": 678.5, "DIST_UP_KM": 20.3, "CATCH_SKM": 21.79, "UPLAND_SKM": 87.2, "ENDORHEIC": 1, "DIS_AV_CMS": 0.029, "ORD_STRA": 2, "ORD_CLAS": 6, "ORD_FLOW": 8, "HYBAS_L12": 4120121540}, "geometry": {"type": "LineString", "coordinates": [[65.64375, 51.210417], [65.639583, 51.210417], [65.635417, 51.20625], [65.63125, 51.20625], [65.627083, 51.202083], [65.60625, 51.202083], [65.602083, 51.20625], [65.589583, 51.20625], [65.585417, 51.202083], [65.56875, 51.202083], [65.560417, 51.19375]]}}, {"type": "Feature", "properties": {"HYRIV_ID": 40040557, "NEXT_DOWN": 40040435, "MAIN_RIV": 40097337, "LENGTH_KM": 4.72, "DIST_DN_KM": 673.6, "DIST_UP_KM": 25.2, "CATCH_SKM": 12.38, "UPLAND_SKM": 125.8, "ENDORHEIC": 1, "DIS_AV_CMS": 0.041, "ORD_STRA": 2, "ORD_CLAS": 6, "ORD_FLOW": 8, "HYBAS_L12": 4120121540}, "geometry": {"type": "LineString", "coordinates": [[65.560417, 51.19375], [65.55625, 51.19375], [65.552083, 51.189583], [65.522917, 51.189583], [65.51875, 51.19375], [65.51875, 51.197917], [65.514583, 51.202083], [65.510417, 51.202083]]}}, {"type": "Feature", "properties": {"HYRIV_ID": 40040604, "NEXT_DOWN": 40041074, "MAIN_RIV": 40097337, "LENGTH_KM": 3.96, "DIST_DN_KM": 667.4, "DIST_UP_KM": 35.1, "CATCH_SKM": 18.16, "UPLAND_SKM": 421.8, "ENDORHEIC": 1, "DIS_AV_CMS": 0.117, "ORD_STRA": 3, "ORD_CLAS": 5, "ORD_FLOW": 7, "HYBAS_L12": 4120122760}, "geometry": {"type": "LineString", "coordinates": [[65.485417, 51.197917], [65.48125, 51.19375], [65.46875, 51.19375], [65.464583, 51.189583], [65.445091, 51.189583]]}}, {"type": "Feature", "properties": {"HYRIV_ID": 40041075, "NEXT_DOWN": 40040557, "MAIN_RIV": 40097337, "LENGTH_KM": 8.81, "DIST_DN_KM": 678.3, "DIST_UP_KM": 13.4, "CATCH_SKM": 26.25, "UPLAND_SKM": 26.2, "ENDORHEIC": 1, "DIS_AV_CMS": 0.01, "ORD_STRA": 1, "ORD_CLAS": 7, "ORD_FLOW": 8, "HYBAS_L12": 4120121540}, "geometry": {"type": "LineString", "coordinates": [[65.65, 51.152083], [65.64375, 51.152083], [65.639583, 51.15625], [65.635417, 51.15625], [65.63125, 51.160417], [65.622917, 51.160417], [65.61875, 51.164583], [65.60625, 51.164583], [65.602083, 51.16875], [65.597917, 51.16875], [65.59375, 51.172917], [65.589583, 51.172917], [65.572917, 51.189583], [65.56875, 51.189583], [65.564583, 51.19375], [65.560417, 51.19375]]}}, {"type": "Feature", "properties": {"HYRIV_ID": 40041838, "NEXT_DOWN": 40042327, "MAIN_RIV": 40097337, "LENGTH_KM": 9.63, "DIST_DN_KM": 672.0, "DIST_UP_KM": 15.3, "CATCH_SKM": 36.9, "UPLAND_SKM": 36.9, "ENDORHEIC": 1, "DIS_AV_CMS": 0.014, "ORD_STRA": 1, "ORD_CLAS": 5, "ORD_FLOW": 8, "HYBAS_L12": 4120122810}, "geometry": {"type": "LineString", "coordinates": [[65.575, 51.152083], [65.564583, 51.152083], [65.560417, 51.15625], [65.539583, 51.15625], [65.532302, 51.148969]]}}, {"type": "Feature", "properties": {"HYRIV_ID": 40041912, "NEXT_DOWN": 40042496, "MAIN_RIV": 40097337, "LENGTH_KM": 2.8, "DIST_DN_KM": 698.0, "DIST_UP_KM": 8.1, "CATCH_SKM": 16.97, "UPLAND_SKM": 17.0, "ENDORHEIC": 1, "DIS_AV_CMS": 0.008, "ORD_STRA": 1, "ORD_CLAS": 6, "ORD_FLOW": 9, "HYBAS_L12": 4121182630}, "geometry": {"type": "LineString", "coordinates": [[65.789583, 51.120833], [65.789583, 51.114583], [65.785417, 51.110417], [65.785417, 51.10625], [65.78125, 51.102083], [65.785417, 51.097917]]}}, {"type": "Feature", "properties": {"HYRIV_ID": 40041913, "NEXT_DOWN": 40042496, "MAIN_RIV": 40097337, "LENGTH_KM": 4.72, "DIST_DN_KM": 697.7, "DIST_UP_KM": 10.3, "CATCH_SKM": 22.09, "UPLAND_SKM": 22.1, "ENDORHEIC": 1, "DIS_AV_CMS": 0.011, "ORD_STRA": 1, "ORD_CLAS": 5, "ORD_FLOW": 8, "HYBAS_L12": 4121182630}, "geometry": {"type": "LineString", "coordinates": [[65.829167, 51.125], [65.822917, 51.11875], [65.81875, 51.11875], [65.810417, 51.110417], [65.80625, 51.110417], [65.797917, 51.102083], [65.79375, 51.102083], [65.789583, 51.097917], [65.785417, 51.097917]]}}, {"type": "Feature", "properties": {"HYRIV_ID": 40041914, "NEXT_DOWN": 40042386, "MAIN_RIV": 40097337, "LENGTH_KM": 4.26, "DIST_DN_KM": 702.1, "DIST_UP_KM": 9.2, "CATCH_SKM": 27.75, "UPLAND_SKM": 27.7, "ENDORHEIC": 1, "DIS_AV_CMS": 0.014, "ORD_STRA": 1, "ORD_CLAS": 5, "ORD_FLOW": 8, "HYBAS_L12": 4120123410}, "geometry": {"type": "LineString", "coordinates": [[65.883333, 51.125], [65.877083, 51.11875], [65.877083, 51.114583], [65.872917, 51.110417], [65.86875, 51.110417], [65.864583, 51.10625], [65.85625, 51.10625], [65.85625, 51.102083], [65.852083, 51.097917]]}}, {"type": "Feature", "properties": {"HYRIV_ID": 40041915, "NEXT_DOWN": 40041966, "MAIN_RIV": 40097337, "LENGTH_KM": 2.95, "DIST_DN_KM": 703.6, "DIST_UP_KM": 11.6, "CATCH_SKM": 20.35, "UPLAND_SKM": 20.3, "ENDORHEIC": 1, "DIS_AV_CMS": 0.011, "ORD_STRA": 1, "ORD_CLAS": 5, "ORD_FLOW": 8, "HYBAS_L12": 4120123410}, "geometry": {"type": "LineString", "coordinates": [[65.9, 51.102083], [65.889583, 51.102083], [65.885417, 51.10625], [65.88125, 51.102083], [65.877083, 51.102083], [65.872917, 51.097917], [65.86875, 51.097917]]}}, {"type": "Feature", "properties": {"HYRIV_ID": 40041966, "NEXT_DOWN": 40042386, "MAIN_RIV": 40097337, "LENGTH_KM": 1.68, "DIST_DN_KM": 702.1, "DIST_UP_KM": 13.5, "CATCH_SKM": 2.02, "UPLAND_SKM": 41.9, "ENDORHEIC": 1, "DIS_AV_CMS": 0.022, "ORD_STRA": 2, "ORD_CLAS": 4, "ORD_FLOW": 8, "HYBAS_L12": 4120123410}, "geometry": {"type": "LineString", "coordinates": [[65.86875, 51.097917], [65.864583, 51.09375], [65.85625, 51.09375], [65.852083, 51.097917]]}}, {"type": "Feature", "properties": {"HYRIV_ID": 40042028, "NEXT_DOWN": 40041966, "MAIN_RIV": 40097337, "LENGTH_KM": 5.24, "DIST_DN_KM": 703.8, "DIST_UP_KM": 11.8, "CATCH_SKM": 19.55, "UPLAND_SKM": 19.6, "ENDORHEIC": 1, "DIS_AV_CMS": 0.011, "ORD_STRA": 1, "ORD_CLAS": 4, "ORD_FLOW": 8, "HYBAS_L12": 4120123410}, "geometry": {"type": "LineString", "coordinates": [[65.929167, 51.089583], [65.902083, 51.089583], [65.897917, 51.09375], [65.88125, 51.09375], [65.877083, 51.089583], [65.86875, 51.097917]]}}, {"type": "Feature", "properties": {"HYRIV_ID": 40042143, "NEXT_DOWN": 40042568, "MAIN_RIV": 40097337, "LENGTH_KM": 8.12, "DIST_DN_KM": 684.2, "DIST_UP_KM": 13.4, "CATCH_SKM": 29.37, "UPLAND_SKM": 29.4, "ENDORHEIC": 1, "DIS_AV_CMS": 0.013, "ORD_STRA": 1, "ORD_CLAS": 5, "ORD_FLOW": 8, "HYBAS_L12": 4121182510}, "geometry": {"type": "LineString", "coordinates": [[65.6875, 51.13125], [65.68125, 51.13125], [65.677083, 51.127083], [65.664583, 51.127083], [65.660417, 51.122917], [65.660417, 51.11875], [65.65625, 51.114583], [65.652083, 51.114583], [65.647917, 51.110417], [65.64375, 51.110417], [65.639583, 51.10625], [65.639583, 51.102083], [65.63125, 51.09375], [65.63125, 51.089583], [65.635417, 51.085417], [65.635417, 51.08125]]}}, {"type": "Feature", "properties": {"HYRIV_ID": 40042144, "NEXT_DOWN": 40042568, "MAIN_RIV": 40097337, "LENGTH_KM": 0.44, "DIST_DN_KM": 684.1, "DIST_UP_KM": 7.0, "CATCH_SKM": 13.75, "UPLAND_SKM": 13.8, "ENDORHEIC": 1, "DIS_AV_CMS": 0.007, "ORD_STRA": 1, "ORD_CLAS": 6, "ORD_FLOW": 9, "HYBAS_L12": 4121182510}, "geometry": {"type": "LineString", "coordinates": [[65.641667, 51.08125], [65.635417, 51.08125]]}}, {"type": "Feature", "properties": {"HYRIV_ID": 40042386, "NEXT_DOWN": 40042498, "MAIN_RIV": 40097337, "LENGTH_KM": 4.67, "DIST_DN_KM": 697.5, "DIST_UP_KM": 18.1, "CATCH_SKM": 11.06, "UPLAND_SKM": 80.7, "ENDORHEIC": 1, "DIS_AV_CMS": 0.04, "ORD_STRA": 2, "ORD_CLAS": 4, "ORD_FLOW": 8, "HYBAS_L12": 4120123410}, "geometry": {"type": "LineString", "coordinates": [[65.852083, 51.097917], [65.822917, 51.06875], [65.81875, 51.06875], [65.814583, 51.064583]]}}, {"type": "Feature", "properties": {"HYRIV_ID": 40042387, "NEXT_DOWN": 40042639, "MAIN_RIV": 40097337, "LENGTH_KM": 4.12, "DIST_DN_KM": 704.5, "DIST_UP_KM": 9.5, "CATCH_SKM": 21.72, "UPLAND_SKM": 21.7, "ENDORHEIC": 1, "DIS_AV_CMS": 0.013, "ORD_STRA": 1, "ORD_CLAS": 5, "ORD_FLOW": 8, "HYBAS_L12": 4120123410}, "geometry": {"type": "LineString", "coordinates": [[65.933333, 51.064583], [65.927083, 51.064583], [65.922917, 51.06875], [65.91875, 51.064583], [65.914583, 51.06875], [65.885417, 51.06875]]}}, {"type": "Feature", "properties": {"HYRIV_ID": 40042437, "NEXT_DOWN": 40042639, "MAIN_RIV": 40097337, "LENGTH_KM": 1.28, "DIST_DN_KM": 704.6, "DIST_UP_KM": 8.5, "CATCH_SKM": 11.2, "UPLAND_SKM": 11.2, "ENDORHEIC": 1, "DIS_AV_CMS": 0.007, "ORD_STRA": 1, "ORD_CLAS": 6, "ORD_FLOW": 9, "HYBAS_L12": 4120123410}, "geometry": {"type": "LineString", "coordinates": [[65.891667, 51.058333], [65.885417, 51.064583], [65.885417, 51.06875]]}}, {"type": "Feature", "properties": {"HYRIV_ID": 40042496, "NEXT_DOWN": 40042757, "MAIN_RIV": 40097337, "LENGTH_KM": 5.89, "DIST_DN_KM": 692.0, "DIST_UP_KM": 16.1, "CATCH_SKM": 10.92, "UPLAND_SKM": 50.0, "ENDORHEIC": 1, "DIS_AV_CMS": 0.023, "ORD_STRA": 2, "ORD_CLAS": 5, "ORD_FLOW": 8, "HYBAS_L12": 4121182630}, "geometry": {"type": "LineString", "coordinates": [[65.785417, 51.097917], [65.78125, 51.09375], [65.777083, 51.09375], [65.772917, 51.089583], [65.76875, 51.089583], [65.752083, 51.072917], [65.752083, 51.06875], [65.74375, 51.060417], [65.74375, 51.05625]]}}, {"type": "Feature", "properties": {"HYRIV_ID": 40042497, "NEXT_DOWN": 40042757, "MAIN_RIV": 40097337, "LENGTH_KM": 1.75, "DIST_DN_KM": 691.9, "DIST_UP_KM": 23.7, "CATCH_SKM": 5.26, "UPLAND_SKM": 272.9, "ENDORHEIC": 1, "DIS_AV_CMS": 0.153, "ORD_STRA": 3, "ORD_CLAS": 4, "ORD_FLOW": 7, "HYBAS_L12": 4121182630}, "geometry": {"type": "LineString", "coordinates": [[65.76875, 51.05625], [65.74375, 51.05625]]}}, {"type": "Feature", "properties": {"HYRIV_ID": 40042498, "NEXT_DOWN": 40042497, "MAIN_RIV": 40097337, "LENGTH_KM": 3.71, "DIST_DN_KM": 693.8, "DIST_UP_KM": 21.8, "CATCH_SKM": 13.35, "UPLAND_SKM": 154.5, "ENDORHEIC": 1, "DIS_AV_CMS": 0.077, "ORD_STRA": 3, "ORD_CLAS": 4, "ORD_FLOW": 8, "HYBAS_L12": 4120123410}, "geometry": {"type": "LineString", "coordinates": [[65.814583, 51.064583], [65.789583, 51.064583], [65.785417, 51.060417], [65.772917, 51.060417], [65.76875, 51.05625]]}}, {"type": "Feature", "properties": {"HYRIV_ID": 40042566, "NEXT_DOWN": 40042495, "MAIN_RIV": 40097337, "LENGTH_KM": 5.94, "DIST_DN_KM": 674.5, "DIST_UP_KM": 41.0, "CATCH_SKM": 19.16, "UPLAND_SKM": 624.5, "ENDORHEIC": 1, "DIS_AV_CMS": 0.305, "ORD_STRA": 3, "ORD_CLAS": 4, "ORD_FLOW": 7, "HYBAS_L12": 4121182450}, "geometry": {"type": "LineString", "coordinates": [[65.614583, 51.052083], [65.611147, 51.05552]]}}, {"type": "Feature", "properties": {"HYRIV_ID": 40042567, "NEXT_DOWN": 40042566, "MAIN_RIV": 40097337, "LENGTH_KM": 0.29, "DIST_DN_KM": 680.2, "DIST_UP_KM": 35.4, "CATCH_SKM": 0.41, "UPLAND_SKM": 557.0, "ENDORHEIC": 1, "DIS_AV_CMS": 0.29, "ORD_STRA": 3, "ORD_CLAS": 4, "ORD_FLOW": 7, "HYBAS_L12": 4121182510}, "geometry": {"type": "LineString", "coordinates": [[65.61875, 51.052083], [65.614583, 51.052083]]}}, {"type": "Feature", "properties": {"HYRIV_ID": 40042568, "NEXT_DOWN": 40042567, "MAIN_RIV": 40097337, "LENGTH_KM": 3.58, "DIST_DN_KM": 680.6, "DIST_UP_KM": 17.0, "CATCH_SKM": 6.74, "UPLAND_SKM": 49.9, "ENDORHEIC": 1, "DIS_AV_CMS": 0.023, "ORD_STRA": 2, "ORD_CLAS": 5, "ORD_FLOW": 8, "HYBAS_L12": 4121182510}, "geometry": {"type": "LineString", "coordinates": [[65.635417, 51.08125], [65.63125, 51.077083], [65.63125, 51.072917], [65.622917, 51.064583], [65.622917, 51.060417], [65.61875, 51.05625], [65.61875, 51.052083]]}}, {"type": "Feature", "properties": {"HYRIV_ID": 40042638, "NEXT_DOWN": 40042498, "MAIN_RIV": 40097337, "LENGTH_KM": 3.65, "DIST_DN_KM": 697.5, "DIST_UP_KM": 16.5, "CATCH_SKM": 6.75, "UPLAND_SKM": 60.5, "ENDORHEIC": 1, "DIS_AV_CMS": 0.034, "ORD_STRA": 2, "ORD_CLAS": 5, "ORD_FLOW": 8, "HYBAS_L12": 4120123410}, "geometry": {"type": "LineString", "coordinates": [[65.852083, 51.047917], [65.847917, 51.052083], [65.835417, 51.052083], [65.83125, 51.05625], [65.822917, 51.05625], [65.814583, 51.064583]]}}, {"type": "Feature", "properties": {"HYRIV_ID": 40042639, "NEXT_DOWN": 40042638, "MAIN_RIV": 40097337, "LENGTH_KM": 3.61, "DIST_DN_KM": 701.1, "DIST_UP_KM": 12.9, "CATCH_SKM": 10.25, "UPLAND_SKM": 43.2, "ENDORHEIC": 1, "DIS_AV_CMS": 0.025, "ORD_STRA": 2, "ORD_CLAS": 5, "ORD_FLOW": 8, "HYBAS_L12": 4120123410}, "geometry": {"type": "LineString", "coordinates": [[65.885417, 51.06875], [65.877083, 51.06875], [65.864583, 51.05625], [65.860417, 51.05625], [65.852083, 51.047917]]}}, {"type": "Feature", "properties": {"HYRIV_ID": 40042640, "NEXT_DOWN": 40042638, "MAIN_RIV": 40097337, "LENGTH_KM": 0.44, "DIST_DN_KM": 700.9, "DIST_UP_KM": 8.2, "CATCH_SKM": 10.53, "UPLAND_SKM": 10.5, "ENDORHEIC": 1, "DIS_AV_CMS": 0.006, "ORD_STRA": 1, "ORD_CLAS": 6, "ORD_FLOW": 9, "HYBAS_L12": 4120123410}, "geometry": {"type": "LineString", "coordinates": [[65.858333, 51.047917], [65.852083, 51.047917]]}}, {"type": "Feature", "properties": {"HYRIV_ID": 40042756, "NEXT_DOWN": 40042825, "MAIN_RIV": 40097337, "LENGTH_KM": 11.09, "DIST_DN_KM": 687.0, "DIST_UP_KM": 17.0, "CATCH_SKM": 43.26, "UPLAND_SKM": 43.3, "ENDORHEIC": 1, "DIS_AV_CMS": 0.02, "ORD_STRA": 1, "ORD_CLAS": 5, "ORD_FLOW": 8, "HYBAS_L12": 4121182630}, "geometry": {"type": "LineString", "coordinates": [[65.745833, 51.125], [65.73125, 51.110417], [65.727083, 51.110417], [65.710417, 51.09375], [65.710417, 51.089583], [65.69375, 51.072917], [65.69375, 51.06875], [65.689583, 51.064583], [65.689583, 51.060417], [65.685417, 51.05625], [65.685417, 51.047917], [65.689583, 51.04375], [65.685417, 51.039583]]}}, {"type": "Feature", "properties": {"HYRIV_ID": 40042757, "NEXT_DOWN": 40042825, "MAIN_RIV": 40097337, "LENGTH_KM": 5.1, "DIST_DN_KM": 686.8, "DIST_UP_KM": 28.7, "CATCH_SKM": 19.7, "UPLAND_SKM": 342.5, "ENDORHEIC": 1, "DIS_AV_CMS": 0.174, "ORD_STRA": 3, "ORD_CLAS": 4, "ORD_FLOW": 7, "HYBAS_L12": 4121182630}, "geometry": {"type": "LineString", "coordinates": [[65.74375, 51.05625], [65.739583, 51.052083], [65.71875, 51.052083], [65.714583, 51.047917], [65.70625, 51.047917], [65.702083, 51.04375], [65.69375, 51.04375], [65.689583, 51.039583], [65.685417, 51.039583]]}}, {"type": "Feature", "properties": {"HYRIV_ID": 40042758, "NEXT_DOWN": 40042497, "MAIN_RIV": 40097337, "LENGTH_KM": 2.02, "DIST_DN_KM": 693.7, "DIST_UP_KM": 20.4, "CATCH_SKM": 3.51, "UPLAND_SKM": 113.1, "ENDORHEIC": 1, "DIS_AV_CMS": 0.077, "ORD_STRA": 2, "ORD_CLAS": 5, "ORD_FLOW": 8, "HYBAS_L12": 4120123510}, "geometry": {"type": "LineString", "coordinates": [[65.777083, 51.039583], [65.777083, 51.04375], [65.76875, 51.052083], [65.76875, 51.05625]]}}, {"type": "Feature", "properties": {"HYRIV_ID": 40042824, "NEXT_DOWN": 40042567, "MAIN_RIV": 40097337, "LENGTH_KM": 5.61, "DIST_DN_KM": 680.7, "DIST_UP_KM": 34.9, "CATCH_SKM": 21.86, "UPLAND_SKM": 506.7, "ENDORHEIC": 1, "DIS_AV_CMS": 0.267, "ORD_STRA": 3, "ORD_CLAS": 4, "ORD_FLOW": 7, "HYBAS_L12": 4121182510}, "geometry": {"type": "LineString", "coordinates": [[65.677083, 51.035417], [65.672917, 51.039583], [65.660417, 51.039583], [65.65625, 51.04375], [65.652083, 51.04375], [65.647917, 51.039583], [65.639583, 51.039583], [65.635417, 51.04375], [65.63125, 51.04375], [65.627083, 51.047917], [65.622917, 51.047917], [65.61875, 51.052083]]}}, {"type": "Feature", "properties": {"HYRIV_ID": 40042825, "NEXT_DOWN": 40042824, "MAIN_RIV": 40097337, "LENGTH_KM": 0.84, "DIST_DN_KM": 686.2, "DIST_UP_KM": 29.4, "CATCH_SKM": 0.54, "UPLAND_SKM": 386.3, "ENDORHEIC": 1, "DIS_AV_CMS": 0.193, "ORD_STRA": 3, "ORD_CLAS": 4, "ORD_FLOW": 7, "HYBAS_L12": 4121182630}, "geometry": {"type": "LineString", "coordinates": [[65.685417, 51.039583], [65.68125, 51.039583], [65.677083, 51.035417]]}}, {"type": "Feature", "properties": {"HYRIV_ID": 40042912, "NEXT_DOWN": 40042758, "MAIN_RIV": 40097337, "LENGTH_KM": 1.28, "DIST_DN_KM": 695.7, "DIST_UP_KM": 8.2, "CATCH_SKM": 11.21, "UPLAND_SKM": 11.2, "ENDORHEIC": 1, "DIS_AV_CMS": 0.007, "ORD_STRA": 1, "ORD_CLAS": 6, "ORD_FLOW": 9, "HYBAS_L12": 4120123510}, "geometry": {"type": "LineString", "coordinates": [[65.770833, 51.029167], [65.777083, 51.035417], [65.777083, 51.039583]]}}, {"type": "Feature", "properties": {"HYRIV_ID": 40043024, "NEXT_DOWN": 40042824, "MAIN_RIV": 40097337, "LENGTH_KM": 1.85, "DIST_DN_KM": 686.0, "DIST_UP_KM": 17.6, "CATCH_SKM": 2.7, "UPLAND_SKM": 98.5, "ENDORHEIC": 1, "DIS_AV_CMS": 0.079, "ORD_STRA": 2, "ORD_CLAS": 5, "ORD_FLOW": 8, "HYBAS_L12": 4121182630}, "geometry": {"type": "LineString", "coordinates": [[65.689583, 51.022917], [65.68125, 51.03125], [65.68125, 51.035417], [65.677083, 51.035417]]}}, {"type": "Feature", "properties": {"HYRIV_ID": 40043082, "NEXT_DOWN": 40043024, "MAIN_RIV": 40097337, "LENGTH_KM": 3.9, "DIST_DN_KM": 687.9, "DIST_UP_KM": 12.9, "CATCH_SKM": 22.02, "UPLAND_SKM": 22.0, "ENDORHEIC": 1, "DIS_AV_CMS": 0.014, "ORD_STRA": 1, "ORD_CLAS": 6, "ORD_FLOW": 8, "HYBAS_L12": 4121182630}, "geometry": {"type": "LineString", "coordinates": [[65.741667, 51.01875], [65.735417, 51.01875], [65.73125, 51.022917], [65.689583, 51.022917]]}}, {"type": "Feature", "properties": {"HYRIV_ID": 40043083, "NEXT_DOWN": 40042758, "MAIN_RIV": 40097337, "LENGTH_KM": 4.41, "DIST_DN_KM": 695.9, "DIST_UP_KM": 18.3, "CATCH_SKM": 12.82, "UPLAND_SKM": 98.4, "ENDORHEIC": 1, "DIS_AV_CMS": 0.068, "ORD_STRA": 2, "ORD_CLAS": 5, "ORD_FLOW": 8, "HYBAS_L12": 4120123510}, "geometry": {"type": "LineString", "coordinates": [[65.814583, 51.01875], [65.810417, 51.01875], [65.80625, 51.022917], [65.802083, 51.022917], [65.79375, 51.03125], [65.789583, 51.027083], [65.777083, 51.039583]]}}, {"type": "Feature", "properties": {"HYRIV_ID": 40043209, "NEXT_DOWN": 40043024, "MAIN_RIV": 40097337, "LENGTH_KM": 1.47, "DIST_DN_KM": 688.0, "DIST_UP_KM": 15.7, "CATCH_SKM": 2.84, "UPLAND_SKM": 73.8, "ENDORHEIC": 1, "DIS_AV_CMS": 0.064, "ORD_STRA": 2, "ORD_CLAS": 5, "ORD_FLOW": 8, "HYBAS_L12": 4121182630}, "geometry": {"type": "LineString", "coordinates": [[65.685417, 51.010417], [65.689583, 51.014583], [65.689583, 51.022917]]}}, {"type": "Feature", "properties": {"HYRIV_ID": 40043341, "NEXT_DOWN": 40043083, "MAIN_RIV": 40097337, "LENGTH_KM": 8.9, "DIST_DN_KM": 700.1, "DIST_UP_KM": 14.1, "CATCH_SKM": 48.09, "UPLAND_SKM": 48.1, "ENDORHEIC": 1, "DIS_AV_CMS": 0.032, "ORD_STRA": 1, "ORD_CLAS": 5, "ORD_FLOW": 8, "HYBAS_L12": 4120123510}, "geometry": {"type": "LineString", "coordinates": [[65.9125, 51.002083], [65.902083, 51.002083], [65.897917, 51.00625], [65.89375, 51.00625], [65.889583, 51.002083], [65.88125, 51.010417], [65.877083, 51.010417], [65.872917, 51.014583], [65.86875, 51.014583], [65.864583, 51.01875], [65.847917, 51.01875], [65.84375, 51.014583], [65.835417, 51.014583], [65.83125, 51.01875], [65.814583, 51.01875]]}}, {"type": "Feature", "properties": {"HYRIV_ID": 40043467, "NEXT_DOWN": 40043209, "MAIN_RIV": 40097337, "LENGTH_KM": 5.17, "DIST_DN_KM": 689.4, "DIST_UP_KM": 11.4, "CATCH_SKM": 23.65, "UPLAND_SKM": 23.7, "ENDORHEIC": 1, "DIS_AV_CMS": 0.02, "ORD_STRA": 1, "ORD_CLAS": 6, "ORD_FLOW": 8, "HYBAS_L12": 4121182630}, "geometry": {"type": "LineString", "coordinates": [[65.741667, 50.99375], [65.710417, 50.99375], [65.70625, 50.997917], [65.697917, 50.997917], [65.69375, 51.002083], [65.689583, 51.002083], [65.685417, 51.00625], [65.685417, 51.010417]]}}, {"type": "Feature", "properties": {"HYRIV_ID": 40043746, "NEXT_DOWN": 40043083, "MAIN_RIV": 40097337, "LENGTH_KM": 7.58, "DIST_DN_KM": 700.1, "DIST_UP_KM": 12.9, "CATCH_SKM": 37.44, "UPLAND_SKM": 37.4, "ENDORHEIC": 1, "DIS_AV_CMS": 0.03, "ORD_STRA": 1, "ORD_CLAS": 6, "ORD_FLOW": 8, "HYBAS_L12": 4120123510}, "geometry": {"type": "LineString", "coordinates": [[65.85, 50.985417], [65.84375, 50.985417], [65.835417, 50.977083], [65.81875, 50.977083], [65.814583, 50.98125], [65.814583, 50.985417], [65.810417, 50.989583], [65.810417, 51.010417], [65.814583, 51.014583], [65.814583, 51.01875]]}}, {"type": "Feature", "properties": {"HYRIV_ID": 40043813, "NEXT_DOWN": 40043209, "MAIN_RIV": 40097337, "LENGTH_KM": 4.51, "DIST_DN_KM": 689.6, "DIST_UP_KM": 14.1, "CATCH_SKM": 7.43, "UPLAND_SKM": 47.3, "ENDORHEIC": 1, "DIS_AV_CMS": 0.044, "ORD_STRA": 2, "ORD_CLAS": 5, "ORD_FLOW": 8, "HYBAS_L12": 4121182630}, "geometry": {"type": "LineString", "coordinates": [[65.66875, 50.972917], [65.66875, 50.977083], [65.672917, 50.98125], [65.672917, 50.985417], [65.677083, 50.989583], [65.677083, 50.99375], [65.68125, 50.997917], [65.68125, 51.00625], [65.685417, 51.010417]]}}, {"type": "Feature", "properties": {"HYRIV_ID": 40043926, "NEXT_DOWN": 40043813, "MAIN_RIV": 40097337, "LENGTH_KM": 1.28, "DIST_DN_KM": 694.0, "DIST_UP_KM": 6.3, "CATCH_SKM": 16.91, "UPLAND_SKM": 16.9, "ENDORHEIC": 1, "DIS_AV_CMS": 0.015, "ORD_STRA": 1, "ORD_CLAS": 6, "ORD_FLOW": 8, "HYBAS_L12": 4121182630}, "geometry": {"type": "LineString", "coordinates": [[65.6625, 50.9625], [65.66875, 50.96875], [65.66875, 50.972917]]}}, {"type": "Feature", "properties": {"HYRIV_ID": 40044053, "NEXT_DOWN": 40043813, "MAIN_RIV": 40097337, "LENGTH_KM": 5.1, "DIST_DN_KM": 694.1, "DIST_UP_KM": 9.5, "CATCH_SKM": 22.99, "UPLAND_SKM": 23.0, "ENDORHEIC": 1, "DIS_AV_CMS": 0.021, "ORD_STRA": 1, "ORD_CLAS": 5, "ORD_FLOW": 8, "HYBAS_L12": 4121182630}, "geometry": {"type": "LineString", "coordinates": [[65.710417, 50.954167], [65.710417, 50.964583], [65.70625, 50.96875], [65.697917, 50.96875], [65.69375, 50.964583], [65.689583, 50.96875], [65.672917, 50.96875], [65.66875, 50.972917]]}}, {"type": "Feature", "properties": {"HYRIV_ID": 40044918, "NEXT_DOWN": 40045247, "MAIN_RIV": 40097337, "LENGTH_KM": 3.18, "DIST_DN_KM": 673.8, "DIST_UP_KM": 7.4, "CATCH_SKM": 23.68, "UPLAND_SKM": 23.7, "ENDORHEIC": 1, "DIS_AV_CMS": 0.021, "ORD_STRA": 1, "ORD_CLAS": 5, "ORD_FLOW": 8, "HYBAS_L12": 4120126550}, "geometry": {"type": "LineString", "coordinates": [[65.8125, 50.91875], [65.80625, 50.91875], [65.789583, 50.902083], [65.79375, 50.897917]]}}, {"type": "Feature", "properties": {"HYRIV_ID": 40044919, "NEXT_DOWN": 40045247, "MAIN_RIV": 40097337, "LENGTH_KM": 10.7, "DIST_DN_KM": 673.6, "DIST_UP_KM": 15.8, "CATCH_SKM": 61.16, "UPLAND_SKM": 61.2, "ENDORHEIC": 1, "DIS_AV_CMS": 0.067, "ORD_STRA": 1, "ORD_CLAS": 4, "ORD_FLOW": 8, "HYBAS_L12": 4120126550}, "geometry": {"type": "LineString", "coordinates": [[65.834513, 50.90625], [65.81875, 50.90625], [65.814583, 50.902083], [65.80625, 50.902083], [65.802083, 50.897917], [65.79375, 50.897917]]}}, {"type": "Feature", "properties": {"HYRIV_ID": 40045246, "NEXT_DOWN": 40045603, "MAIN_RIV": 40097337, "LENGTH_KM": 1.45, "DIST_DN_KM": 668.1, "DIST_UP_KM": 7.1, "CATCH_SKM": 12.99, "UPLAND_SKM": 13.0, "ENDORHEIC": 1, "DIS_AV_CMS": 0.012, "ORD_STRA": 1, "ORD_CLAS": 5, "ORD_FLOW": 8, "HYBAS_L12": 4120126550}, "geometry": {"type": "LineString", "coordinates": [[65.720833, 50.885417], [65.727083, 50.885417], [65.73125, 50.88125], [65.73125, 50.877083]]}}, {"type": "Feature", "properties": {"HYRIV_ID": 40045247, "NEXT_DOWN": 40045603, "MAIN_RIV": 40097337, "LENGTH_KM": 5.66, "DIST_DN_KM": 668.1, "DIST_UP_KM": 21.4, "CATCH_SKM": 23.15, "UPLAND_SKM": 108.0, "ENDORHEIC": 1, "DIS_AV_CMS": 0.124, "ORD_STRA": 2, "ORD_CLAS": 4, "ORD_FLOW": 7, "HYBAS_L12": 4120126550}, "geometry": {"type": "LineString", "coordinates": [[65.79375, 50.897917], [65.789583, 50.89375], [65.760417, 50.89375], [65.752083, 50.885417], [65.747917, 50.885417], [65.74375, 50.88125], [65.739583, 50.88125], [65.735417, 50.877083], [65.73125, 50.877083]]}}, {"type": "Feature", "properties": {"HYRIV_ID": 40045603, "NEXT_DOWN": 40045839, "MAIN_RIV": 40097337, "LENGTH_KM": 5.63, "DIST_DN_KM": 662.7, "DIST_UP_KM": 26.8, "CATCH_SKM": 18.69, "UPLAND_SKM": 139.7, "ENDORHEIC": 1, "DIS_AV_CMS": 0.172, "ORD_STRA": 2, "ORD_CLAS": 4, "ORD_FLOW": 7, "HYBAS_L12": 4120126550}, "geometry": {"type": "LineString", "coordinates": [[65.73125, 50.877083], [65.727083, 50.877083], [65.722917, 50.872917], [65.71875, 50.872917], [65.714583, 50.86875], [65.702083, 50.86875], [65.689583, 50.85625], [65.677083, 50.85625], [65.672917, 50.852083]]}}, {"type": "Feature", "properties": {"HYRIV_ID": 40045604, "NEXT_DOWN": 40045676, "MAIN_RIV": 40097337, "LENGTH_KM": 1.13, "DIST_DN_KM": 672.2, "DIST_UP_KM": 14.2, "CATCH_SKM": 1.35, "UPLAND_SKM": 48.5, "ENDORHEIC": 1, "DIS_AV_CMS": 0.055, "ORD_STRA": 2, "ORD_CLAS": 6, "ORD_FLOW": 8, "HYBAS_L12": 4120126680}, "geometry": {"type": "LineString", "coordinates": [[65.790811, 50.85625], [65.785417, 50.85625], [65.782514, 50.853347]]}}, {"type": "Feature", "properties": {"HYRIV_ID": 40045838, "NEXT_DOWN": 40046037, "MAIN_RIV": 40097337, "LENGTH_KM": 5.5, "DIST_DN_KM": 659.6, "DIST_UP_KM": 11.1, "CATCH_SKM": 20.45, "UPLAND_SKM": 20.4, "ENDORHEIC": 1, "DIS_AV_CMS": 0.02, "ORD_STRA": 1, "ORD_CLAS": 5, "ORD_FLOW": 8, "HYBAS_L12": 4120127530}, "geometry": {"type": "LineString", "coordinates": [[65.64375, 50.883333], [65.64375, 50.872917], [65.639583, 50.86875], [65.639583, 50.852083], [65.64375, 50.847917], [65.64375, 50.839089]]}}, {"type": "Feature", "properties": {"HYRIV_ID": 40045841, "NEXT_DOWN": 40046105, "MAIN_RIV": 40097337, "LENGTH_KM": 0.44, "DIST_DN_KM": 707.1, "DIST_UP_KM": 6.7, "CATCH_SKM": 11.11, "UPLAND_SKM": 11.1, "ENDORHEIC": 1, "DIS_AV_CMS": 0.008, "ORD_STRA": 1, "ORD_CLAS": 5, "ORD_FLOW": 9, "HYBAS_L12": 4121184220}, "geometry": {"type": "LineString", "coordinates": [[66.158333, 50.835417], [66.164583, 50.835417]]}}, {"type": "Feature", "properties": {"HYRIV_ID": 40045842, "NEXT_DOWN": 40046105, "MAIN_RIV": 40097337, "LENGTH_KM": 1.83, "DIST_DN_KM": 707.2, "DIST_UP_KM": 6.7, "CATCH_SKM": 12.6, "UPLAND_SKM": 12.6, "ENDORHEIC": 1, "DIS_AV_CMS": 0.009, "ORD_STRA": 1, "ORD_CLAS": 4, "ORD_FLOW": 9, "HYBAS_L12": 4121184220}, "geometry": {"type": "LineString", "coordinates": [[66.175, 50.85], [66.164583, 50.839583], [66.164583, 50.835417]]}}, {"type": "Feature", "properties": {"HYRIV_ID": 40045959, "NEXT_DOWN": 40046325, "MAIN_RIV": 40097337, "LENGTH_KM": 2.96, "DIST_DN_KM": 725.1, "DIST_UP_KM": 7.8, "CATCH_SKM": 19.52, "UPLAND_SKM": 19.5, "ENDORHEIC": 1, "DIS_AV_CMS": 0.017, "ORD_STRA": 1, "ORD_CLAS": 4, "ORD_FLOW": 8, "HYBAS_L12": 4120127440}, "geometry": {"type": "LineString", "coordinates": [[66.458333, 50.839583], [66.452083, 50.839583], [66.447917, 50.835417], [66.439583, 50.835417], [66.435417, 50.83125], [66.43125, 50.83125], [66.427083, 50.827083]]}}, {"type": "Feature", "properties": {"HYRIV_ID": 40046036, "NEXT_DOWN": 40046275, "MAIN_RIV": 40097337, "LENGTH_KM": 8.32, "DIST_DN_KM": 657.5, "DIST_UP_KM": 12.7, "CATCH_SKM": 31.55, "UPLAND_SKM": 31.6, "ENDORHEIC": 1, "DIS_AV_CMS": 0.031, "ORD_STRA": 1, "ORD_CLAS": 5, "ORD_FLOW": 8, "HYBAS_L12": 4120127530}, "geometry": {"type": "LineString", "coordinates": [[65.59375, 50.8875], [65.59375, 50.877083], [65.597917, 50.872917], [65.597917, 50.864583], [65.610417, 50.852083], [65.610417, 50.847917], [65.614583, 50.84375], [65.61875, 50.84375], [65.622917, 50.839583], [65.61875, 50.835417], [65.622917, 50.83125], [65.618992, 50.827326]]}}, {"type": "Feature", "properties": {"HYRIV_ID": 40046105, "NEXT_DOWN": 40046812, "MAIN_RIV": 40097337, "LENGTH_KM": 2.02, "DIST_DN_KM": 705.3, "DIST_UP_KM": 8.6, "CATCH_SKM": 1.9, "UPLAND_SKM": 25.6, "ENDORHEIC": 1, "DIS_AV_CMS": 0.018, "ORD_STRA": 2, "ORD_CLAS": 4, "ORD_FLOW": 8, "HYBAS_L12": 4121184220}, "geometry": {"type": "LineString", "coordinates": [[66.164583, 50.835417], [66.16875, 50.83125], [66.16875, 50.822917], [66.172917, 50.81875]]}}, {"type": "Feature", "properties": {"HYRIV_ID": 40046106, "NEXT_DOWN": 40046812, "MAIN_RIV": 40097337, "LENGTH_KM": 1.37, "DIST_DN_KM": 705.3, "DIST_UP_KM": 7.9, "CATCH_SKM": 11.66, "UPLAND_SKM": 11.7, "ENDORHEIC": 1, "DIS_AV_CMS": 0.008, "ORD_STRA": 1, "ORD_CLAS": 5, "ORD_FLOW": 9, "HYBAS_L12": 4121184220}, "geometry": {"type": "LineString", "coordinates": [[66.183333, 50.829167], [66.172917, 50.81875]]}}, {"type": "Feature", "properties": {"HYRIV_ID": 40046107, "NEXT_DOWN": 40046325, "MAIN_RIV": 40097337, "LENGTH_KM": 1.58, "DIST_DN_KM": 724.9, "DIST_UP_KM": 6.7, "CATCH_SKM": 12.75, "UPLAND_SKM": 12.8, "ENDORHEIC": 1, "DIS_AV_CMS": 0.011, "ORD_STRA": 1, "ORD_CLAS": 5, "ORD_FLOW": 8, "HYBAS_L12": 4120127440}, "geometry": {"type": "LineString", "coordinates": [[66.4375, 50.816667], [66.43125, 50.822917], [66.43125, 50.827083], [66.427083, 50.827083]]}}, {"type": "Feature", "properties": {"HYRIV_ID": 40046162, "NEXT_DOWN": 40047024, "MAIN_RIV": 40097337, "LENGTH_KM": 5.74, "DIST_DN_KM": 696.3, "DIST_UP_KM": 11.4, "CATCH_SKM": 22.91, "UPLAND_SKM": 22.9, "ENDORHEIC": 1, "DIS_AV_CMS": 0.018, "ORD_STRA": 1, "ORD_CLAS": 4, "ORD_FLOW": 8, "HYBAS_L12": 4121184290}, "geometry": {"type": "LineString", "coordinates": [[66.108333, 50.85], [66.089583, 50.83125], [66.084445, 50.83125]]}}, {"type": "Feature", "properties": {"HYRIV_ID": 40046324, "NEXT_DOWN": 40046558, "MAIN_RIV": 40097337, "LENGTH_KM": 2.8, "DIST_DN_KM": 709.3, "DIST_UP_KM": 7.9, "CATCH_SKM": 13.15, "UPLAND_SKM": 13.1, "ENDORHEIC": 1, "DIS_AV_CMS": 0.009, "ORD_STRA": 1, "ORD_CLAS": 5, "ORD_FLOW": 9, "HYBAS_L12": 4120127440}, "geometry": {"type": "LineString", "coordinates": [[66.247917, 50.825], [66.247917, 50.81875], [66.246132, 50.816965]]}}, {"type": "Feature", "properties": {"HYRIV_ID": 40046325, "NEXT_DOWN": 40046558, "MAIN_RIV": 40097337, "LENGTH_KM": 15.94, "DIST_DN_KM": 709.2, "DIST_UP_KM": 23.7, "CATCH_SKM": 86.5, "UPLAND_SKM": 118.8, "ENDORHEIC": 1, "DIS_AV_CMS": 0.09, "ORD_STRA": 2, "ORD_CLAS": 4, "ORD_FLOW": 8, "HYBAS_L12": 4120127440}, "geometry": {"type": "LineString", "coordinates": [[66.427083, 50.827083], [66.410417, 50.827083], [66.40625, 50.822917], [66.402083, 50.827083], [66.397917, 50.827083], [66.39375, 50.83125], [66.377083, 50.83125], [66.372917, 50.835417], [66.364583, 50.835417], [66.360417, 50.83125], [66.322917, 50.83125], [66.31875, 50.827083], [66.310417, 50.827083], [66.30625, 50.822917], [66.297917, 50.822917], [66.29375, 50.81875], [66.285417, 50.81875], [66.28125, 50.814583], [66.272917, 50.814583], [66.26875, 50.810417], [66.25625, 50.810417], [66.251892, 50.806059]]}}, {"type": "Feature", "properties": {"HYRIV_ID": 40046679, "NEXT_DOWN": 40047027, "MAIN_RIV": 40097337, "LENGTH_KM": 0.69, "DIST_DN_KM": 726.1, "DIST_UP_KM": 8.7, "CATCH_SKM": 11.4, "UPLAND_SKM": 11.4, "ENDORHEIC": 1, "DIS_AV_CMS": 0.01, "ORD_STRA": 1, "ORD_CLAS": 3, "ORD_FLOW": 8, "HYBAS_L12": 4120127600}, "geometry": {"type": "LineString", "coordinates": [[66.39375, 50.783333], [66.39375, 50.777083]]}}, {"type": "Feature", "properties": {"HYRIV_ID": 40046680, "NEXT_DOWN": 40047027, "MAIN_RIV": 40097337, "LENGTH_KM": 0.73, "DIST_DN_KM": 726.0, "DIST_UP_KM": 6.2, "CATCH_SKM": 16.97, "UPLAND_SKM": 17.0, "ENDORHEIC": 1, "DIS_AV_CMS": 0.015, "ORD_STRA": 1, "ORD_CLAS": 4, "ORD_FLOW": 8, "HYBAS_L12": 4120127600}, "geometry": {"type": "LineString", "coordinates": [[66.404167, 50.777083], [66.39375, 50.777083]]}}, {"type": "Feature", "properties": {"HYRIV_ID": 40047027, "NEXT_DOWN": 40047167, "MAIN_RIV": 40097337, "LENGTH_KM": 3.33, "DIST_DN_KM": 722.9, "DIST_UP_KM": 11.9, "CATCH_SKM": 14.66, "UPLAND_SKM": 43.0, "ENDORHEIC": 1, "DIS_AV_CMS": 0.037, "ORD_STRA": 2, "ORD_CLAS": 3, "ORD_FLOW": 8, "HYBAS_L12": 4120127600}, "geometry": {"type": "LineString", "coordinates": [[66.39375, 50.777083], [66.385417, 50.777083], [66.364583, 50.75625]]}}, {"type": "Feature", "properties": {"HYRIV_ID": 40047167, "NEXT_DOWN": 40046747, "MAIN_RIV": 40097337, "LENGTH_KM": 15.01, "DIST_DN_KM": 707.8, "DIST_UP_KM": 26.9, "CATCH_SKM": 49.96, "UPLAND_SKM": 135.9, "ENDORHEIC": 1, "DIS_AV_CMS": 0.109, "ORD_STRA": 3, "ORD_CLAS": 3, "ORD_FLOW": 7, "HYBAS_L12": 4120127600}, "geometry": {"type": "LineString", "coordinates": [[66.364583, 50.75625], [66.35625, 50.75625], [66.352083, 50.752083], [66.34375, 50.752083], [66.339583, 50.747917], [66.335417, 50.747917], [66.33125, 50.752083], [66.33125, 50.75625], [66.327083, 50.760417], [66.327083, 50.76875], [66.322917, 50.772917], [66.31875, 50.772917], [66.314583, 50.777083], [66.30625, 50.777083], [66.297917, 50.785417], [66.29375, 50.785417], [66.289583, 50.78125], [66.285417, 50.78125], [66.28125, 50.777083], [66.28125, 50.76875], [66.277083, 50.764583], [66.273796, 50.764583]]}}, {"type": "Feature", "properties": {"HYRIV_ID": 40047168, "NEXT_DOWN": 40047167, "MAIN_RIV": 40097337, "LENGTH_KM": 1.39, "DIST_DN_KM": 722.7, "DIST_UP_KM": 9.0, "CATCH_SKM": 1.49, "UPLAND_SKM": 42.9, "ENDORHEIC": 1, "DIS_AV_CMS": 0.037, "ORD_STRA": 2, "ORD_CLAS": 4, "ORD_FLOW": 8, "HYBAS_L12": 4120127600}, "geometry": {"type": "LineString", "coordinates": [[66.377083, 50.747917], [66.36875, 50.75625], [66.364583, 50.75625]]}}, {"type": "Feature", "properties": {"HYRIV_ID": 40047169, "NEXT_DOWN": 40047168, "MAIN_RIV": 40097337, "LENGTH_KM": 1.03, "DIST_DN_KM": 724.1, "DIST_UP_KM": 6.8, "CATCH_SKM": 13.04, "UPLAND_SKM": 13.0, "ENDORHEIC": 1, "DIS_AV_CMS": 0.011, "ORD_STRA": 1, "ORD_CLAS": 5, "ORD_FLOW": 8, "HYBAS_L12": 4120127600}, "geometry": {"type": "LineString", "coordinates": [[66.391667, 50.747917], [66.377083, 50.747917]]}}, {"type": "Feature", "properties": {"HYRIV_ID": 40047418, "NEXT_DOWN": 40047168, "MAIN_RIV": 40097337, "LENGTH_KM": 2.84, "DIST_DN_KM": 724.3, "DIST_UP_KM": 7.4, "CATCH_SKM": 28.41, "UPLAND_SKM": 28.4, "ENDORHEIC": 1, "DIS_AV_CMS": 0.024, "ORD_STRA": 1, "ORD_CLAS": 4, "ORD_FLOW": 8, "HYBAS_L12": 4120127600}, "geometry": {"type": "LineString", "coordinates": [[66.383333, 50.73125], [66.372917, 50.73125], [66.36875, 50.735417], [66.36875, 50.739583], [66.377083, 50.747917]]}}]}