{
"type": "FeatureCollection",
"name": "geoBoundaries-KAZ-ADM1",
"crs": { "type": "name", "properties": { "name": "urn:ogc:def:crs:OGC:1.3:CRS84" } },
"features": [
{"type":"Feature","properties":{"shapeName":"Akmola Region","shapeISO":"KZ-AKM","shapeID":"16772668B69662276924495","shapeGroup":"KAZ","shapeType":"ADM1"},"geometry":{"type":"Polygon","coordinates":[[[73.9218798,52.5928329],[73.5459981,52.602375],[73.5291341,52.6027869],[73.5272981,52.6087725],[73.5243231,52.6136847],[73.4931762,52.6659889],[73.424732,52.6538951],[73.3916334,52.6991285],[73.3200893,52.7094202],[73.2465133,52.7044252],[73.2074762,52.7173373],[73.1181476,52.7300664],[73.0645658,52.7493496],[72.9122435,52.714383],[72.930057,52.9095167],[72.9312536,52.9226277],[72.8973656,52.9321886],[72.8941583,52.9457016],[72.878634,53.0101346],[72.8693647,53.0274642],[72.7529397,53.0191396],[72.7378348,53.0118122],[72.6935001,53.0146891],[72.6691721,53.0121799],[72.6466606,53.014434],[72.6048356,53.0009551],[72.5806956,52.996294],[72.558304,52.9885252],[72.5382912,52.9838737],[72.52848,52.9860811],[72.490608,52.9843628],[72.4695827,52.9801553],[72.4590521,52.9807462],[72.4493,52.9778377],[72.2027257,53.0125493],[72.2032709,52.9672112],[72.2041699,52.89235],[72.1318399,52.8725708],[72.1053607,52.8653276],[71.9148765,52.8544853],[71.8687078,52.8736317],[71.8225687,52.8927482],[71.8106381,52.9004786],[71.7986387,52.8962938],[71.7727088,52.9144919],[71.773118,52.9263978],[71.7618595,52.9412709],[71.7787017,52.9825962],[71.7426245,52.9786685],[71.66889,52.9453117],[71.6509745,52.9785881],[71.6473475,52.9853218],[71.6336913,53.0106656],[71.6228717,53.0307348],[71.6065989,53.0418019],[71.7195862,53.0757252],[71.7165041,53.08355],[71.7103871,53.0990757],[71.6965144,53.1342653],[71.7395399,53.2125442],[71.6684166,53.2970617],[71.6418865,53.3091649],[71.6328075,53.3106229],[71.6270562,53.328292],[71.6090842,53.383459],[71.6058766,53.4015911],[71.5728319,53.4232338],[71.5271976,53.4076061],[71.5128901,53.3986455],[71.4536908,53.3900534],[71.4325683,53.384685],[71.4060998,53.370439],[71.40515,53.3591371],[71.3934609,53.3487062],[71.3154587,53.3260138],[71.2926516,53.326429],[71.2701876,53.3161289],[71.2490374,53.3039254],[71.2232281,53.307706],[71.1947283,53.3159258],[71.1719945,53.3167299],[71.1425022,53.3162293],[71.1445228,53.3285385],[71.1298845,53.3294472],[71.0781026,53.3302019],[71.0119467,53.3309782],[71.0633951,53.4217201],[71.0231638,53.421017],[71.0232148,53.4276677],[70.8902138,53.4285829],[70.5836548,53.4301281],[70.5843432,53.3336562],[70.5563843,53.3342694],[70.5342501,53.3336574],[70.4761741,53.3255964],[70.4478537,53.321665],[70.4469792,53.2796804],[70.4554979,53.2656054],[70.4555086,53.2338226],[70.3600657,53.2213875],[70.3188714,53.2275698],[70.3160367,53.2505595],[70.308391,53.2633892],[70.2963176,53.2921984],[70.2338526,53.3673719],[70.2100895,53.3675336],[70.2098326,53.3584675],[70.010904,53.3604821],[69.9974044,53.3623972],[70.0142334,53.379896],[70.0093703,53.4184484],[70.0309526,53.4257445],[70.0518253,53.4291183],[70.0647922,53.4299065],[70.0710748,53.4333426],[70.0716225,53.4495598],[70.072075,53.4633213],[70.0740918,53.4681114],[70.0703089,53.4873075],[70.0744342,53.5004223],[70.0738997,53.5074272],[70.055469,53.510349],[70.033615,53.5091966],[70.0152384,53.5095662],[69.9961739,53.5160197],[69.9781843,53.5230269],[69.943403,53.5211651],[69.9425459,53.5211213],[69.9286587,53.5208765],[69.9135414,53.5241041],[69.9108494,53.5203065],[69.87415,53.5299846],[69.870723,53.5191207],[69.8399851,53.5186336],[69.8406932,53.632183],[69.8028653,53.6322306],[69.8029556,53.6682897],[69.6807669,53.668272],[69.6807401,53.6771238],[69.6580286,53.6772727],[69.6588495,53.6774355],[69.6592809,53.6775914],[69.6597166,53.6779108],[69.660355,53.6782199],[69.6607734,53.6785598],[69.6610366,53.6789021],[69.6612307,53.6791576],[69.6614895,53.6794131],[69.6617849,53.6796628],[69.6621558,53.6798467],[69.6622335,53.6799821],[69.6622852,53.6801993],[69.6622421,53.6804855],[69.6621774,53.6807307],[69.6618754,53.6810476],[69.6614829,53.6812366],[69.6610558,53.6814614],[69.6606935,53.6816147],[69.6602578,53.681722],[69.6596841,53.6818396],[69.6591794,53.68186],[69.6587092,53.6818115],[69.6581657,53.6817655],[69.6579543,53.6817629],[69.6576739,53.6817476],[69.6573418,53.6816352],[69.6570053,53.6815228],[69.6568888,53.6813541],[69.6568155,53.6811727],[69.6565049,53.68093],[69.6562633,53.6807001],[69.6559873,53.6803219],[69.6557975,53.6801354],[69.6555645,53.6800307],[69.6553014,53.6799847],[69.6549908,53.6799489],[69.6546673,53.6798467],[69.6543308,53.679696],[69.6538304,53.6796449],[69.6533648,53.6796666],[69.6528005,53.6797461],[69.652192,53.6797506],[69.6518702,53.6797407],[69.6516231,53.6797154],[69.6513897,53.6796433],[69.6510791,53.6794491],[69.6505097,53.6790607],[69.6497764,53.6785446],[69.649455,53.6784641],[69.6491552,53.6784424],[69.6488468,53.6784756],[69.6485664,53.6785305],[69.6482925,53.6786059],[69.6479689,53.6787937],[69.6478266,53.6789074],[69.6477532,53.6790364],[69.6477338,53.6792293],[69.6477446,53.6793277],[69.6477791,53.6794427],[69.6477381,53.6795518],[69.6475656,53.6798303],[69.647337,53.6800347],[69.6471213,53.6801854],[69.6471256,53.6803132],[69.6472162,53.6805738],[69.6473844,53.6808625],[69.6474146,53.681118],[69.6474326,53.6814094],[69.6473118,53.6818208],[69.6472169,53.6821146],[69.6472169,53.6824084],[69.6472169,53.6828504],[69.6470918,53.6831697],[69.646695,53.6836194],[69.6462852,53.6839361],[69.6457546,53.6842223],[69.6453042,53.6843697],[69.6449031,53.6843595],[69.644407,53.6842777],[69.6441913,53.684127],[69.6440447,53.6839201],[69.6439325,53.6835778],[69.6438247,53.6833018],[69.6438203,53.683008],[69.6438333,53.6826938],[69.6439109,53.6824562],[69.6439756,53.6822084],[69.6439843,53.6819554],[69.6439411,53.6817],[69.6439109,53.681424],[69.6439929,53.6811404],[69.6439627,53.6810357],[69.643898,53.6808952],[69.643829,53.6806192],[69.6436348,53.6803663],[69.6432811,53.6801491],[69.6430698,53.6800214],[69.6426341,53.6799907],[69.6422286,53.6799294],[69.6418878,53.6799115],[69.6414004,53.6799626],[69.6410164,53.679909],[69.6404643,53.6798783],[69.6401019,53.6798246],[69.6396921,53.6797199],[69.6395282,53.6796662],[69.6393557,53.6796535],[69.6391702,53.6797046],[69.6390149,53.679702],[69.6388812,53.6796228],[69.6385318,53.6794056],[69.6381608,53.6791297],[69.6378804,53.6789483],[69.6376863,53.6787566],[69.6375569,53.6785522],[69.6374749,53.6783657],[69.6373757,53.6781588],[69.6370694,53.6779135],[69.6368365,53.6777959],[69.6365647,53.6776988],[69.6362196,53.6776784],[69.6359392,53.6776963],[69.6355165,53.6778113],[69.635262,53.6778445],[69.635029,53.6779314],[69.6348479,53.6780668],[69.6347659,53.6781996],[69.6347098,53.6783376],[69.6346408,53.6784424],[69.6344726,53.6785318],[69.6343173,53.6786749],[69.6341361,53.6790326],[69.6340843,53.6794056],[69.6340885,53.6798433],[69.6313296,53.6798467],[69.5978489,53.6796056],[69.545588,53.6792627],[69.5456649,53.6492124],[69.4839269,53.6494089],[69.4788855,53.6354749],[69.4568483,53.6351601],[69.4393063,53.6349157],[69.4276431,53.6027454],[69.4186861,53.6028554],[69.3795162,53.5984346],[69.3798592,53.5726153],[69.4101405,53.5722055],[69.4108408,53.5512289],[69.4278597,53.5508306],[69.4183843,53.527617],[69.3742411,53.5194954],[69.3680708,53.5164059],[69.3443854,53.5114336],[69.3054152,53.5072565],[69.3057771,53.5574777],[69.270844,53.5556968],[69.2710467,53.5692362],[69.2407581,53.5693702],[69.2408516,53.5856981],[69.240911,53.5962423],[69.2057065,53.5962977],[69.135354,53.5964085],[69.1355166,53.6313876],[69.1357299,53.6772315],[69.0546002,53.67668],[69.0281129,53.6764999],[69.0278802,53.6148444],[68.8915603,53.6147427],[68.8968764,53.6262838],[68.8993908,53.6440395],[68.8182276,53.6478815],[68.8183759,53.6344579],[68.7294094,53.6417482],[68.7328377,53.6327064],[68.7361638,53.6092655],[68.7554074,53.5959047],[68.7480785,53.5785503],[68.7567109,53.5711074],[68.7695032,53.5662971],[68.7629579,53.5539188],[68.7515923,53.5533431],[68.7483601,53.5506422],[68.6526449,53.5524752],[68.6524851,53.5294707],[68.6567788,53.5289995],[68.6500256,53.5043178],[68.6206382,53.5123108],[68.6042136,53.5088035],[68.5945513,53.4890828],[68.5846635,53.4815189],[68.5638978,53.4849682],[68.5599455,53.4639527],[68.5314861,53.4622556],[68.5037933,53.4744406],[68.4811516,53.460528],[68.5070354,53.4081576],[68.5007344,53.3933476],[68.5190341,53.379606],[68.5293224,53.3266596],[68.5495087,53.3273593],[68.5475318,53.3178873],[68.5507205,53.3140318],[68.5566447,53.306868],[68.5733327,53.298915],[68.5794369,53.2996966],[68.5792319,53.2722604],[68.5811563,53.2718867],[68.5859055,53.2709852],[68.5888728,53.2704186],[68.5904968,53.2701043],[68.5921534,53.2698187],[68.5937246,53.269524],[68.5946095,53.2693932],[68.5951249,53.2693406],[68.5958489,53.2692925],[68.5965578,53.2693015],[68.5972994,53.2693526],[68.5986066,53.2695045],[68.6000478,53.2697111],[68.6025133,53.2700622],[68.6042529,53.2703028],[68.6075537,53.2707869],[68.6090017,53.2710034],[68.6108645,53.271262],[68.6178255,53.2722752],[68.6193917,53.2725037],[68.622876,53.2730044],[68.6280974,53.273768],[68.6318858,53.2743258],[68.6373561,53.2750954],[68.6381254,53.2752067],[68.638877,53.2752939],[68.6396173,53.2753599],[68.640315,53.2753991],[68.6411345,53.2754096],[68.642027,53.2753976],[68.6427611,53.2753766],[68.6441009,53.2753134],[68.6461598,53.2752067],[68.6477762,53.2751093],[68.6595793,53.2744761],[68.6611567,53.2743275],[68.6620001,53.2742526],[68.6639631,53.2739407],[68.6659751,53.2735316],[68.6760531,53.2710556],[68.6786701,53.2705826],[68.6849669,53.2696212],[68.6876731,53.2692746],[68.6907781,53.2687896],[68.6916922,53.2686631],[68.7025961,53.2670276],[68.7059824,53.2665426],[68.6971136,53.2149361],[68.6962108,53.2096748],[68.7278408,53.2068806],[68.726047,53.19659],[68.7520788,53.1955306],[68.7426717,53.1254987],[68.7023125,53.1148789],[68.716674,53.1075777],[68.7267921,53.1001057],[68.7368975,53.0941478],[68.7400724,53.0948725],[68.7842036,53.0912127],[68.7734151,53.0772379],[68.7432182,53.0336377],[68.7011988,53.0077032],[68.6714467,52.9962529],[68.664687,52.993651],[68.628484,52.9829517],[68.621012,52.9704742],[68.6396392,52.9383955],[68.6659776,52.8700628],[68.6551699,52.8698063],[68.6403146,52.8632213],[68.646882,52.8570321],[68.6504539,52.8536656],[68.68784,52.8277083],[68.6836126,52.8123521],[68.6816379,52.8124265],[68.676891,52.7950331],[68.6577238,52.7916098],[68.6317266,52.8009592],[68.5949591,52.7839013],[68.5737396,52.7821409],[68.5629941,52.7822551],[68.5613123,52.7735115],[68.5555662,52.7668988],[68.5390691,52.7376345],[68.5035716,52.7384133],[68.4952884,52.7558533],[68.4839792,52.7507461],[68.4559381,52.7359375],[68.4201389,52.7207919],[68.4027919,52.7163464],[68.4058107,52.7121348],[68.4118532,52.7082963],[68.4159655,52.7077398],[68.4148811,52.7039022],[68.3932636,52.6561268],[68.3610481,52.6570522],[68.341073,52.6153459],[68.3381217,52.60566],[68.2286988,52.6067797],[68.2281076,52.6066539],[68.161339,52.5938372],[68.1604864,52.5903999],[68.1569592,52.5761773],[68.1529644,52.5673916],[68.1497127,52.5602389],[68.1400099,52.5451574],[67.9903888,52.5442626],[67.9901141,52.5352094],[67.9916911,52.5265254],[67.9936808,52.5067819],[67.9960497,52.483263],[68.0391261,52.4835365],[68.0510383,52.4608596],[67.9952883,52.4018275],[68.0003263,52.379517],[67.9688714,52.3626764],[67.9845646,52.3547449],[67.9790103,52.3515877],[67.9695489,52.3512535],[67.913896,52.3766382],[67.8807069,52.3369998],[67.9033213,52.3267913],[67.8601066,52.2737752],[67.8059069,52.3051643],[67.7333641,52.3469256],[67.695052,52.3594818],[67.595704,52.372732],[67.5716006,52.3951799],[67.5379326,52.4265162],[67.4737059,52.426996],[67.428704,52.4273322],[67.4224754,52.4287273],[67.2990549,52.4280838],[67.2965471,52.4234495],[67.2968662,52.3153688],[67.2971813,52.2069604],[67.1743063,52.2389509],[67.1381868,52.2473015],[67.0999718,52.2569769],[67.0572385,52.2436496],[67.0247051,52.2443469],[67.0039345,52.2468753],[66.9854409,52.2507027],[66.9555424,52.2476706],[66.9313615,52.2446412],[66.9123776,52.2433177],[66.8286165,52.2605124],[66.7809759,52.2812105],[66.6236452,52.2734812],[66.6178098,52.274076],[66.5420403,52.2817983],[66.542182,52.2900887],[66.544166,52.2933482],[66.549197,52.2962534],[66.5555033,52.3012134],[66.5613137,52.3017094],[66.5628017,52.301922],[66.564148,52.3044729],[66.565439,52.304737],[66.541207,52.3686221],[66.4906429,52.3753295],[66.4423907,52.3657955],[66.3884693,52.3619444],[66.3548703,52.3599826],[66.3153029,52.3504226],[66.2399858,52.3322192],[66.078198,52.4516755],[66.0599159,52.4479572],[66.0422398,52.4434113],[66.0067935,52.434347],[65.9986461,52.204637],[65.9853175,52.1962066],[65.8689505,52.1408681],[65.8545958,52.0930609],[65.8657985,52.0887007],[65.868143,52.0826828],[65.8646936,52.0806959],[65.8607325,52.080725],[65.8496995,52.0808059],[65.8275127,52.0163242],[65.8165677,51.9938394],[65.7685074,51.9205119],[65.7604761,51.8724366],[65.528489,51.8019252],[65.5177608,51.7956846],[65.5058385,51.7983316],[65.3524166,51.7934892],[65.383141,51.6848995],[65.5209107,51.6843267],[65.5773276,51.6281613],[65.569161,51.5833816],[65.5371652,51.5140488],[65.4615127,51.4400778],[65.5466955,51.4034859],[65.3880099,51.3267622],[65.3951076,51.3163981],[65.3980736,51.3133619],[65.396031,51.312566],[65.4031777,51.3019391],[65.4815881,51.2431504],[65.4260575,51.2033732],[65.4504081,51.1857311],[65.5606566,51.1362401],[65.6329578,51.0823656],[65.6261133,51.068488],[65.6100418,51.054563],[65.6120606,51.0326268],[65.6158131,51.0297154],[65.6142102,51.0061124],[65.5793561,50.8963738],[65.5852932,50.8956249],[65.5851216,50.888629],[65.6046291,50.8308984],[65.621189,50.8267791],[65.6226523,50.8272413],[65.6254664,50.827419],[65.6269484,50.8272176],[65.627956,50.8273494],[65.6318982,50.8330407],[65.6342329,50.8348001],[65.6427759,50.8388884],[65.6558248,50.8415784],[65.6606087,50.8444096],[65.6626911,50.8468735],[65.6667245,50.8474302],[65.6681691,50.846376],[65.6708893,50.8471933],[65.6723151,50.8470985],[65.6758155,50.8475437],[65.6830194,50.8466198],[65.6880846,50.8453879],[65.6931124,50.8460986],[65.7000536,50.8451036],[65.7071075,50.8465724],[65.7083457,50.8473779],[65.7083395,50.8486805],[65.7206414,50.8536557],[65.7287513,50.8538632],[65.7338539,50.8519138],[65.7377274,50.8511768],[65.7410172,50.8514783],[65.7436172,50.8507413],[65.7471724,50.8480947],[65.7523194,50.8478602],[65.7635154,50.8521148],[65.774287,50.8520143],[65.7892924,50.8544459],[65.7912059,50.8567198],[65.7933821,50.8585672],[65.7937573,50.8594198],[65.7960836,50.8605566],[65.7967965,50.8618592],[65.7982973,50.8672111],[65.8083528,50.8748117],[65.8097035,50.8771793],[65.8131554,50.8799965],[65.8155567,50.8810618],[65.8164947,50.881914],[65.8194963,50.8823401],[65.8228357,50.8846836],[65.8246052,50.8852486],[65.861935,50.9643799],[65.9417166,50.9425541],[65.9498888,50.9594144],[65.9760677,50.9522209],[65.9775705,50.9546889],[65.9944421,50.9493473],[65.9895275,50.9465945],[66.0030239,50.9387144],[66.0276071,50.9206261],[66.0528117,50.9023196],[66.070659,50.8876036],[66.0611492,50.883688],[66.0879974,50.871741],[66.0842829,50.829399],[66.093515,50.8257543],[66.0952195,50.8266324],[66.1018778,50.8232699],[66.0918475,50.8148498],[66.1168113,50.8048117],[66.1095527,50.7981981],[66.1327518,50.7881355],[66.1564966,50.8098567],[66.1784268,50.800148],[66.2017961,50.8251332],[66.2185357,50.8225138],[66.2406361,50.8273718],[66.3155971,50.6854319],[66.4331356,50.7106526],[66.4955142,50.6730972],[66.6400253,50.6270415],[66.6663241,50.6358583],[66.7244936,50.6115003],[66.7687833,50.6233226],[66.7710356,50.6239237],[66.8501604,50.6450369],[66.8825645,50.6497894],[66.9908958,50.6581929],[67.1107977,50.6221534],[67.0956319,50.5461034],[67.0659493,50.5308424],[67.1083663,50.4363855],[67.1318894,50.3839213],[67.3158377,50.4287685],[67.4997148,50.4735599],[67.5562733,50.4858908],[67.5639838,50.4923269],[67.592067,50.4899319],[67.6051122,50.4841805],[67.6509644,50.4811788],[67.684994,50.4868395],[67.725055,50.4838266],[67.7488752,50.4884082],[67.7823891,50.4851609],[67.8385129,50.4991361],[67.8647486,50.5168315],[67.8999841,50.5275451],[67.9200955,50.5378206],[67.9233029,50.54592],[67.938665,50.5530087],[67.936165,50.5562387],[67.934395,50.5630887],[67.934305,50.5671087],[67.933065,50.5699187],[67.934685,50.5723387],[67.937845,50.5743387],[67.937585,50.5768587],[67.933535,50.5800687],[67.935305,50.5828487],[67.937365,50.5839287],[67.937845,50.5850487],[67.938015,50.5916287],[67.942835,50.5958287],[67.942575,50.5987287],[67.941155,50.6008887],[67.936425,50.6035787],[67.935265,50.6091986],[67.934305,50.6106586],[67.931865,50.6118886],[67.927605,50.6152586],[67.917085,50.6183786],[67.916185,50.6200386],[67.916665,50.6212086],[67.920595,50.6247086],[67.921025,50.6278586],[67.919755,50.6291186],[67.916475,50.6309386],[67.915025,50.6329086],[67.916285,50.6370186],[67.915245,50.6386186],[67.912995,50.6400786],[67.907105,50.6408386],[67.901545,50.6449686],[67.901325,50.6477986],[67.905665,50.6508786],[67.905375,50.6527386],[67.901445,50.6546686],[67.8907575,50.6563837],[67.9167568,50.6569539],[67.9469577,50.6531909],[67.9878283,50.6604907],[68.029105,50.655397],[68.0461201,50.6610701],[68.0816737,50.6303555],[68.1159897,50.6190287],[68.1451181,50.6188947],[68.1759056,50.6343969],[68.2105778,50.641838],[68.2181753,50.6500563],[68.2559117,50.6570653],[68.3277993,50.7115973],[68.3305373,50.7232927],[68.362386,50.7312868],[68.3727979,50.7390711],[68.4049492,50.7464404],[68.4312734,50.7557045],[68.4611461,50.7583051],[68.4778619,50.762904],[68.4815399,50.7670035],[68.4775456,50.7775235],[68.5123897,50.8040763],[68.8012771,50.7995321],[68.7923867,50.5601487],[68.7733508,50.5480601],[68.7495036,50.512442],[68.7605597,50.4709674],[68.7368455,50.4200316],[68.7297835,50.3019416],[68.6906093,50.276648],[68.6739334,50.2440104],[68.7162431,50.2441066],[68.7517067,50.2392472],[68.7502975,50.214048],[68.7888919,50.2213405],[68.8242524,50.2023261],[68.8519533,50.2053289],[68.9651311,50.1762689],[69.0505395,50.1905903],[69.0813016,50.1792097],[69.0813285,50.1950192],[69.1090389,50.1969726],[69.1528482,50.1781493],[69.1645753,50.2324783],[69.184538,50.2599667],[69.2141918,50.2372465],[69.2593811,50.2348251],[69.3040701,50.2460299],[69.2936369,50.3033654],[69.2450242,50.3000199],[69.2661749,50.3582696],[69.3722025,50.3876203],[69.4211783,50.3336034],[69.4470568,50.3769818],[69.4855265,50.3615124],[69.5187846,50.2951676],[69.5845361,50.2889898],[69.6007445,50.2823662],[69.6012612,50.1975769],[69.6048415,50.1984571],[69.6074164,50.1988966],[69.6099913,50.1988966],[69.6122229,50.1984571],[69.6158278,50.1962593],[69.618746,50.1950505],[69.6214926,50.1939516],[69.6237242,50.1941714],[69.6259558,50.1948307],[69.6280157,50.1974681],[69.6311057,50.198567],[69.6345389,50.198567],[69.6362555,50.1977978],[69.6384871,50.1969187],[69.6443236,50.1950505],[69.6460402,50.1948307],[69.6477568,50.193512],[69.6501601,50.1928526],[69.6518767,50.1928526],[69.6566832,50.1952703],[69.6597731,50.1959297],[69.6626913,50.1957099],[69.6659529,50.1941714],[69.6685278,50.193512],[69.6712744,50.1934021],[69.6728194,50.1942813],[69.6743643,50.1957099],[69.6774542,50.1959297],[69.6793425,50.1947208],[69.6790521,50.1923502],[69.6816097,50.1903866],[69.6850869,50.189861],[69.6903875,50.1910565],[69.6947607,50.1903087],[69.6983555,50.1901428],[69.6999555,50.1919374],[69.7017804,50.1937306],[69.7013625,50.1958982],[69.7033607,50.1964678],[69.703813,50.1961461],[69.7044866,50.1946493],[69.7052157,50.1942239],[69.7063305,50.1943575],[69.7065646,50.1954022],[69.7087823,50.197532],[69.7095999,50.1977184],[69.711068,50.196204],[69.7117626,50.1961359],[69.7143012,50.1971154],[69.7145754,50.1998591],[69.7220182,50.2013287],[69.7294351,50.2010658],[69.7340036,50.1983668],[69.7348708,50.1962684],[69.7364313,50.1953924],[69.739245,50.1955911],[69.7960969,50.2087112],[69.9485774,50.2319235],[69.9614912,50.2326078],[69.9660963,50.2343932],[69.9764739,50.2354135],[69.9773279,50.236904],[69.9843848,50.2369016],[69.9915945,50.2383289],[69.9970877,50.2403052],[70.0027525,50.2420618],[70.0056708,50.243489],[70.010134,50.2465628],[70.0121939,50.2472214],[70.0154555,50.2472214],[70.0188887,50.2467823],[70.0230086,50.244477],[70.0257552,50.2443672],[70.0290167,50.244477],[70.0302184,50.2453552],[70.0441229,50.2496364],[70.0525343,50.2533683],[70.0576842,50.2569902],[70.0616324,50.2576487],[70.0645506,50.2572097],[70.0688422,50.2565512],[70.0700438,50.2561122],[70.0717604,50.2541366],[70.072962,50.2527098],[70.0758803,50.2472214],[70.0762236,50.2453552],[70.0779402,50.2437085],[70.0842917,50.2422813],[70.08618,50.2411835],[70.0906432,50.2360232],[70.0944197,50.2321801],[70.095793,50.2285563],[70.096308,50.2261402],[70.0969946,50.2224062],[70.0980246,50.2185619],[70.0978529,50.2161454],[70.095793,50.2150469],[70.0913298,50.2129598],[70.0849783,50.2092247],[70.0834334,50.2075767],[70.0822318,50.2041708],[70.0837767,50.2021931],[70.0868666,50.2014239],[70.0927031,50.2007646],[70.0980246,50.2012042],[70.1050627,50.2018634],[70.1114142,50.200435],[70.116564,50.200435],[70.1172507,50.2021931],[70.1224005,50.2037313],[70.1241171,50.2055991],[70.1304686,50.2061485],[70.1339018,50.2082359],[70.1330435,50.2112021],[70.1340735,50.2126302],[70.1375067,50.214278],[70.1411116,50.2164749],[70.1438582,50.2166946],[70.1481497,50.2146076],[70.1553595,50.2118613],[70.1589644,50.2099937],[70.1610243,50.2062583],[70.1630843,50.2029622],[70.1646292,50.2018634],[70.1658308,50.2014239],[70.1697791,50.201314],[70.171839,50.2007646],[70.1732123,50.1986769],[70.171324,50.1961494],[70.1701224,50.1926328],[70.1675475,50.1906546],[70.1663458,50.1887862],[70.1646292,50.1854888],[70.1558745,50.1842797],[70.1514113,50.1828508],[70.1493513,50.1794431],[70.1493513,50.1769146],[70.1478064,50.1751556],[70.1476347,50.1739463],[70.1454031,50.1730668],[70.1447165,50.170428],[70.1464331,50.1693285],[70.1496947,50.1648202],[70.1508963,50.1605315],[70.1496947,50.158002],[70.1491797,50.1548126],[70.1412833,50.1519528],[70.1366484,50.1500829],[70.1328719,50.1455728],[70.1332152,50.1440327],[70.1359618,50.1424925],[70.1366484,50.139082],[70.1347601,50.1364413],[70.1347601,50.1328103],[70.1327002,50.1295091],[70.1323569,50.1282986],[70.1323569,50.1259875],[70.1308119,50.1237864],[70.1261771,50.1200443],[70.1215422,50.1181732],[70.1191389,50.114981],[70.1148474,50.1115685],[70.1143324,50.1091465],[70.117594,50.1056235],[70.1179373,50.1036417],[70.1169073,50.1011092],[70.1177657,50.0996778],[70.1193106,50.0992373],[70.1241171,50.09263],[70.128752,50.0907578],[70.1347601,50.0870131],[70.138365,50.0823869],[70.13888,50.0807346],[70.1371634,50.0788619],[70.1340735,50.0777603],[70.1306403,50.0765485],[70.1218855,50.0761078],[70.1196539,50.0756671],[70.117594,50.0729129],[70.1129591,50.0697177],[70.1108992,50.0669631],[70.1139891,50.0600207],[70.1141608,50.0579268],[70.1151907,50.0553919],[70.1182806,50.0535183],[70.1194823,50.0488888],[70.1227438,50.0453614],[70.1284087,50.0440385],[70.1332152,50.0412824],[70.1364767,50.0406209],[70.1400816,50.0415029],[70.1457465,50.0391877],[70.1481497,50.0391877],[70.1517546,50.0418336],[70.1543295,50.0419439],[70.1569044,50.0429361],[70.159136,50.0431566],[70.1610243,50.044259],[70.1635992,50.0439282],[70.1665175,50.0427156],[70.1684058,50.0407312],[70.171324,50.0412824],[70.172869,50.0419439],[70.1744139,50.0407312],[70.1780188,50.0409517],[70.1811087,50.0426053],[70.1838553,50.0443692],[70.19364,50.0449204],[70.1969016,50.046133],[70.2003348,50.0505422],[70.203768,50.0523058],[70.2073729,50.0530774],[70.2121794,50.0531876],[70.2168143,50.0498809],[70.2195609,50.0473456],[70.2252257,50.0473456],[70.2302039,50.0482275],[70.2324355,50.0501013],[70.2380919,50.0548087],[70.2474163,50.0561088],[70.2529232,50.0550313],[70.262047,50.0562051],[70.2634939,50.0586075],[70.2690779,50.0604556],[70.271627,50.0596641],[70.2794161,50.0626329],[70.2859078,50.0614157],[70.2885998,50.0585859],[70.2989212,50.0601254],[70.3065765,50.0653847],[70.308272,50.0695655],[70.3202407,50.0733753],[70.3257339,50.0717855],[70.337538,50.0696137],[70.3457387,50.0729552],[70.3490731,50.0790254],[70.3502082,50.0842302],[70.3549753,50.0849383],[70.3608532,50.0829605],[70.3781427,50.0858109],[70.3880375,50.0928201],[70.3949592,50.0927371],[70.3964379,50.0906513],[70.4034244,50.0928568],[70.4384306,50.0967804],[70.5002411,50.1231057],[70.5278334,50.1331911],[70.5483173,50.148981],[70.4997476,50.2078129],[70.4752932,50.2347361],[70.486484,50.2392563],[70.6267657,50.2878612],[70.6487697,50.2927736],[70.6720821,50.2850418],[70.6915257,50.2696523],[70.7299998,50.2311597],[70.7505691,50.2502498],[70.7519234,50.2871607],[70.7699925,50.3922084],[70.7703215,50.4166994],[70.7694883,50.4413324],[70.7828269,50.4387662],[70.7956454,50.4404963],[70.8236956,50.4509401],[70.8425721,50.4605903],[70.8537108,50.4770094],[70.9205757,50.4685911],[70.9486777,50.4716312],[70.9517388,50.477213],[71.0639043,50.507482],[71.056318,50.5534256],[71.0583831,50.5567902],[71.1273994,50.6092238],[71.2116139,50.606326],[71.2287914,50.6517018],[71.3314348,50.6515523],[71.3280913,50.6752151],[71.3401852,50.7014383],[71.33542,50.7217601],[71.4073613,50.7500566],[71.4057479,50.7474204],[71.4140018,50.7456146],[71.4391512,50.7516807],[71.4393594,50.7517007],[71.439637,50.7517423],[71.4503473,50.7546587],[71.4580746,50.7518388],[71.4767539,50.7597338],[71.4795174,50.764458],[71.4932027,50.7692167],[71.500816,50.7778783],[71.5116215,50.7829162],[71.5267953,50.7936191],[71.5411051,50.7918373],[71.5553713,50.7733244],[71.651546,50.7888871],[71.6533691,50.7852299],[71.6585118,50.7548997],[71.6761133,50.7501456],[71.7135885,50.746705],[71.7356709,50.7543395],[71.7625228,50.7247181],[71.7951201,50.6938166],[71.8177488,50.7027094],[71.8366139,50.6827012],[71.821039,50.6633391],[71.7926256,50.6525022],[71.7590938,50.6264583],[71.7691521,50.6172717],[71.7877484,50.6157247],[71.8014718,50.610002],[71.8065865,50.5988471],[71.8164391,50.5892633],[71.7869564,50.5557373],[71.7798255,50.5055995],[71.773024,50.4900047],[71.7535671,50.4668037],[71.7399223,50.4527739],[71.7209579,50.4452381],[71.7102257,50.429051],[71.7996797,50.4240918],[71.8086367,50.4650509],[71.8756226,50.4657304],[71.8942306,50.4663542],[71.9084542,50.4660253],[71.9223804,50.4655423],[71.9365515,50.4662911],[72.0117307,50.4669354],[72.0170211,50.4624839],[72.0240024,50.4592778],[72.0389295,50.4557764],[72.058982,50.4450304],[72.0818048,50.4269892],[72.1020996,50.4130474],[72.1050656,50.4117837],[72.1228379,50.4095167],[72.1170697,50.4452614],[72.1848307,50.4510949],[72.2027942,50.4552015],[72.1944337,50.4563763],[72.1699543,50.5392602],[72.2361634,50.5618779],[72.2667959,50.5936902],[72.3790018,50.5560615],[72.4458289,50.5649266],[72.4787032,50.608009],[72.4781425,50.6084451],[72.4772522,50.6096733],[72.476011,50.6122205],[72.476194,50.612258],[72.475373,50.6139491],[72.4751746,50.6139219],[72.4741995,50.615267],[72.4751643,50.6156483],[72.4733743,50.6167491],[72.4727604,50.6163322],[72.463098,50.6220567],[72.4619427,50.6226817],[72.4621823,50.6228936],[72.461353,50.6234535],[72.4287806,50.6385403],[72.4266288,50.6396902],[72.4246076,50.6410237],[72.404493,50.6556825],[72.4032611,50.6565801],[72.4046597,50.6587353],[72.4031678,50.6637952],[72.4013552,50.6666313],[72.4006966,50.6679948],[72.4005591,50.6682796],[72.4000323,50.6693702],[72.3992326,50.677786],[72.4105655,50.6882051],[72.4384358,50.7068152],[72.4481075,50.7143906],[72.4545908,50.7203522],[72.4643739,50.7269697],[72.4753682,50.7369416],[72.4817128,50.7402352],[72.494914,50.7442414],[72.5054672,50.7342821],[72.50503,50.7232614],[72.5091275,50.7221105],[72.511546,50.7212043],[72.5122336,50.720449],[72.5129752,50.7188411],[72.5131052,50.7157224],[72.5136378,50.713364],[72.5145621,50.7121531],[72.515538,50.7117558],[72.5174495,50.7115981],[72.519193,50.7116101],[72.5244526,50.7344624],[72.6624356,50.7496269],[72.6764832,50.7696125],[72.6865637,50.785739],[72.7016147,50.8050605],[72.7169127,50.8185863],[72.7217571,50.8356268],[72.7524392,50.845672],[72.7696611,50.8595063],[72.7741074,50.8702243],[72.7765332,50.8729979],[72.7919682,50.8870404],[72.7923566,50.8873936],[72.8022519,50.8860361],[72.9796138,50.861698],[72.9829796,50.8633781],[73.0051396,50.8831355],[73.0504128,50.8926768],[73.1692005,50.9216281],[73.1703724,50.993881],[73.1756611,50.9929202],[73.1815457,50.9951161],[73.1864534,50.9946916],[73.1899655,50.9973559],[73.1934776,50.997429],[73.1962222,50.9981902],[73.2015718,50.9971363],[73.2062934,50.9986147],[73.2101312,50.9988343],[73.219993,51.0012056],[73.2218305,51.0001956],[73.223761,51.0007518],[73.2245751,51.0014837],[73.2270173,51.0014398],[73.2279477,51.0007665],[73.2328238,51.0019184],[73.2353208,51.0025082],[73.2380654,51.0014105],[73.2456944,51.0033864],[73.257417,51.0052745],[73.2686279,51.0085967],[73.2723261,51.0085528],[73.2802342,51.0101187],[73.283537,51.0111723],[73.285421,51.0110406],[73.2860955,51.0101187],[73.2892355,51.0110553],[73.2910962,51.010865],[73.2940036,51.0119333],[73.2956085,51.013821],[73.2967947,51.0142161],[73.2984461,51.0128259],[73.301935,51.0128406],[73.3043074,51.0137478],[73.3048889,51.015255],[73.3066333,51.0158257],[73.3084941,51.0152989],[73.3113549,51.0159428],[73.3135878,51.0170402],[73.314588,51.0165719],[73.3138204,51.0142893],[73.3138902,51.0128113],[73.3151927,51.0125186],[73.3186118,51.012665],[73.3208912,51.0120796],[73.3246127,51.0126211],[73.3268688,51.0135576],[73.3295669,51.0133381],[73.3348002,51.0144356],[73.3354747,51.0148599],[73.3390333,51.0153428],[73.3402195,51.0172158],[73.3412197,51.0173036],[73.3417779,51.0171572],[73.3429641,51.0173621],[73.3444527,51.0180205],[73.3459413,51.0176255],[73.3481974,51.0180351],[73.3492441,51.0194105],[73.3523143,51.0205517],[73.3530121,51.0202445],[73.3513607,51.0187814],[73.3513374,51.0181522],[73.3520817,51.0177718],[73.3529888,51.0179181],[73.3531749,51.018796],[73.3541052,51.0191471],[73.3550589,51.0185765],[73.3560125,51.0191471],[73.3564544,51.0202738],[73.3604317,51.0201421],[73.3604783,51.0210053],[73.3627111,51.0211077],[73.3631531,51.0196885],[73.3640136,51.0198056],[73.3640602,51.0210638],[73.3655022,51.0216198],[73.3669443,51.0209907],[73.3693865,51.021415],[73.3721543,51.0224245],[73.3740151,51.0233315],[73.3749454,51.0231267],[73.3744803,51.0222196],[73.3751315,51.0219856],[73.3774807,51.0227171],[73.3796205,51.0230097],[73.3795508,51.0245166],[73.3819232,51.0248677],[73.3830164,51.0239899],[73.3861331,51.0238875],[73.3873193,51.0249555],[73.3913897,51.0248823],[73.3942505,51.0253651],[73.3980883,51.0247799],[73.3993443,51.0268719],[73.4017865,51.0278374],[73.4050893,51.0277935],[73.4090899,51.0300755],[73.4141836,51.0311287],[73.4152768,51.0333521],[73.4175329,51.0343174],[73.4171608,51.0357069],[73.4202077,51.0368624],[73.4226732,51.0381495],[73.423371,51.0384712],[73.4230686,51.0390708],[73.4219754,51.0394218],[73.4217428,51.0402408],[73.4244176,51.041908],[73.4240687,51.0438384],[73.4249061,51.0442625],[73.4262551,51.0432534],[73.4272785,51.0437506],[73.4274413,51.0451106],[73.4267668,51.0465729],[73.4299766,51.0491465],[73.432349,51.0493804],[73.4333724,51.0504624],[73.4347214,51.0508426],[73.4376288,51.0500091],[73.4391872,51.0506233],[73.4392802,51.0512812],[73.4378733,51.0518996],[73.4376444,51.0525954],[73.4389802,51.0532911],[73.4408885,51.0554982],[73.4438654,51.0568896],[73.4459264,51.0562659],[73.4489033,51.055978],[73.4521092,51.0569856],[73.4534832,51.0570815],[73.4555823,51.0563139],[73.4566128,51.0564818],[73.4569563,51.0574893],[73.4563017,51.0585792],[73.4563827,51.059987],[73.457894,51.060869],[73.4602149,51.0610895],[73.4633454,51.061768],[73.4654235,51.0614287],[73.4681222,51.0621581],[73.4696875,51.0630061],[73.4730339,51.0639898],[73.4745452,51.0654314],[73.4769201,51.0660589],[73.4778376,51.0707734],[73.4787822,51.0721979],[73.4830192,51.0740801],[73.4843146,51.074097],[73.4851782,51.0754027],[73.4850163,51.0765387],[73.4840987,51.0773526],[73.4840178,51.077963],[73.4852052,51.0785055],[73.4882008,51.0800484],[73.4894962,51.0829306],[73.4911694,51.0839986],[73.494111,51.0843038],[73.4958382,51.0863381],[73.4994545,51.0872704],[73.4998863,51.0882536],[73.4988169,51.0891793],[73.4980782,51.0910505],[73.4987704,51.0928169],[73.5002911,51.093593],[73.5028549,51.0955252],[73.5047441,51.0964234],[73.5063093,51.0966438],[73.5075238,51.0977623],[73.5097767,51.0980589],[73.510168,51.0983809],[73.5108432,51.098525],[73.5125294,51.0981649],[73.515496,51.0970741],[73.5189119,51.096379],[73.5219842,51.0966666],[73.5251902,51.0968224],[73.5271366,51.0981287],[73.5274419,51.0985002],[73.5300848,51.0997235],[73.5312769,51.1011747],[73.5314118,51.103581],[73.5359461,51.1050982],[73.5364315,51.1063092],[73.5387254,51.1065973],[73.5412352,51.106377],[73.5422067,51.1074276],[73.5411812,51.1096642],[73.5419005,51.1113192],[73.5473896,51.1135387],[73.5521427,51.1136246],[73.5542529,51.1143574],[73.5544832,51.1164635],[73.5552726,51.1167733],[73.559483,51.1152866],[73.5622866,51.1155817],[73.5634064,51.1161823],[73.5650085,51.1159654],[73.5667514,51.1166136],[73.5702388,51.1163905],[73.5714827,51.117255],[73.5723268,51.1186493],[73.5744495,51.1199737],[73.5769693,51.1202528],[73.5780678,51.1209028],[73.5784507,51.122393],[73.5772553,51.1227642],[73.4378337,51.1791015],[73.3879987,51.1601401],[73.3613585,51.1629515],[73.3472683,51.1259079],[73.3469968,51.1250403],[73.3409548,51.1244509],[73.3337643,51.1210975],[73.3199964,51.1210371],[73.3124591,51.151365],[73.2898387,51.1685368],[73.2809197,51.1744051],[73.2654519,51.2059986],[73.2481998,51.2315632],[73.1967221,51.215899],[73.1692109,51.2614434],[73.1562178,51.2767277],[73.1744713,51.2842537],[73.1925832,51.2887566],[73.1963377,51.2895214],[73.2040682,51.288433],[73.2089799,51.2950549],[73.2233331,51.304766],[73.2659452,51.2746624],[73.2722741,51.274953],[73.2764817,51.2752093],[73.2799589,51.274985],[73.2811354,51.2748859],[73.283575,51.2743965],[73.287115,51.2750269],[73.2896871,51.2758812],[73.2918661,51.2766044],[73.2948049,51.2765364],[73.2976249,51.2759319],[73.2992995,51.2761881],[73.3013811,51.2750932],[73.3041388,51.2743053],[73.3074535,51.2743799],[73.3108874,51.2738159],[73.313022,51.2742472],[73.3140164,51.2750766],[73.3168537,51.2759724],[73.3183783,51.2751044],[73.3201686,51.2756234],[73.3211989,51.2750411],[73.3252553,51.2781268],[73.3371938,51.2789616],[73.3525769,51.28229],[73.3599762,51.2842969],[73.3613542,51.2968943],[73.3756246,51.3004897],[73.3936565,51.3034575],[73.4010678,51.2901349],[73.4172862,51.2668521],[73.429439,51.2555737],[73.440808,51.2964755],[73.4754966,51.3097862],[73.5010834,51.3061812],[73.5121445,51.3062838],[73.5349552,51.307512],[73.671068,51.2786215],[73.685636,51.2873922],[73.6885699,51.3008111],[73.6905229,51.310738],[73.698653,51.3198281],[73.7009467,51.3391579],[73.7186148,51.3464895],[73.7316903,51.3608709],[73.7832694,51.3746627],[73.7974686,51.381536],[73.8030736,51.3901343],[73.8143349,51.3940672],[73.8183952,51.4046105],[73.8087046,51.410895],[73.8041447,51.4242271],[73.8119522,51.4268489],[73.8111817,51.4388735],[73.815762,51.4402109],[73.9855936,51.5012843],[74.0470332,51.5091507],[74.078218,51.5086628],[74.1342699,51.5128939],[74.1628557,51.530146],[74.2600379,51.5234939],[74.2535073,51.5392967],[74.2506719,51.5618402],[74.1698095,51.5780608],[74.0993598,51.5946522],[74.0654328,51.5950576],[74.0369299,51.5989243],[74.0199413,51.6194312],[74.0078296,51.6420513],[74.007314,51.6430139],[73.9008373,51.6288266],[73.7919977,51.6251801],[73.7778595,51.6274308],[73.7777861,51.6299333],[73.7791068,51.6312771],[73.7835402,51.6329705],[73.785097,51.6337751],[73.7856334,51.6352933],[73.7855691,51.6371845],[73.7826669,51.6408166],[73.7826347,51.6410663],[73.7822163,51.6413227],[73.7848341,51.6429406],[73.7863523,51.6446217],[73.787393,51.6465257],[73.7873179,51.6469251],[73.7863737,51.6475576],[73.786127,51.6480502],[73.7865132,51.6493949],[73.7868673,51.6498742],[73.786878,51.6505599],[73.787114,51.6511257],[73.7868887,51.6516782],[73.7880582,51.6525169],[73.7903434,51.6530694],[73.7917381,51.6539747],[73.7933367,51.6555855],[73.7942165,51.6559649],[73.7951285,51.6560847],[73.7967056,51.6560181],[73.7972206,51.6556587],[73.7970167,51.6551528],[73.7971455,51.6548466],[73.7977785,51.654607],[73.7981218,51.6547135],[73.7986153,51.6545471],[73.799141,51.6547002],[73.7996024,51.6551928],[73.7998599,51.655672],[73.8007075,51.6563709],[73.8006431,51.6571429],[73.8012224,51.657722],[73.8013726,51.6582411],[73.8031965,51.6600781],[73.8029605,51.6608434],[73.802864,51.6619016],[73.8023061,51.6626203],[73.8027674,51.6643706],[73.804366,51.6649961],[73.8047737,51.6654287],[73.8048917,51.6661673],[73.804881,51.667232],[73.8045591,51.6681703],[73.803969,51.6683766],[73.8036257,51.6690752],[73.8040334,51.6696142],[73.8039154,51.6699203],[73.8020164,51.6705657],[73.8016301,51.6714507],[73.8019735,51.6718565],[73.801083,51.6726749],[73.8005358,51.6733602],[73.8002676,51.6736197],[73.7996238,51.6738792],[73.798787,51.6738726],[73.798036,51.673999],[73.7977678,51.6742385],[73.7978214,51.6746776],[73.7976175,51.6750967],[73.7970382,51.6753363],[73.796137,51.6753429],[73.795225,51.6756423],[73.7951499,51.6760881],[73.796137,51.6768132],[73.7970167,51.6780906],[73.7969094,51.6784033],[73.7966841,51.6786095],[73.7954718,51.6787359],[73.7950963,51.6791949],[73.7950212,51.67994],[73.7945598,51.6805919],[73.793723,51.6810376],[73.793326,51.6819224],[73.7932616,51.6830998],[73.7938625,51.6847229],[73.7930578,51.6858936],[73.7912446,51.686286],[73.7904614,51.6866518],[73.7899142,51.6874966],[73.7893134,51.6879023],[73.7886268,51.6881085],[73.7881547,51.6881018],[73.7877792,51.6879422],[73.7866956,51.6881151],[73.7863094,51.6883346],[73.7861377,51.688614],[73.7864381,51.6891128],[73.7870926,51.6894853],[73.7880045,51.6896316],[73.7892276,51.6900706],[73.7899357,51.6909751],[73.7896246,51.6917798],[73.7903005,51.6928838],[73.7905037,51.6935558],[73.7906223,51.6939479],[73.7902898,51.6948922],[73.7907082,51.6956437],[73.7911373,51.6960826],[73.7917381,51.6964218],[73.7921566,51.697539],[73.7931651,51.6978981],[73.7935299,51.6985431],[73.793208,51.6991283],[73.7920064,51.6998198],[73.7909657,51.7003584],[73.790558,51.7002853],[73.7897211,51.7005845],[73.7893563,51.7016766],[73.7896567,51.7020157],[73.7895924,51.7024679],[73.7891954,51.7028934],[73.787629,51.7034254],[73.7865025,51.7036448],[73.7864166,51.7038243],[73.7868029,51.7056594],[73.7876612,51.7068362],[73.7877363,51.7074811],[73.7903327,51.7099476],[73.7909227,51.7111442],[73.790558,51.7119419],[73.7888843,51.7127064],[73.7876934,51.7130388],[73.7874466,51.7135573],[73.7877255,51.7141622],[73.7885302,51.7146076],[73.789528,51.7148668],[73.791148,51.7150064],[73.7936693,51.7166749],[73.793326,51.7171003],[73.7935513,51.717539],[73.7940019,51.7178846],[73.7949782,51.7181173],[73.7954463,51.7185894],[73.7955576,51.7190678],[73.795343,51.719872],[73.7938088,51.7214738],[73.7934977,51.7231287],[73.7922853,51.725076],[73.7911802,51.7273488],[73.7912982,51.7287975],[73.7923497,51.7301066],[73.7944096,51.7307645],[73.7962979,51.7310037],[73.7982076,51.7314422],[73.7986797,51.7317014],[73.7985402,51.732512],[73.7982827,51.7331632],[73.7972313,51.7343127],[73.7969631,51.7354556],[73.7967914,51.7361931],[73.7976926,51.7376083],[73.7987333,51.7379338],[73.8002676,51.7378607],[73.8006323,51.73808],[73.8006109,51.738359],[73.7990016,51.7415745],[73.7995595,51.7441322],[73.8006109,51.7453744],[73.8003641,51.7457996],[73.799892,51.7460055],[73.799538,51.748244],[73.7987548,51.7496987],[73.7994092,51.7503696],[73.7996238,51.7511865],[73.7992054,51.751678],[73.7980574,51.7523489],[73.7987762,51.7533518],[73.8001925,51.7542085],[73.8048273,51.7556962],[73.8064259,51.7561013],[73.8074666,51.756699],[73.8077777,51.7574163],[73.8088077,51.7582398],[73.8096338,51.7598668],[73.8101381,51.7603714],[73.8103848,51.76158],[73.8095265,51.7628218],[73.8094622,51.7632401],[73.8098162,51.7638311],[73.8139146,51.7663277],[73.8142687,51.7671444],[73.8137108,51.7679611],[73.8130671,51.7683926],[73.8133675,51.7696939],[73.8140112,51.7700591],[73.8160497,51.7704641],[73.8166612,51.7710417],[73.8163179,51.7718317],[73.8152343,51.7724425],[73.8137859,51.7726749],[73.8133567,51.7733786],[73.8134855,51.77383],[73.8137644,51.7745204],[73.8132602,51.7754365],[73.8128954,51.7756158],[73.8127452,51.7758614],[73.8130456,51.7760672],[73.8151377,51.7770895],[73.8154918,51.7781582],[73.8159746,51.778812],[73.8154167,51.7797646],[73.8145262,51.7806407],[73.8152718,51.7813211],[73.8159209,51.78158],[73.8166344,51.7823466],[73.8170635,51.7831099],[73.8170689,51.7836575],[73.816747,51.7843875],[73.816393,51.7855623],[73.8167363,51.7866607],[73.8167846,51.7873376],[73.8166719,51.7876363],[73.8160389,51.7880312],[73.816157,51.7884592],[73.8158995,51.7886981],[73.8161677,51.7892158],[73.8166129,51.789896],[73.8186031,51.79047],[73.8197243,51.7904866],[73.8202232,51.7903771],[73.8209957,51.7904136],[73.8215804,51.7905165],[73.8219452,51.7906525],[73.8219023,51.790835],[73.8216877,51.7910109],[73.8216179,51.7912465],[73.8219505,51.791847],[73.8219774,51.7921357],[73.8214892,51.7927993],[73.8214463,51.7930116],[73.8215536,51.7932572],[73.8218862,51.7935972],[73.8217091,51.7940418],[73.8215267,51.7947353],[73.82128,51.7949642],[73.8214355,51.7954419],[73.8213122,51.7959496],[73.8210386,51.7961287],[73.8208026,51.796434],[73.8202661,51.7965667],[73.8193971,51.7963941],[73.8179701,51.7964339],[73.8170475,51.7966264],[73.8163769,51.7965832],[73.8153094,51.7964339],[73.8145691,51.7964207],[73.8140809,51.7962979],[73.8135016,51.7963244],[73.8128096,51.796205],[73.8115972,51.7954519],[73.8109106,51.7953457],[73.8098269,51.7955348],[73.8092583,51.7959894],[73.8092422,51.7965633],[73.8093173,51.7976747],[73.8098699,51.7980496],[73.8101864,51.7985041],[73.8101891,51.799151],[73.8099503,51.7996818],[73.8092208,51.8006837],[73.8093281,51.8017916],[73.8090706,51.8031782],[73.8099074,51.8042994],[73.8114953,51.8054206],[73.8131368,51.8063825],[73.813684,51.8070658],[73.8147354,51.807696],[73.8168812,51.8082731],[73.8175463,51.8086844],[73.8188338,51.8091554],[73.8191449,51.8097458],[73.8194132,51.8099448],[73.819499,51.8101902],[73.819381,51.8107474],[73.8198209,51.8111918],[73.8203788,51.811278],[73.8208401,51.8122929],[73.8216126,51.812724],[73.8219988,51.813195],[73.8223046,51.8134271],[73.823061,51.8135697],[73.8237047,51.8134603],[73.8253033,51.8138052],[73.8254428,51.8141932],[73.8262367,51.8147072],[73.8268309,51.8152275],[73.8365588,51.8062792],[73.8555814,51.8196683],[73.9050377,51.8495231],[73.9321664,51.8766654],[73.9690725,51.8929884],[74.0275241,51.8916392],[74.0302049,51.9321027],[74.0003838,51.9321172],[74.0003534,52.3187013],[74.0003692,52.4526792],[74.0003955,52.5435235],[73.9215374,52.5437356],[73.9218798,52.5928329]],[[71.2221711,51.0987116],[71.2259105,51.1010202],[71.2398006,51.1387838],[71.2361409,51.1495535],[71.238494,51.1496155],[71.2385637,51.1522256],[71.2425815,51.1523111],[71.2427604,51.1575583],[71.2544087,51.1581347],[71.2541959,51.1628188],[71.2529729,51.1758855],[71.2653832,51.1742581],[71.2819046,51.1793117],[71.2818051,51.1796114],[71.2813813,51.1796801],[71.2810288,51.1798315],[71.2809626,51.1798742],[71.2809225,51.1799792],[71.2809589,51.1801161],[71.2809407,51.180196],[71.2809086,51.1804048],[71.280846,51.1805225],[71.280795,51.1806366],[71.280704,51.1807074],[71.2803786,51.1809422],[71.2802088,51.1810817],[71.2800303,51.1811137],[71.2799393,51.1811205],[71.2797281,51.1811457],[71.2795533,51.1811137],[71.2794441,51.1809379],[71.2793275,51.1808032],[71.2791746,51.180664],[71.2790682,51.1805969],[71.2788978,51.1805316],[71.2786866,51.1804631],[71.2782708,51.1804054],[71.2780639,51.1804312],[71.2778855,51.1804996],[71.277769,51.1806823],[71.2777353,51.1807499],[71.2777543,51.1809491],[71.2777924,51.1811161],[71.2778571,51.1811912],[71.2778438,51.1812532],[71.277722,51.181351],[71.2775942,51.1814036],[71.2774689,51.1813713],[71.2773053,51.1813105],[71.2771131,51.1812449],[71.2770693,51.1811948],[71.2770598,51.1811149],[71.2770731,51.1808906],[71.2771207,51.1808107],[71.2771625,51.1806688],[71.2772824,51.1804326],[71.2772938,51.1803527],[71.2772196,51.1803145],[71.2770084,51.1803276],[71.2767078,51.1803646],[71.276645,51.1803395],[71.2765708,51.1802632],[71.2764566,51.180188],[71.276371,51.180163],[71.2761997,51.1802143],[71.2760037,51.1802966],[71.2758648,51.1803992],[71.2758572,51.1804672],[71.2758914,51.180522],[71.2759676,51.1805829],[71.2760361,51.1806974],[71.2761978,51.1809383],[71.276232,51.1810636],[71.2762111,51.1811697],[71.276135,51.1812771],[71.2760589,51.1813165],[71.2760989,51.1814071],[71.2761883,51.1814668],[71.2762948,51.1815335],[71.2762948,51.1815729],[71.2762149,51.1815932],[71.276057,51.1815884],[71.2757982,51.1815836],[71.2756222,51.1816255],[71.275605,51.1816657],[71.275648,51.1817846],[71.2757072,51.1819136],[71.2757395,51.1820158],[71.2756596,51.1821363],[71.2755378,51.1821721],[71.2753475,51.1821936],[71.2751648,51.1821948],[71.274927,51.1821578],[71.274809,51.1821005],[71.2746986,51.1820385],[71.2746511,51.1819848],[71.2746166,51.181958],[71.2746011,51.1819209],[71.2745762,51.1819074],[71.2745594,51.1818585],[71.2745217,51.1818243],[71.2744935,51.1817746],[71.2744229,51.1817252],[71.2743293,51.1816687],[71.2741975,51.1815865],[71.2738348,51.181496],[71.273557,51.1814471],[71.2733134,51.1814375],[71.2731041,51.1814554],[71.2729671,51.1815329],[71.2728739,51.1816749],[71.2726722,51.1818407],[71.2725371,51.1819457],[71.2724438,51.1820769],[71.2722897,51.1822272],[71.2721698,51.1824216],[71.2718768,51.1827031],[71.2717893,51.1828247],[71.2717759,51.1829428],[71.2717969,51.1830156],[71.2718863,51.1830752],[71.2720062,51.1831289],[71.2722212,51.1832446],[71.2724572,51.183408],[71.2725732,51.183532],[71.2725656,51.1836406],[71.2724914,51.183705],[71.2723183,51.1837909],[71.2721736,51.1839054],[71.2719719,51.1839722],[71.2717398,51.1839936],[71.2715229,51.1839889],[71.2714391,51.1839471],[71.2713269,51.1838374],[71.2712584,51.1837479],[71.2711461,51.1836096],[71.27103,51.1834879],[71.2708378,51.1834533],[71.2707085,51.1835642],[71.2706171,51.1836549],[71.2705695,51.1837277],[71.2705905,51.1838195],[71.2706647,51.1839113],[71.2707085,51.184058],[71.2708302,51.1842501],[71.2709444,51.1844027],[71.2709292,51.1845113],[71.2708474,51.1845828],[71.2707104,51.1846341],[71.2705087,51.1846532],[71.270307,51.184689],[71.2700615,51.1848297],[71.2699968,51.1849252],[71.2699625,51.1850253],[71.2699721,51.1851315],[71.2700139,51.1853748],[71.2700805,51.1854666],[71.270149,51.1855895],[71.2701433,51.1857505],[71.2700919,51.1860093],[71.270031,51.1861811],[71.2698655,51.1863111],[71.2698456,51.1863729],[71.2698845,51.1864816],[71.2700368,51.1865794],[71.2701776,51.1866665],[71.2705581,51.1868347],[71.2709863,51.1869885],[71.2714506,51.1870935],[71.2717189,51.1871937],[71.2719767,51.1874108],[71.2720126,51.1876382],[71.2718985,51.1877389],[71.2718204,51.1879789],[71.2718204,51.1880499],[71.2718829,51.1881209],[71.2720626,51.1881846],[71.2721173,51.188263],[71.2726565,51.1881944],[71.2728831,51.1881919],[71.2730746,51.1882532],[71.2731996,51.1883903],[71.2732269,51.1884956],[71.2731996,51.1886009],[71.2731449,51.1886474],[71.2730316,51.1887062],[71.2727972,51.1887797],[71.2726995,51.188809],[71.2726057,51.1889315],[71.2725705,51.1890441],[71.2725041,51.1891176],[71.2724084,51.189147],[71.2723615,51.1891421],[71.2722424,51.1891653],[71.2721056,51.1891861],[71.2719923,51.1892572],[71.2718243,51.1893576],[71.2716719,51.1893845],[71.2715938,51.1893853],[71.2714651,51.1893644],[71.2713479,51.18929],[71.2712773,51.1892106],[71.2711683,51.1892],[71.2710548,51.1892689],[71.2710181,51.1892822],[71.2709916,51.1892867],[71.2709546,51.1892828],[71.2709308,51.1892779],[71.2707846,51.1892491],[71.2707652,51.1892379],[71.2707417,51.1892032],[71.2707263,51.1891636],[71.2706766,51.189103],[71.2706573,51.1890268],[71.2705108,51.1889489],[71.2704362,51.1888901],[71.2703561,51.1888554],[71.2701558,51.1889299],[71.2693357,51.1895483],[71.2680569,51.1888247],[71.2672272,51.1887174],[71.2670207,51.1895767],[71.2665549,51.1896844],[71.2660631,51.1895295],[71.2653868,51.1890821],[71.2649231,51.1889677],[71.2643575,51.189176],[71.2648238,51.1896111],[71.2645475,51.1898467],[71.2623274,51.1896758],[71.2617444,51.1917272],[71.2608273,51.1921802],[71.2605489,51.1918402],[71.2601572,51.1915928],[71.2602361,51.191065],[71.2599531,51.1908977],[71.2601036,51.1902287],[71.2585294,51.1901522],[71.2571143,51.1903851],[71.2557292,51.1894887],[71.2551088,51.1897824],[71.2551998,51.1903069],[71.2543719,51.1913097],[71.2531749,51.1911848],[71.2528868,51.1903762],[71.2519026,51.1903211],[71.2513743,51.1907589],[71.2529779,51.1925126],[71.2519617,51.1926062],[71.2514133,51.1934391],[71.2500851,51.1933317],[71.2492164,51.1937445],[71.2487677,51.1950114],[71.2476022,51.1955243],[71.2456272,51.1965498],[71.2431643,51.1969271],[71.2421575,51.1976938],[71.2424363,51.1978427],[71.2433014,51.1982722],[71.2445303,51.1983083],[71.2448259,51.198465],[71.2443965,51.1989215],[71.2444652,51.1989977],[71.2446405,51.1991983],[71.2434339,51.2000285],[71.2417446,51.2008158],[71.2404463,51.2013629],[71.2400139,51.2019547],[71.2405078,51.2024961],[71.2406514,51.2027789],[71.2413949,51.2028422],[71.2416241,51.2032826],[71.240399,51.2050728],[71.2404602,51.205571],[71.2425483,51.2062927],[71.2425756,51.206572],[71.2427927,51.2067872],[71.2415618,51.2075436],[71.2398687,51.2075789],[71.2381655,51.2085434],[71.2373798,51.208443],[71.2372988,51.2086668],[71.2376577,51.2088705],[71.23782,51.2091848],[71.2374504,51.209616],[71.2381298,51.2097893],[71.2385923,51.2096825],[71.2387723,51.2100463],[71.2390652,51.210057],[71.2391857,51.2098629],[71.2399044,51.2102164],[71.2394436,51.2102252],[71.2394423,51.210466],[71.2400728,51.2104743],[71.2400554,51.2106501],[71.2396569,51.2107393],[71.2396143,51.2109319],[71.240126,51.2109017],[71.2404319,51.2110468],[71.2411022,51.2110707],[71.2411563,51.2112492],[71.2407048,51.211315],[71.2406667,51.2114667],[71.2411313,51.2116699],[71.2411793,51.2118567],[71.2406025,51.2120187],[71.240046,51.2123313],[71.2401326,51.2125092],[71.2407455,51.2126892],[71.2408338,51.2133037],[71.2404671,51.2135106],[71.2405443,51.2137621],[71.2414526,51.2141405],[71.2412589,51.2145645],[71.2412904,51.2149474],[71.2410404,51.2152827],[71.2461291,51.2210262],[71.2476926,51.2243114],[71.2445527,51.2252487],[71.2450153,51.2256338],[71.2451475,51.2257439],[71.2462115,51.2266297],[71.2556512,51.238734],[71.2734654,51.2412385],[71.3015604,51.2331888],[71.3028691,51.2352481],[71.3039729,51.2369849],[71.319128,51.2528271],[71.3348807,51.266619],[71.3359065,51.2669771],[71.3381568,51.2677646],[71.3408247,51.2686981],[71.3421256,51.2670725],[71.3459537,51.2684957],[71.3466905,51.2672969],[71.3663894,51.2711805],[71.3642122,51.2757097],[71.3587823,51.2890938],[71.355575,51.2976887],[71.356548,51.2978416],[71.3567617,51.2978752],[71.385094,51.3023282],[71.3898001,51.2912475],[71.4001119,51.2673427],[71.4137661,51.2706573],[71.4281353,51.2746546],[71.4503904,51.2716014],[71.4685046,51.2784522],[71.4758818,51.2864121],[71.4773475,51.2866283],[71.4908788,51.2886239],[71.4985027,51.2901089],[71.4983849,51.2855603],[71.4983353,51.2836432],[71.4724675,51.2637806],[71.4695278,51.2613861],[71.5033599,51.2540783],[71.5522356,51.2429404],[71.5550584,51.2469273],[71.5569976,51.2466818],[71.5586844,51.248522],[71.5625084,51.2485538],[71.5659858,51.252883],[71.5669396,51.2574811],[71.5766996,51.2629501],[71.5941188,51.2776463],[71.6021091,51.2685775],[71.6043252,51.2659327],[71.6044059,51.2658364],[71.60448,51.2657483],[71.609048,51.2603142],[71.6114777,51.2573689],[71.6164777,51.2513073],[71.6188071,51.2484831],[71.6039433,51.239106],[71.5962112,51.2342272],[71.577582,51.2224707],[71.5744613,51.2205009],[71.5742662,51.2203778],[71.5834255,51.2027178],[71.5834847,51.2026037],[71.5836751,51.202431],[71.5878966,51.1986017],[71.5936279,51.1969111],[71.6047278,51.1936368],[71.6218708,51.1885794],[71.6238821,51.1842012],[71.6241562,51.1836311],[71.6245923,51.1826868],[71.625535,51.1806453],[71.6257114,51.1802635],[71.6271111,51.1772322],[71.627601,51.1761713],[71.6307685,51.1693108],[71.6431221,51.1423345],[71.6453858,51.1399259],[71.6732372,51.1410352],[71.6732943,51.1401372],[71.6849016,51.1405718],[71.6889679,51.1404441],[71.6921184,51.1395729],[71.7110588,51.1320939],[71.7136581,51.1315338],[71.7149108,51.1313822],[71.7044703,51.1116035],[71.7410296,51.104199],[71.7423287,51.1014059],[71.7418897,51.1015202],[71.7402141,51.1011957],[71.7389685,51.1001618],[71.7389066,51.0993855],[71.7385248,51.0986268],[71.7391458,51.0980063],[71.7390397,51.0974434],[71.737331,51.0967155],[71.735658,51.0965034],[71.7342857,51.0970211],[71.7329443,51.0980606],[71.7315177,51.0987673],[71.731127,51.0988903],[71.7300097,51.0995123],[71.7289336,51.1008864],[71.7286974,51.1019878],[71.7285971,51.1024649],[71.7281094,51.1029005],[71.7268326,51.1032838],[71.7257865,51.1035001],[71.7251706,51.1033932],[71.7244343,51.1034205],[71.7232719,51.1030234],[71.722591,51.1014941],[71.721133,51.100592],[71.720761,51.1004425],[71.7205621,51.1003738],[71.7203612,51.1003044],[71.7200215,51.100187],[71.7179908,51.099558],[71.716579,51.0994119],[71.7140757,51.0992922],[71.712064,51.0987466],[71.7109628,51.0985989],[71.7095293,51.0977919],[71.7085128,51.097635],[71.7076878,51.0971188],[71.7067396,51.0967854],[71.7076413,51.0961039],[71.7082319,51.0963701],[71.709263,51.0963462],[71.7098974,51.0960187],[71.7101914,51.0954605],[71.7094299,51.0946022],[71.7087825,51.0940031],[71.7086443,51.0931921],[71.7070223,51.0925037],[71.704504,51.0921049],[71.7025154,51.0928129],[71.7008539,51.0921106],[71.700381,51.0907225],[71.6993647,51.0894292],[71.6963518,51.0893013],[71.6958849,51.0907111],[71.6946579,51.0911838],[71.695879,51.0924066],[71.6944278,51.0926211],[71.6939332,51.0935542],[71.6921204,51.0936765],[71.6920839,51.0930488],[71.6904231,51.0925729],[71.6894027,51.0929677],[71.6886596,51.0926706],[71.6891685,51.092059],[71.6889006,51.091351],[71.6866206,51.0911463],[71.6831288,51.0916024],[71.681892,51.0912292],[71.6806382,51.0903997],[71.6791093,51.0853245],[71.6743607,51.0862388],[71.6588524,51.0892759],[71.6349608,51.0946676],[71.6151336,51.0993803],[71.6078625,51.0905369],[71.6037835,51.0857795],[71.5882957,51.0746349],[71.5797424,51.0703195],[71.5644428,51.0572895],[71.556088,51.048691],[71.5477011,51.0509109],[71.5457574,51.0486979],[71.5341802,51.0471897],[71.5025869,51.045466],[71.4980141,51.0425791],[71.501568,51.0391496],[71.4924269,51.0343627],[71.4775451,51.0249923],[71.4788771,51.0241314],[71.475646,51.0215791],[71.4740231,51.0223961],[71.4691386,51.0196739],[71.468947,51.0198168],[71.4625042,51.0165878],[71.4597113,51.0123162],[71.4571859,51.0069519],[71.4547484,51.0049056],[71.4541934,51.0006766],[71.4383186,51.0035437],[71.4373207,51.0029412],[71.4356486,51.0039225],[71.4144398,51.0071157],[71.402951,51.0090634],[71.4003795,51.0101037],[71.3817892,51.0129804],[71.3811801,51.0129837],[71.3809477,51.012985],[71.3801142,51.0129896],[71.3355374,51.0190931],[71.3317459,51.0214741],[71.3184737,51.0237469],[71.3123601,51.0233131],[71.3078297,51.0222101],[71.3030227,51.0227157],[71.2908043,51.0217277],[71.2895376,51.0215786],[71.2866187,51.0224236],[71.2847901,51.0237262],[71.2796905,51.0263875],[71.2760821,51.029967],[71.2722388,51.0333053],[71.2693186,51.0350465],[71.2684643,51.0392038],[71.2666071,51.0410646],[71.2631113,51.0424307],[71.2616567,51.0445644],[71.2576794,51.0474837],[71.2554276,51.0504046],[71.2561724,51.0531274],[71.2547052,51.0550155],[71.2550435,51.0573952],[71.2560461,51.0596918],[71.2558708,51.0629586],[71.2531361,51.0662749],[71.250827,51.0680388],[71.2481749,51.0684759],[71.2451662,51.0685891],[71.2261047,51.0997588],[71.224406,51.0989117],[71.2221711,51.0987116]],[[71.6415258,51.3316656],[71.6678132,51.3398842],[71.6838682,51.3509429],[71.6923847,51.3510715],[71.6935159,51.3510721],[71.6938958,51.3510904],[71.6950979,51.3511101],[71.6927107,51.3488787],[71.697736,51.3465872],[71.7011348,51.349766],[71.7063332,51.3476043],[71.7039107,51.3428285],[71.6999211,51.3388761],[71.6990471,51.3378711],[71.6973656,51.3353448],[71.6941792,51.3335279],[71.6938307,51.3337089],[71.6866021,51.3288876],[71.6842449,51.3256499],[71.6787604,51.3217359],[71.672494,51.3174535],[71.6716,51.3165612],[71.6733166,51.3156608],[71.6704181,51.3137676],[71.6742334,51.3111448],[71.6718742,51.3094308],[71.6703576,51.3103754],[71.6666355,51.3130922],[71.658131,51.3173022],[71.6572416,51.3177522],[71.6564341,51.3182197],[71.6513113,51.3215171],[71.6445262,51.3283709],[71.6415258,51.3316656]],[[71.740388,51.16606],[71.7851103,51.165569],[71.7851913,51.1573031],[71.782424,51.1504554],[71.7661365,51.1446854],[71.7608792,51.1457224],[71.7468576,51.1621451],[71.740388,51.16606]]]}}
]
}
